{
  "geometry": {
    "coordinates": [
      [
        [
          0.6676659735618159,
          0.6991378025105223
        ],
        [
          0.6839243766623548,
          0.6991378025105223
        ],
        [
          0.6839243766623548,
          0.7153962056110612
        ],
        [
          0.6676659735618159,
          0.7153962056110612
        ],
        [
          0.6676659735618159,
          0.6991378025105223
        ]
      ]
    ],
    "type": "Polygon"
  },
  "id": "PRP_heavy_cloud_0165",
  "properties": {
    "feature_type": "false_positive_proposal",
    "stratum": "heavy_cloud",
    "tile_id": "AUD_heavy_cloud_018"
  },
  "type": "Feature"
}
