{
  "geometry": {
    "coordinates": [
      [
        [
          0.5335638394425622,
          0.650942474321928
        ],
        [
          0.5570082426446024,
          0.650942474321928
        ],
        [
          0.5570082426446024,
          0.6743868775239681
        ],
        [
          0.5335638394425622,
          0.6743868775239681
        ],
        [
          0.5335638394425622,
          0.650942474321928
        ]
      ]
    ],
    "type": "Polygon"
  },
  "id": "PRP_informal_small_roofs_0051",
  "properties": {
    "feature_type": "proposal",
    "matched_change_id": "CHG_informal_small_roofs_0084",
    "stratum": "informal_small_roofs",
    "tile_id": "AUD_informal_small_roofs_024"
  },
  "type": "Feature"
}
