{
  "geometry": {
    "coordinates": [
      [
        [
          0.3047721899407916,
          0.17728873005649076
        ],
        [
          0.3350133149425965,
          0.17728873005649076
        ],
        [
          0.3350133149425965,
          0.20752985505829566
        ],
        [
          0.3047721899407916,
          0.20752985505829566
        ],
        [
          0.3047721899407916,
          0.17728873005649076
        ]
      ]
    ],
    "type": "Polygon"
  },
  "id": "PRP_heavy_cloud_0117",
  "properties": {
    "feature_type": "proposal",
    "matched_change_id": "CHG_heavy_cloud_0152",
    "stratum": "heavy_cloud",
    "tile_id": "AUD_heavy_cloud_032"
  },
  "type": "Feature"
}
