{
  "geometry": {
    "coordinates": [
      [
        [
          0.7334285536040552,
          0.4972688494296744
        ],
        [
          0.7620716620490421,
          0.4972688494296744
        ],
        [
          0.7620716620490421,
          0.5259119578746613
        ],
        [
          0.7334285536040552,
          0.5259119578746613
        ],
        [
          0.7334285536040552,
          0.4972688494296744
        ]
      ]
    ],
    "type": "Polygon"
  },
  "id": "PRP_clear_regular_0062",
  "properties": {
    "feature_type": "proposal",
    "matched_change_id": "CHG_clear_regular_0076",
    "stratum": "clear_regular",
    "tile_id": "AUD_clear_regular_016"
  },
  "type": "Feature"
}
