{
  "geometry": {
    "coordinates": [
      [
        [
          0.4038786376873031,
          0.21045330131892115
        ],
        [
          0.43775666885124515,
          0.21045330131892115
        ],
        [
          0.43775666885124515,
          0.2443313324828632
        ],
        [
          0.4038786376873031,
          0.2443313324828632
        ],
        [
          0.4038786376873031,
          0.21045330131892115
        ]
      ]
    ],
    "type": "Polygon"
  },
  "id": "PRP_heavy_cloud_0150",
  "properties": {
    "feature_type": "false_positive_proposal",
    "stratum": "heavy_cloud",
    "tile_id": "AUD_heavy_cloud_003"
  },
  "type": "Feature"
}
