{
  "geometry": {
    "coordinates": [
      [
        [
          0.1338375923144631,
          0.7295979933761991
        ],
        [
          0.15478074638941325,
          0.7295979933761991
        ],
        [
          0.15478074638941325,
          0.7505411474511493
        ],
        [
          0.1338375923144631,
          0.7505411474511493
        ],
        [
          0.1338375923144631,
          0.7295979933761991
        ]
      ]
    ],
    "type": "Polygon"
  },
  "id": "PRP_texture_complex_0130",
  "properties": {
    "feature_type": "proposal",
    "matched_change_id": "CHG_texture_complex_0164",
    "stratum": "texture_complex",
    "tile_id": "AUD_texture_complex_044"
  },
  "type": "Feature"
}
