{
  "geometry": {
    "coordinates": [
      [
        [
          0.37523214975232255,
          0.8266671416489407
        ],
        [
          0.4047510846799705,
          0.8266671416489407
        ],
        [
          0.4047510846799705,
          0.8561860765765886
        ],
        [
          0.37523214975232255,
          0.8561860765765886
        ],
        [
          0.37523214975232255,
          0.8266671416489407
        ]
      ]
    ],
    "type": "Polygon"
  },
  "id": "PRP_informal_small_roofs_0070",
  "properties": {
    "feature_type": "proposal",
    "matched_change_id": "CHG_informal_small_roofs_0115",
    "stratum": "informal_small_roofs",
    "tile_id": "AUD_informal_small_roofs_055"
  },
  "type": "Feature"
}
