{
  "geometry": {
    "coordinates": [
      [
        [
          0.536347148520872,
          0.7711505612637848
        ],
        [
          0.5630215582326055,
          0.7711505612637848
        ],
        [
          0.5630215582326055,
          0.7978249709755183
        ],
        [
          0.536347148520872,
          0.7978249709755183
        ],
        [
          0.536347148520872,
          0.7711505612637848
        ]
      ]
    ],
    "type": "Polygon"
  },
  "id": "PRP_heavy_cloud_0149",
  "properties": {
    "feature_type": "false_positive_proposal",
    "stratum": "heavy_cloud",
    "tile_id": "AUD_heavy_cloud_002"
  },
  "type": "Feature"
}
