{
  "geometry": {
    "coordinates": [
      [
        [
          0.4975165020753629,
          0.7162233213419095
        ],
        [
          0.5123822021731175,
          0.7162233213419095
        ],
        [
          0.5123822021731175,
          0.731089021439664
        ],
        [
          0.4975165020753629,
          0.731089021439664
        ],
        [
          0.4975165020753629,
          0.7162233213419095
        ]
      ]
    ],
    "type": "Polygon"
  },
  "id": "PRP_clear_regular_0097",
  "properties": {
    "feature_type": "proposal",
    "matched_change_id": "CHG_clear_regular_0116",
    "stratum": "clear_regular",
    "tile_id": "AUD_clear_regular_056"
  },
  "type": "Feature"
}
