{
  "geometry": {
    "coordinates": [
      [
        [
          0.6984280411386863,
          0.7424455123185181
        ],
        [
          0.7350859698785935,
          0.7424455123185181
        ],
        [
          0.7350859698785935,
          0.7791034410584253
        ],
        [
          0.6984280411386863,
          0.7791034410584253
        ],
        [
          0.6984280411386863,
          0.7424455123185181
        ]
      ]
    ],
    "type": "Polygon"
  },
  "id": "PRP_texture_complex_0101",
  "properties": {
    "feature_type": "proposal",
    "matched_change_id": "CHG_texture_complex_0122",
    "stratum": "texture_complex",
    "tile_id": "AUD_texture_complex_002"
  },
  "type": "Feature"
}
