{
  "geometry": {
    "coordinates": [
      [
        [
          0.13012660003313795,
          0.4751382534233853
        ],
        [
          0.1439630799656734,
          0.4751382534233853
        ],
        [
          0.1439630799656734,
          0.48897473335592073
        ],
        [
          0.13012660003313795,
          0.48897473335592073
        ],
        [
          0.13012660003313795,
          0.4751382534233853
        ]
      ]
    ],
    "type": "Polygon"
  },
  "id": "PRP_clear_regular_0021",
  "properties": {
    "feature_type": "proposal",
    "matched_change_id": "CHG_clear_regular_0027",
    "stratum": "clear_regular",
    "tile_id": "AUD_clear_regular_027"
  },
  "type": "Feature"
}
