{
  "geometry": {
    "coordinates": [
      [
        [
          0.7052993316468783,
          0.538819784168154
        ],
        [
          0.7246186129029375,
          0.538819784168154
        ],
        [
          0.7246186129029375,
          0.5581390654242132
        ],
        [
          0.7052993316468783,
          0.5581390654242132
        ],
        [
          0.7052993316468783,
          0.538819784168154
        ]
      ]
    ],
    "type": "Polygon"
  },
  "id": "PRP_heavy_cloud_0013",
  "properties": {
    "feature_type": "proposal",
    "matched_change_id": "CHG_heavy_cloud_0019",
    "stratum": "heavy_cloud",
    "tile_id": "AUD_heavy_cloud_019"
  },
  "type": "Feature"
}
