{
  "geometry": {
    "coordinates": [
      [
        [
          0.22050680078519508,
          0.16168036224646495
        ],
        [
          0.24968768319115042,
          0.16168036224646495
        ],
        [
          0.24968768319115042,
          0.1908612446524203
        ],
        [
          0.22050680078519508,
          0.1908612446524203
        ],
        [
          0.22050680078519508,
          0.16168036224646495
        ]
      ]
    ],
    "type": "Polygon"
  },
  "id": "PRP_informal_small_roofs_0085",
  "properties": {
    "feature_type": "proposal",
    "matched_change_id": "CHG_informal_small_roofs_0141",
    "stratum": "informal_small_roofs",
    "tile_id": "AUD_informal_small_roofs_021"
  },
  "type": "Feature"
}
