{
  "geometry": {
    "coordinates": [
      [
        [
          0.5611293390393257,
          0.05992106385994703
        ],
        [
          0.5887858120729216,
          0.05992106385994703
        ],
        [
          0.5887858120729216,
          0.08757753689354286
        ],
        [
          0.5611293390393257,
          0.08757753689354286
        ],
        [
          0.5611293390393257,
          0.05992106385994703
        ]
      ]
    ],
    "type": "Polygon"
  },
  "id": "PRP_clear_regular_0139",
  "properties": {
    "feature_type": "false_positive_proposal",
    "stratum": "clear_regular",
    "tile_id": "AUD_clear_regular_000"
  },
  "type": "Feature"
}
