{
  "geometry": {
    "coordinates": [
      [
        [
          0.14782013867842034,
          0.17849218696402383
        ],
        [
          0.1658052043444477,
          0.17849218696402383
        ],
        [
          0.1658052043444477,
          0.1964772526300512
        ],
        [
          0.14782013867842034,
          0.1964772526300512
        ],
        [
          0.14782013867842034,
          0.17849218696402383
        ]
      ]
    ],
    "type": "Polygon"
  },
  "id": "PRP_informal_small_roofs_0003",
  "properties": {
    "feature_type": "proposal",
    "matched_change_id": "CHG_informal_small_roofs_0003",
    "stratum": "informal_small_roofs",
    "tile_id": "AUD_informal_small_roofs_003"
  },
  "type": "Feature"
}
