{
  "geometry": {
    "coordinates": [
      [
        [
          0.278956427720841,
          0.5422820374011061
        ],
        [
          0.3078444331528153,
          0.5422820374011061
        ],
        [
          0.3078444331528153,
          0.5711700428330805
        ],
        [
          0.278956427720841,
          0.5711700428330805
        ],
        [
          0.278956427720841,
          0.5422820374011061
        ]
      ]
    ],
    "type": "Polygon"
  },
  "id": "PRP_informal_small_roofs_0030",
  "properties": {
    "feature_type": "proposal",
    "matched_change_id": "CHG_informal_small_roofs_0046",
    "stratum": "informal_small_roofs",
    "tile_id": "AUD_informal_small_roofs_046"
  },
  "type": "Feature"
}
