{
  "geometry": {
    "coordinates": [
      [
        [
          0.09630754584493115,
          0.4501530951168388
        ],
        [
          0.13026032810192556,
          0.4501530951168388
        ],
        [
          0.13026032810192556,
          0.4841058773738332
        ],
        [
          0.09630754584493115,
          0.4841058773738332
        ],
        [
          0.09630754584493115,
          0.4501530951168388
        ]
      ]
    ],
    "type": "Polygon"
  },
  "id": "PRP_informal_small_roofs_0091",
  "properties": {
    "feature_type": "proposal",
    "matched_change_id": "CHG_informal_small_roofs_0148",
    "stratum": "informal_small_roofs",
    "tile_id": "AUD_informal_small_roofs_028"
  },
  "type": "Feature"
}
