{
  "geometry": {
    "coordinates": [
      [
        [
          0.13989223447069526,
          0.860111882533878
        ],
        [
          0.16081075328821318,
          0.860111882533878
        ],
        [
          0.16081075328821318,
          0.881030401351396
        ],
        [
          0.13989223447069526,
          0.881030401351396
        ],
        [
          0.13989223447069526,
          0.860111882533878
        ]
      ]
    ],
    "type": "Polygon"
  },
  "id": "PRP_heavy_cloud_0017",
  "properties": {
    "feature_type": "proposal",
    "matched_change_id": "CHG_heavy_cloud_0023",
    "stratum": "heavy_cloud",
    "tile_id": "AUD_heavy_cloud_023"
  },
  "type": "Feature"
}
