{
  "geometry": {
    "coordinates": [
      [
        [
          0.7728766989284195,
          0.09709921526629478
        ],
        [
          0.8097309325449169,
          0.09709921526629478
        ],
        [
          0.8097309325449169,
          0.13395344888279215
        ],
        [
          0.7728766989284195,
          0.13395344888279215
        ],
        [
          0.7728766989284195,
          0.09709921526629478
        ]
      ]
    ],
    "type": "Polygon"
  },
  "id": "PRP_clear_regular_0125",
  "properties": {
    "feature_type": "proposal",
    "matched_change_id": "CHG_clear_regular_0145",
    "stratum": "clear_regular",
    "tile_id": "AUD_clear_regular_025"
  },
  "type": "Feature"
}
