{
  "geometry": {
    "coordinates": [
      [
        [
          0.5186909729875624,
          0.32994725345820186
        ],
        [
          0.5417362313750199,
          0.32994725345820186
        ],
        [
          0.5417362313750199,
          0.35299251184565944
        ],
        [
          0.5186909729875624,
          0.35299251184565944
        ],
        [
          0.5186909729875624,
          0.32994725345820186
        ]
      ]
    ],
    "type": "Polygon"
  },
  "id": "PRP_texture_complex_0091",
  "properties": {
    "feature_type": "proposal",
    "matched_change_id": "CHG_texture_complex_0107",
    "stratum": "texture_complex",
    "tile_id": "AUD_texture_complex_047"
  },
  "type": "Feature"
}
