{
  "geometry": {
    "coordinates": [
      [
        [
          0.8296232577832415,
          0.6287580666225404
        ],
        [
          0.8619249471304937,
          0.6287580666225404
        ],
        [
          0.8619249471304937,
          0.6610597559697926
        ],
        [
          0.8296232577832415,
          0.6610597559697926
        ],
        [
          0.8296232577832415,
          0.6287580666225404
        ]
      ]
    ],
    "type": "Polygon"
  },
  "id": "PRP_clear_regular_0145",
  "properties": {
    "feature_type": "false_positive_proposal",
    "stratum": "clear_regular",
    "tile_id": "AUD_clear_regular_006"
  },
  "type": "Feature"
}
