{
  "geometry": {
    "coordinates": [
      [
        [
          0.7742628477094695,
          0.8429331225948408
        ],
        [
          0.806292339279782,
          0.8429331225948408
        ],
        [
          0.806292339279782,
          0.8749626141651533
        ],
        [
          0.7742628477094695,
          0.8749626141651533
        ],
        [
          0.7742628477094695,
          0.8429331225948408
        ]
      ]
    ],
    "type": "Polygon"
  },
  "id": "PRP_heavy_cloud_0168",
  "properties": {
    "feature_type": "false_positive_proposal",
    "stratum": "heavy_cloud",
    "tile_id": "AUD_heavy_cloud_021"
  },
  "type": "Feature"
}
