{
  "geometry": {
    "coordinates": [
      [
        [
          0.3133110835542902,
          0.585902365970891
        ],
        [
          0.3461412007668987,
          0.585902365970891
        ],
        [
          0.3461412007668987,
          0.6187324831834994
        ],
        [
          0.3133110835542902,
          0.6187324831834994
        ],
        [
          0.3133110835542902,
          0.585902365970891
        ]
      ]
    ],
    "type": "Polygon"
  },
  "id": "PRP_texture_complex_0108",
  "properties": {
    "feature_type": "proposal",
    "matched_change_id": "CHG_texture_complex_0132",
    "stratum": "texture_complex",
    "tile_id": "AUD_texture_complex_012"
  },
  "type": "Feature"
}
