{
  "geometry": {
    "coordinates": [
      [
        [
          0.32722656276868656,
          0.5662920899018645
        ],
        [
          0.3593746686705854,
          0.5662920899018645
        ],
        [
          0.3593746686705854,
          0.5984401958037634
        ],
        [
          0.32722656276868656,
          0.5984401958037634
        ],
        [
          0.32722656276868656,
          0.5662920899018645
        ]
      ]
    ],
    "type": "Polygon"
  },
  "id": "PRP_texture_complex_0051",
  "properties": {
    "feature_type": "proposal",
    "matched_change_id": "CHG_texture_complex_0065",
    "stratum": "texture_complex",
    "tile_id": "AUD_texture_complex_005"
  },
  "type": "Feature"
}
