{
  "geometry": {
    "coordinates": [
      [
        [
          0.5945685186758637,
          0.3217101615909487
        ],
        [
          0.6135968150969129,
          0.3217101615909487
        ],
        [
          0.6135968150969129,
          0.3407384580119978
        ],
        [
          0.5945685186758637,
          0.3407384580119978
        ],
        [
          0.5945685186758637,
          0.3217101615909487
        ]
      ]
    ],
    "type": "Polygon"
  },
  "id": "PRP_clear_regular_0072",
  "properties": {
    "feature_type": "proposal",
    "matched_change_id": "CHG_clear_regular_0089",
    "stratum": "clear_regular",
    "tile_id": "AUD_clear_regular_029"
  },
  "type": "Feature"
}
