{
  "geometry": {
    "coordinates": [
      [
        [
          0.5786363817644306,
          0.4252290466800332
        ],
        [
          0.6058293888417539,
          0.4252290466800332
        ],
        [
          0.6058293888417539,
          0.45242205375735645
        ],
        [
          0.5786363817644306,
          0.45242205375735645
        ],
        [
          0.5786363817644306,
          0.4252290466800332
        ]
      ]
    ],
    "type": "Polygon"
  },
  "id": "PRP_heavy_cloud_0082",
  "properties": {
    "feature_type": "proposal",
    "matched_change_id": "CHG_heavy_cloud_0102",
    "stratum": "heavy_cloud",
    "tile_id": "AUD_heavy_cloud_042"
  },
  "type": "Feature"
}
