{
  "geometry": {
    "coordinates": [
      [
        [
          0.6448123868792318,
          0.6547147675640881
        ],
        [
          0.6728870595640037,
          0.6547147675640881
        ],
        [
          0.6728870595640037,
          0.68278944024886
        ],
        [
          0.6448123868792318,
          0.68278944024886
        ],
        [
          0.6448123868792318,
          0.6547147675640881
        ]
      ]
    ],
    "type": "Polygon"
  },
  "id": "PRP_heavy_cloud_0075",
  "properties": {
    "feature_type": "proposal",
    "matched_change_id": "CHG_heavy_cloud_0092",
    "stratum": "heavy_cloud",
    "tile_id": "AUD_heavy_cloud_032"
  },
  "type": "Feature"
}
