{
  "geometry": {
    "coordinates": [
      [
        [
          0.12296865405747666,
          0.3246862675989978
        ],
        [
          0.1575321994924452,
          0.3246862675989978
        ],
        [
          0.1575321994924452,
          0.35924981303396636
        ],
        [
          0.12296865405747666,
          0.35924981303396636
        ],
        [
          0.12296865405747666,
          0.3246862675989978
        ]
      ]
    ],
    "type": "Polygon"
  },
  "id": "PRP_texture_complex_0053",
  "properties": {
    "feature_type": "proposal",
    "matched_change_id": "CHG_texture_complex_0068",
    "stratum": "texture_complex",
    "tile_id": "AUD_texture_complex_008"
  },
  "type": "Feature"
}
