{
  "geometry": {
    "coordinates": [
      [
        [
          0.5198167304745875,
          0.8675918320049532
        ],
        [
          0.5391712106307969,
          0.8675918320049532
        ],
        [
          0.5391712106307969,
          0.8869463121611625
        ],
        [
          0.5198167304745875,
          0.8869463121611625
        ],
        [
          0.5198167304745875,
          0.8675918320049532
        ]
      ]
    ],
    "type": "Polygon"
  },
  "id": "PRP_clear_regular_0043",
  "properties": {
    "feature_type": "proposal",
    "matched_change_id": "CHG_clear_regular_0055",
    "stratum": "clear_regular",
    "tile_id": "AUD_clear_regular_055"
  },
  "type": "Feature"
}
