{
  "geometry": {
    "coordinates": [
      [
        [
          0.7580543119390495,
          0.45717629295960066
        ],
        [
          0.785003788535716,
          0.45717629295960066
        ],
        [
          0.785003788535716,
          0.4841257695562672
        ],
        [
          0.7580543119390495,
          0.4841257695562672
        ],
        [
          0.7580543119390495,
          0.45717629295960066
        ]
      ]
    ],
    "type": "Polygon"
  },
  "id": "PRP_informal_small_roofs_0095",
  "properties": {
    "feature_type": "proposal",
    "matched_change_id": "CHG_informal_small_roofs_0155",
    "stratum": "informal_small_roofs",
    "tile_id": "AUD_informal_small_roofs_035"
  },
  "type": "Feature"
}
