{
  "geometry": {
    "coordinates": [
      [
        [
          0.5059905326818115,
          0.1326296507078223
        ],
        [
          0.5291578251707832,
          0.1326296507078223
        ],
        [
          0.5291578251707832,
          0.15579694319679402
        ],
        [
          0.5059905326818115,
          0.15579694319679402
        ],
        [
          0.5059905326818115,
          0.1326296507078223
        ]
      ]
    ],
    "type": "Polygon"
  },
  "id": "PRP_texture_complex_0061",
  "properties": {
    "feature_type": "proposal",
    "matched_change_id": "CHG_texture_complex_0076",
    "stratum": "texture_complex",
    "tile_id": "AUD_texture_complex_016"
  },
  "type": "Feature"
}
