{
  "geometry": {
    "coordinates": [
      [
        [
          0.300518488985952,
          0.4488463452719152
        ],
        [
          0.32048882635775955,
          0.4488463452719152
        ],
        [
          0.32048882635775955,
          0.4688166826437227
        ],
        [
          0.300518488985952,
          0.4688166826437227
        ],
        [
          0.300518488985952,
          0.4488463452719152
        ]
      ]
    ],
    "type": "Polygon"
  },
  "id": "PRP_texture_complex_0058",
  "properties": {
    "feature_type": "proposal",
    "matched_change_id": "CHG_texture_complex_0073",
    "stratum": "texture_complex",
    "tile_id": "AUD_texture_complex_013"
  },
  "type": "Feature"
}
