{
  "geometry": {
    "coordinates": [
      [
        [
          0.3758961887946352,
          0.167332895596046
        ],
        [
          0.39249207128095437,
          0.167332895596046
        ],
        [
          0.39249207128095437,
          0.18392877808236516
        ],
        [
          0.3758961887946352,
          0.18392877808236516
        ],
        [
          0.3758961887946352,
          0.167332895596046
        ]
      ]
    ],
    "type": "Polygon"
  },
  "id": "PRP_texture_complex_0043",
  "properties": {
    "feature_type": "proposal",
    "matched_change_id": "CHG_texture_complex_0055",
    "stratum": "texture_complex",
    "tile_id": "AUD_texture_complex_055"
  },
  "type": "Feature"
}
