{
  "geometry": {
    "coordinates": [
      [
        [
          0.29863862968515603,
          0.0798630895325914
        ],
        [
          0.32238007889175785,
          0.0798630895325914
        ],
        [
          0.32238007889175785,
          0.10360453873919323
        ],
        [
          0.29863862968515603,
          0.10360453873919323
        ],
        [
          0.29863862968515603,
          0.0798630895325914
        ]
      ]
    ],
    "type": "Polygon"
  },
  "id": "PRP_clear_regular_0140",
  "properties": {
    "feature_type": "false_positive_proposal",
    "stratum": "clear_regular",
    "tile_id": "AUD_clear_regular_001"
  },
  "type": "Feature"
}
