{
  "geometry": {
    "coordinates": [
      [
        [
          0.7491362053109333,
          0.07492807774338872
        ],
        [
          0.7844709735100623,
          0.07492807774338872
        ],
        [
          0.7844709735100623,
          0.11026284594251776
        ],
        [
          0.7491362053109333,
          0.11026284594251776
        ],
        [
          0.7491362053109333,
          0.07492807774338872
        ]
      ]
    ],
    "type": "Polygon"
  },
  "id": "PRP_heavy_cloud_0152",
  "properties": {
    "feature_type": "false_positive_proposal",
    "stratum": "heavy_cloud",
    "tile_id": "AUD_heavy_cloud_005"
  },
  "type": "Feature"
}
