{
  "geometry": {
    "coordinates": [
      [
        [
          0.4704019885268062,
          0.15307048777909948
        ],
        [
          0.49137162750074637,
          0.15307048777909948
        ],
        [
          0.49137162750074637,
          0.17404012675303965
        ],
        [
          0.4704019885268062,
          0.17404012675303965
        ],
        [
          0.4704019885268062,
          0.15307048777909948
        ]
      ]
    ],
    "type": "Polygon"
  },
  "id": "PRP_informal_small_roofs_0018",
  "properties": {
    "feature_type": "proposal",
    "matched_change_id": "CHG_informal_small_roofs_0026",
    "stratum": "informal_small_roofs",
    "tile_id": "AUD_informal_small_roofs_026"
  },
  "type": "Feature"
}
