{
  "geometry": {
    "coordinates": [
      [
        [
          0.6710220741154627,
          0.3275149907171726
        ],
        [
          0.6886641436540523,
          0.3275149907171726
        ],
        [
          0.6886641436540523,
          0.34515706025576215
        ],
        [
          0.6710220741154627,
          0.34515706025576215
        ],
        [
          0.6710220741154627,
          0.3275149907171726
        ]
      ]
    ],
    "type": "Polygon"
  },
  "id": "PRP_heavy_cloud_0163",
  "properties": {
    "feature_type": "false_positive_proposal",
    "stratum": "heavy_cloud",
    "tile_id": "AUD_heavy_cloud_016"
  },
  "type": "Feature"
}
