{
  "geometry": {
    "coordinates": [
      [
        [
          0.5067293714727276,
          0.6324370341747999
        ],
        [
          0.5278188317490277,
          0.6324370341747999
        ],
        [
          0.5278188317490277,
          0.6535264944511
        ],
        [
          0.5067293714727276,
          0.6535264944511
        ],
        [
          0.5067293714727276,
          0.6324370341747999
        ]
      ]
    ],
    "type": "Polygon"
  },
  "id": "PRP_clear_regular_0110",
  "properties": {
    "feature_type": "proposal",
    "matched_change_id": "CHG_clear_regular_0129",
    "stratum": "clear_regular",
    "tile_id": "AUD_clear_regular_009"
  },
  "type": "Feature"
}
