{
  "geometry": {
    "coordinates": [
      [
        [
          0.5839561166218482,
          0.7743052002326586
        ],
        [
          0.6104682570886798,
          0.7743052002326586
        ],
        [
          0.6104682570886798,
          0.8008173406994902
        ],
        [
          0.5839561166218482,
          0.8008173406994902
        ],
        [
          0.5839561166218482,
          0.7743052002326586
        ]
      ]
    ],
    "type": "Polygon"
  },
  "id": "PRP_informal_small_roofs_0077",
  "properties": {
    "feature_type": "proposal",
    "matched_change_id": "CHG_informal_small_roofs_0125",
    "stratum": "informal_small_roofs",
    "tile_id": "AUD_informal_small_roofs_005"
  },
  "type": "Feature"
}
