{
  "geometry": {
    "coordinates": [
      [
        [
          0.10194791452726348,
          0.494885727668181
        ],
        [
          0.1321677582145203,
          0.494885727668181
        ],
        [
          0.1321677582145203,
          0.5251055713554378
        ],
        [
          0.10194791452726348,
          0.5251055713554378
        ],
        [
          0.10194791452726348,
          0.494885727668181
        ]
      ]
    ],
    "type": "Polygon"
  },
  "id": "PRP_informal_small_roofs_0069",
  "properties": {
    "feature_type": "proposal",
    "matched_change_id": "CHG_informal_small_roofs_0114",
    "stratum": "informal_small_roofs",
    "tile_id": "AUD_informal_small_roofs_054"
  },
  "type": "Feature"
}
