{
  "geometry": {
    "coordinates": [
      [
        [
          0.7824121371395887,
          0.1856758725019172
        ],
        [
          0.8113490798533896,
          0.1856758725019172
        ],
        [
          0.8113490798533896,
          0.214612815215718
        ],
        [
          0.7824121371395887,
          0.214612815215718
        ],
        [
          0.7824121371395887,
          0.1856758725019172
        ]
      ]
    ],
    "type": "Polygon"
  },
  "id": "PRP_heavy_cloud_0064",
  "properties": {
    "feature_type": "proposal",
    "matched_change_id": "CHG_heavy_cloud_0079",
    "stratum": "heavy_cloud",
    "tile_id": "AUD_heavy_cloud_019"
  },
  "type": "Feature"
}
