{
  "geometry": {
    "coordinates": [
      [
        [
          0.7604803838022053,
          0.20649689223617312
        ],
        [
          0.7725575722479261,
          0.20649689223617312
        ],
        [
          0.7725575722479261,
          0.21857408068189393
        ],
        [
          0.7604803838022053,
          0.21857408068189393
        ],
        [
          0.7604803838022053,
          0.20649689223617312
        ]
      ]
    ],
    "type": "Polygon"
  },
  "id": "PRP_heavy_cloud_0147",
  "properties": {
    "feature_type": "false_positive_proposal",
    "stratum": "heavy_cloud",
    "tile_id": "AUD_heavy_cloud_000"
  },
  "type": "Feature"
}
