{
  "geometry": {
    "coordinates": [
      [
        [
          0.6608806011686101,
          0.23256113454699517
        ],
        [
          0.6787189725744538,
          0.23256113454699517
        ],
        [
          0.6787189725744538,
          0.25039950595283883
        ],
        [
          0.6608806011686101,
          0.25039950595283883
        ],
        [
          0.6608806011686101,
          0.23256113454699517
        ]
      ]
    ],
    "type": "Polygon"
  },
  "id": "PRP_heavy_cloud_0167",
  "properties": {
    "feature_type": "false_positive_proposal",
    "stratum": "heavy_cloud",
    "tile_id": "AUD_heavy_cloud_020"
  },
  "type": "Feature"
}
