{
  "geometry": {
    "coordinates": [
      [
        [
          0.5097928948099725,
          0.7181355582792311
        ],
        [
          0.5273473763533402,
          0.7181355582792311
        ],
        [
          0.5273473763533402,
          0.7356900398225988
        ],
        [
          0.5097928948099725,
          0.7356900398225988
        ],
        [
          0.5097928948099725,
          0.7181355582792311
        ]
      ]
    ],
    "type": "Polygon"
  },
  "id": "PRP_clear_regular_0099",
  "properties": {
    "feature_type": "proposal",
    "matched_change_id": "CHG_clear_regular_0118",
    "stratum": "clear_regular",
    "tile_id": "AUD_clear_regular_058"
  },
  "type": "Feature"
}
