{
  "geometry": {
    "coordinates": [
      [
        [
          0.4164741389416158,
          0.15966030077030885
        ],
        [
          0.44297299535502677,
          0.15966030077030885
        ],
        [
          0.44297299535502677,
          0.18615915718371984
        ],
        [
          0.4164741389416158,
          0.18615915718371984
        ],
        [
          0.4164741389416158,
          0.15966030077030885
        ]
      ]
    ],
    "type": "Polygon"
  },
  "id": "PRP_informal_small_roofs_0059",
  "properties": {
    "feature_type": "proposal",
    "matched_change_id": "CHG_informal_small_roofs_0094",
    "stratum": "informal_small_roofs",
    "tile_id": "AUD_informal_small_roofs_034"
  },
  "type": "Feature"
}
