{
  "geometry": {
    "coordinates": [
      [
        [
          0.3001059910515323,
          0.48097139697987584
        ],
        [
          0.3296076854520943,
          0.48097139697987584
        ],
        [
          0.3296076854520943,
          0.5104730913804378
        ],
        [
          0.3001059910515323,
          0.5104730913804378
        ],
        [
          0.3001059910515323,
          0.48097139697987584
        ]
      ]
    ],
    "type": "Polygon"
  },
  "id": "PRP_heavy_cloud_0160",
  "properties": {
    "feature_type": "false_positive_proposal",
    "stratum": "heavy_cloud",
    "tile_id": "AUD_heavy_cloud_013"
  },
  "type": "Feature"
}
