{
  "geometry": {
    "coordinates": [
      [
        [
          0.8574111306527629,
          0.6983057893440127
        ],
        [
          0.8741839376469142,
          0.6983057893440127
        ],
        [
          0.8741839376469142,
          0.715078596338164
        ],
        [
          0.8574111306527629,
          0.715078596338164
        ],
        [
          0.8574111306527629,
          0.6983057893440127
        ]
      ]
    ],
    "type": "Polygon"
  },
  "id": "PRP_texture_complex_0016",
  "properties": {
    "feature_type": "proposal",
    "matched_change_id": "CHG_texture_complex_0024",
    "stratum": "texture_complex",
    "tile_id": "AUD_texture_complex_024"
  },
  "type": "Feature"
}
