{
  "geometry": {
    "coordinates": [
      [
        [
          0.5419687404320574,
          0.14104255880927669
        ],
        [
          0.5552451550406403,
          0.14104255880927669
        ],
        [
          0.5552451550406403,
          0.15431897341785955
        ],
        [
          0.5419687404320574,
          0.15431897341785955
        ],
        [
          0.5419687404320574,
          0.14104255880927669
        ]
      ]
    ],
    "type": "Polygon"
  },
  "id": "PRP_heavy_cloud_0051",
  "properties": {
    "feature_type": "proposal",
    "matched_change_id": "CHG_heavy_cloud_0063",
    "stratum": "heavy_cloud",
    "tile_id": "AUD_heavy_cloud_003"
  },
  "type": "Feature"
}
