{
  "geometry": {
    "coordinates": [
      [
        [
          0.4373976665087975,
          0.10183127117715776
        ],
        [
          0.4515317635212559,
          0.10183127117715776
        ],
        [
          0.4515317635212559,
          0.11596536818961613
        ],
        [
          0.4373976665087975,
          0.11596536818961613
        ],
        [
          0.4373976665087975,
          0.10183127117715776
        ]
      ]
    ],
    "type": "Polygon"
  },
  "id": "PRP_clear_regular_0026",
  "properties": {
    "feature_type": "proposal",
    "matched_change_id": "CHG_clear_regular_0034",
    "stratum": "clear_regular",
    "tile_id": "AUD_clear_regular_034"
  },
  "type": "Feature"
}
