{
  "geometry": {
    "coordinates": [
      [
        [
          0.4791123520294204,
          0.06645516420342028
        ],
        [
          0.4998602874292991,
          0.06645516420342028
        ],
        [
          0.4998602874292991,
          0.08720309960329904
        ],
        [
          0.4791123520294204,
          0.08720309960329904
        ],
        [
          0.4791123520294204,
          0.06645516420342028
        ]
      ]
    ],
    "type": "Polygon"
  },
  "id": "PRP_texture_complex_0048",
  "properties": {
    "feature_type": "proposal",
    "matched_change_id": "CHG_texture_complex_0061",
    "stratum": "texture_complex",
    "tile_id": "AUD_texture_complex_001"
  },
  "type": "Feature"
}
