{
  "geometry": {
    "coordinates": [
      [
        [
          0.5768020198633894,
          0.18669673203490672
        ],
        [
          0.5931692850792315,
          0.18669673203490672
        ],
        [
          0.5931692850792315,
          0.20306399725074878
        ],
        [
          0.5768020198633894,
          0.20306399725074878
        ],
        [
          0.5768020198633894,
          0.18669673203490672
        ]
      ]
    ],
    "type": "Polygon"
  },
  "id": "PRP_heavy_cloud_0169",
  "properties": {
    "feature_type": "false_positive_proposal",
    "stratum": "heavy_cloud",
    "tile_id": "AUD_heavy_cloud_022"
  },
  "type": "Feature"
}
