{
  "geometry": {
    "coordinates": [
      [
        [
          0.6456962932930328,
          0.4501574765923433
        ],
        [
          0.6726028980149422,
          0.4501574765923433
        ],
        [
          0.6726028980149422,
          0.47706408131425265
        ],
        [
          0.6456962932930328,
          0.47706408131425265
        ],
        [
          0.6456962932930328,
          0.4501574765923433
        ]
      ]
    ],
    "type": "Polygon"
  },
  "id": "PRP_informal_small_roofs_0050",
  "properties": {
    "feature_type": "proposal",
    "matched_change_id": "CHG_informal_small_roofs_0082",
    "stratum": "informal_small_roofs",
    "tile_id": "AUD_informal_small_roofs_022"
  },
  "type": "Feature"
}
