{
  "geometry": {
    "coordinates": [
      [
        [
          0.4922640312733128,
          0.8312625520094298
        ],
        [
          0.5277309711948037,
          0.8312625520094298
        ],
        [
          0.5277309711948037,
          0.8667294919309206
        ],
        [
          0.4922640312733128,
          0.8667294919309206
        ],
        [
          0.4922640312733128,
          0.8312625520094298
        ]
      ]
    ],
    "type": "Polygon"
  },
  "id": "PRP_informal_small_roofs_0079",
  "properties": {
    "feature_type": "proposal",
    "matched_change_id": "CHG_informal_small_roofs_0130",
    "stratum": "informal_small_roofs",
    "tile_id": "AUD_informal_small_roofs_010"
  },
  "type": "Feature"
}
