{
  "geometry": {
    "coordinates": [
      [
        [
          0.23360125882877034,
          0.17106945204688237
        ],
        [
          0.25747531291586345,
          0.17106945204688237
        ],
        [
          0.25747531291586345,
          0.19494350613397546
        ],
        [
          0.23360125882877034,
          0.19494350613397546
        ],
        [
          0.23360125882877034,
          0.17106945204688237
        ]
      ]
    ],
    "type": "Polygon"
  },
  "id": "PRP_texture_complex_0073",
  "properties": {
    "feature_type": "proposal",
    "matched_change_id": "CHG_texture_complex_0088",
    "stratum": "texture_complex",
    "tile_id": "AUD_texture_complex_028"
  },
  "type": "Feature"
}
