{
  "geometry": {
    "coordinates": [
      [
        [
          0.8676743345661089,
          0.6430147574613801
        ],
        [
          0.8811714910708833,
          0.6430147574613801
        ],
        [
          0.8811714910708833,
          0.6565119139661546
        ],
        [
          0.8676743345661089,
          0.6565119139661546
        ],
        [
          0.8676743345661089,
          0.6430147574613801
        ]
      ]
    ],
    "type": "Polygon"
  },
  "id": "PRP_clear_regular_0118",
  "properties": {
    "feature_type": "proposal",
    "matched_change_id": "CHG_clear_regular_0137",
    "stratum": "clear_regular",
    "tile_id": "AUD_clear_regular_017"
  },
  "type": "Feature"
}
