{
  "geometry": {
    "coordinates": [
      [
        [
          0.057779061878100044,
          0.5614311169926077
        ],
        [
          0.0879340302750934,
          0.5614311169926077
        ],
        [
          0.0879340302750934,
          0.5915860853896011
        ],
        [
          0.057779061878100044,
          0.5915860853896011
        ],
        [
          0.057779061878100044,
          0.5614311169926077
        ]
      ]
    ],
    "type": "Polygon"
  },
  "id": "PRP_heavy_cloud_0153",
  "properties": {
    "feature_type": "false_positive_proposal",
    "stratum": "heavy_cloud",
    "tile_id": "AUD_heavy_cloud_006"
  },
  "type": "Feature"
}
