{
  "geometry": {
    "coordinates": [
      [
        [
          0.4851032539876178,
          0.07886841546744108
        ],
        [
          0.5056959528911393,
          0.07886841546744108
        ],
        [
          0.5056959528911393,
          0.09946111437096261
        ],
        [
          0.4851032539876178,
          0.09946111437096261
        ],
        [
          0.4851032539876178,
          0.07886841546744108
        ]
      ]
    ],
    "type": "Polygon"
  },
  "id": "PRP_clear_regular_0155",
  "properties": {
    "feature_type": "false_positive_proposal",
    "stratum": "clear_regular",
    "tile_id": "AUD_clear_regular_016"
  },
  "type": "Feature"
}
