{
  "geometry": {
    "coordinates": [
      [
        [
          0.30395036322530355,
          0.1549913492705673
        ],
        [
          0.33792532565118744,
          0.1549913492705673
        ],
        [
          0.33792532565118744,
          0.18896631169645114
        ],
        [
          0.30395036322530355,
          0.18896631169645114
        ],
        [
          0.30395036322530355,
          0.1549913492705673
        ]
      ]
    ],
    "type": "Polygon"
  },
  "id": "PRP_heavy_cloud_0159",
  "properties": {
    "feature_type": "false_positive_proposal",
    "stratum": "heavy_cloud",
    "tile_id": "AUD_heavy_cloud_012"
  },
  "type": "Feature"
}
