{
  "geometry": {
    "coordinates": [
      [
        [
          0.3477085038088262,
          0.17857819024473426
        ],
        [
          0.36573766430420795,
          0.17857819024473426
        ],
        [
          0.36573766430420795,
          0.19660735074011607
        ],
        [
          0.3477085038088262,
          0.19660735074011607
        ],
        [
          0.3477085038088262,
          0.17857819024473426
        ]
      ]
    ],
    "type": "Polygon"
  },
  "id": "PRP_heavy_cloud_0170",
  "properties": {
    "feature_type": "false_positive_proposal",
    "stratum": "heavy_cloud",
    "tile_id": "AUD_heavy_cloud_023"
  },
  "type": "Feature"
}
