{
  "geometry": {
    "coordinates": [
      [
        [
          0.4546808691252954,
          0.8271652898644096
        ],
        [
          0.48384401494683693,
          0.8271652898644096
        ],
        [
          0.48384401494683693,
          0.8563284356859512
        ],
        [
          0.4546808691252954,
          0.8563284356859512
        ],
        [
          0.4546808691252954,
          0.8271652898644096
        ]
      ]
    ],
    "type": "Polygon"
  },
  "id": "PRP_informal_small_roofs_0006",
  "properties": {
    "feature_type": "proposal",
    "matched_change_id": "CHG_informal_small_roofs_0008",
    "stratum": "informal_small_roofs",
    "tile_id": "AUD_informal_small_roofs_008"
  },
  "type": "Feature"
}
