{
  "geometry": {
    "coordinates": [
      [
        [
          0.578810474128928,
          0.1646169526083395
        ],
        [
          0.5981106427190825,
          0.1646169526083395
        ],
        [
          0.5981106427190825,
          0.183917121198494
        ],
        [
          0.578810474128928,
          0.183917121198494
        ],
        [
          0.578810474128928,
          0.1646169526083395
        ]
      ]
    ],
    "type": "Polygon"
  },
  "id": "PRP_clear_regular_0013",
  "properties": {
    "feature_type": "proposal",
    "matched_change_id": "CHG_clear_regular_0018",
    "stratum": "clear_regular",
    "tile_id": "AUD_clear_regular_018"
  },
  "type": "Feature"
}
