{
  "geometry": {
    "coordinates": [
      [
        [
          0.44158518316689876,
          0.2940127526130527
        ],
        [
          0.46652227041823785,
          0.2940127526130527
        ],
        [
          0.46652227041823785,
          0.3189498398643918
        ],
        [
          0.44158518316689876,
          0.3189498398643918
        ],
        [
          0.44158518316689876,
          0.2940127526130527
        ]
      ]
    ],
    "type": "Polygon"
  },
  "id": "PRP_heavy_cloud_0164",
  "properties": {
    "feature_type": "false_positive_proposal",
    "stratum": "heavy_cloud",
    "tile_id": "AUD_heavy_cloud_017"
  },
  "type": "Feature"
}
