{
  "geometry": {
    "coordinates": [
      [
        [
          0.7572026587780565,
          0.13942907322570683
        ],
        [
          0.7828477305006235,
          0.13942907322570683
        ],
        [
          0.7828477305006235,
          0.1650741449482739
        ],
        [
          0.7572026587780565,
          0.1650741449482739
        ],
        [
          0.7572026587780565,
          0.13942907322570683
        ]
      ]
    ],
    "type": "Polygon"
  },
  "id": "PRP_informal_small_roofs_0086",
  "properties": {
    "feature_type": "proposal",
    "matched_change_id": "CHG_informal_small_roofs_0142",
    "stratum": "informal_small_roofs",
    "tile_id": "AUD_informal_small_roofs_022"
  },
  "type": "Feature"
}
