{
  "geometry": {
    "coordinates": [
      [
        [
          0.3073089190246537,
          0.7813710217177868
        ],
        [
          0.33879080523783334,
          0.7813710217177868
        ],
        [
          0.33879080523783334,
          0.8128529079309665
        ],
        [
          0.3073089190246537,
          0.8128529079309665
        ],
        [
          0.3073089190246537,
          0.7813710217177868
        ]
      ]
    ],
    "type": "Polygon"
  },
  "id": "PRP_heavy_cloud_0161",
  "properties": {
    "feature_type": "false_positive_proposal",
    "stratum": "heavy_cloud",
    "tile_id": "AUD_heavy_cloud_014"
  },
  "type": "Feature"
}
