{
  "geometry": {
    "coordinates": [
      [
        [
          0.6101888943160884,
          0.5316734865545295
        ],
        [
          0.6466285600902046,
          0.5316734865545295
        ],
        [
          0.6466285600902046,
          0.5681131523286458
        ],
        [
          0.6101888943160884,
          0.5681131523286458
        ],
        [
          0.6101888943160884,
          0.5316734865545295
        ]
      ]
    ],
    "type": "Polygon"
  },
  "id": "PRP_clear_regular_0011",
  "properties": {
    "feature_type": "proposal",
    "matched_change_id": "CHG_clear_regular_0014",
    "stratum": "clear_regular",
    "tile_id": "AUD_clear_regular_014"
  },
  "type": "Feature"
}
