{
  "geometry": {
    "coordinates": [
      [
        [
          0.7480195922125131,
          0.8574969298811629
        ],
        [
          0.7765621537568513,
          0.8574969298811629
        ],
        [
          0.7765621537568513,
          0.8860394914255011
        ],
        [
          0.7480195922125131,
          0.8860394914255011
        ],
        [
          0.7480195922125131,
          0.8574969298811629
        ]
      ]
    ],
    "type": "Polygon"
  },
  "id": "PRP_heavy_cloud_0166",
  "properties": {
    "feature_type": "false_positive_proposal",
    "stratum": "heavy_cloud",
    "tile_id": "AUD_heavy_cloud_019"
  },
  "type": "Feature"
}
