{
  "geometry": {
    "coordinates": [
      [
        [
          0.44513636328931894,
          0.41696252577845
        ],
        [
          0.4779035022051539,
          0.41696252577845
        ],
        [
          0.4779035022051539,
          0.44972966469428494
        ],
        [
          0.44513636328931894,
          0.44972966469428494
        ],
        [
          0.44513636328931894,
          0.41696252577845
        ]
      ]
    ],
    "type": "Polygon"
  },
  "id": "PRP_heavy_cloud_0091",
  "properties": {
    "feature_type": "proposal",
    "matched_change_id": "CHG_heavy_cloud_0118",
    "stratum": "heavy_cloud",
    "tile_id": "AUD_heavy_cloud_058"
  },
  "type": "Feature"
}
