{
  "geometry": {
    "coordinates": [
      [
        [
          0.5823882938954048,
          0.35511300200549883
        ],
        [
          0.6174227553666569,
          0.35511300200549883
        ],
        [
          0.6174227553666569,
          0.390147463476751
        ],
        [
          0.5823882938954048,
          0.390147463476751
        ],
        [
          0.5823882938954048,
          0.35511300200549883
        ]
      ]
    ],
    "type": "Polygon"
  },
  "id": "PRP_texture_complex_0021",
  "properties": {
    "feature_type": "proposal",
    "matched_change_id": "CHG_texture_complex_0029",
    "stratum": "texture_complex",
    "tile_id": "AUD_texture_complex_029"
  },
  "type": "Feature"
}
