{
  "geometry": {
    "coordinates": [
      [
        [
          0.3186009513963945,
          0.8278869320480153
        ],
        [
          0.34866864158515815,
          0.8278869320480153
        ],
        [
          0.34866864158515815,
          0.857954622236779
        ],
        [
          0.3186009513963945,
          0.857954622236779
        ],
        [
          0.3186009513963945,
          0.8278869320480153
        ]
      ]
    ],
    "type": "Polygon"
  },
  "id": "PRP_texture_complex_0090",
  "properties": {
    "feature_type": "proposal",
    "matched_change_id": "CHG_texture_complex_0105",
    "stratum": "texture_complex",
    "tile_id": "AUD_texture_complex_045"
  },
  "type": "Feature"
}
