{
  "geometry": {
    "coordinates": [
      [
        [
          0.3644553004945628,
          0.5650679571465589
        ],
        [
          0.37725826680660246,
          0.5650679571465589
        ],
        [
          0.37725826680660246,
          0.5778709234585985
        ],
        [
          0.3644553004945628,
          0.5778709234585985
        ],
        [
          0.3644553004945628,
          0.5650679571465589
        ]
      ]
    ],
    "type": "Polygon"
  },
  "id": "PRP_texture_complex_0125",
  "properties": {
    "feature_type": "proposal",
    "matched_change_id": "CHG_texture_complex_0156",
    "stratum": "texture_complex",
    "tile_id": "AUD_texture_complex_036"
  },
  "type": "Feature"
}
