{
  "geometry": {
    "coordinates": [
      [
        [
          0.6136788837630303,
          0.4331992655359208
        ],
        [
          0.6310716384288391,
          0.4331992655359208
        ],
        [
          0.6310716384288391,
          0.45059202020172956
        ],
        [
          0.6136788837630303,
          0.45059202020172956
        ],
        [
          0.6136788837630303,
          0.4331992655359208
        ]
      ]
    ],
    "type": "Polygon"
  },
  "id": "PRP_informal_small_roofs_0001",
  "properties": {
    "feature_type": "proposal",
    "matched_change_id": "CHG_informal_small_roofs_0001",
    "stratum": "informal_small_roofs",
    "tile_id": "AUD_informal_small_roofs_001"
  },
  "type": "Feature"
}
