{
  "geometry": {
    "coordinates": [
      [
        [
          0.10524384762858972,
          0.7999487788192928
        ],
        [
          0.11891990525112488,
          0.7999487788192928
        ],
        [
          0.11891990525112488,
          0.8136248364418279
        ],
        [
          0.10524384762858972,
          0.8136248364418279
        ],
        [
          0.10524384762858972,
          0.7999487788192928
        ]
      ]
    ],
    "type": "Polygon"
  },
  "id": "PRP_informal_small_roofs_0100",
  "properties": {
    "feature_type": "proposal",
    "matched_change_id": "CHG_informal_small_roofs_0165",
    "stratum": "informal_small_roofs",
    "tile_id": "AUD_informal_small_roofs_045"
  },
  "type": "Feature"
}
