{
  "geometry": {
    "coordinates": [
      [
        [
          0.0718318282905966,
          0.0959777460852638
        ],
        [
          0.08534441323648206,
          0.0959777460852638
        ],
        [
          0.08534441323648206,
          0.10949033103114926
        ],
        [
          0.0718318282905966,
          0.10949033103114926
        ],
        [
          0.0718318282905966,
          0.0959777460852638
        ]
      ]
    ],
    "type": "Polygon"
  },
  "id": "CHG_heavy_cloud_0030",
  "properties": {
    "feature_type": "reference_change",
    "stratum": "heavy_cloud",
    "tile_id": "AUD_heavy_cloud_030"
  },
  "type": "Feature"
}
