{
  "geometry": {
    "coordinates": [
      [
        [
          0.6095419813087211,
          0.6891925546713173
        ],
        [
          0.6221457757665776,
          0.6891925546713173
        ],
        [
          0.6221457757665776,
          0.7017963491291739
        ],
        [
          0.6095419813087211,
          0.7017963491291739
        ],
        [
          0.6095419813087211,
          0.6891925546713173
        ]
      ]
    ],
    "type": "Polygon"
  },
  "id": "CHG_clear_regular_0083",
  "properties": {
    "feature_type": "reference_change",
    "stratum": "clear_regular",
    "tile_id": "AUD_clear_regular_023"
  },
  "type": "Feature"
}
