{
  "geometry": {
    "coordinates": [
      [
        [
          0.6279925009654835,
          0.3773065831698477
        ],
        [
          0.6567908846265637,
          0.3773065831698477
        ],
        [
          0.6567908846265637,
          0.4061049668309279
        ],
        [
          0.6279925009654835,
          0.4061049668309279
        ],
        [
          0.6279925009654835,
          0.3773065831698477
        ]
      ]
    ],
    "type": "Polygon"
  },
  "id": "CHG_heavy_cloud_0044",
  "properties": {
    "feature_type": "reference_change",
    "stratum": "heavy_cloud",
    "tile_id": "AUD_heavy_cloud_044"
  },
  "type": "Feature"
}
