{
  "geometry": {
    "coordinates": [
      [
        [
          0.48245445187203584,
          0.48994800781365483
        ],
        [
          0.5019753842910286,
          0.48994800781365483
        ],
        [
          0.5019753842910286,
          0.5094689402326475
        ],
        [
          0.48245445187203584,
          0.5094689402326475
        ],
        [
          0.48245445187203584,
          0.48994800781365483
        ]
      ]
    ],
    "type": "Polygon"
  },
  "id": "CHG_texture_complex_0057",
  "properties": {
    "feature_type": "reference_change",
    "stratum": "texture_complex",
    "tile_id": "AUD_texture_complex_057"
  },
  "type": "Feature"
}
