{
  "geometry": {
    "coordinates": [
      [
        [
          0.42395299174822865,
          0.38842408043332394
        ],
        [
          0.4508489599456079,
          0.38842408043332394
        ],
        [
          0.4508489599456079,
          0.4153200486307032
        ],
        [
          0.42395299174822865,
          0.4153200486307032
        ],
        [
          0.42395299174822865,
          0.38842408043332394
        ]
      ]
    ],
    "type": "Polygon"
  },
  "id": "CHG_texture_complex_0155",
  "properties": {
    "feature_type": "reference_change",
    "stratum": "texture_complex",
    "tile_id": "AUD_texture_complex_035"
  },
  "type": "Feature"
}
