{
  "geometry": {
    "coordinates": [
      [
        [
          0.09720312389545142,
          0.797666725339368
        ],
        [
          0.13213484326307662,
          0.797666725339368
        ],
        [
          0.13213484326307662,
          0.8325984447069932
        ],
        [
          0.09720312389545142,
          0.8325984447069932
        ],
        [
          0.09720312389545142,
          0.797666725339368
        ]
      ]
    ],
    "type": "Polygon"
  },
  "id": "CHG_heavy_cloud_0061",
  "properties": {
    "feature_type": "reference_change",
    "stratum": "heavy_cloud",
    "tile_id": "AUD_heavy_cloud_001"
  },
  "type": "Feature"
}
