{
  "geometry": {
    "coordinates": [
      [
        [
          0.694985673497431,
          0.41105288606137036
        ],
        [
          0.7084881002227776,
          0.41105288606137036
        ],
        [
          0.7084881002227776,
          0.42455531278671693
        ],
        [
          0.694985673497431,
          0.42455531278671693
        ],
        [
          0.694985673497431,
          0.41105288606137036
        ]
      ]
    ],
    "type": "Polygon"
  },
  "id": "CHG_heavy_cloud_0020",
  "properties": {
    "feature_type": "reference_change",
    "stratum": "heavy_cloud",
    "tile_id": "AUD_heavy_cloud_020"
  },
  "type": "Feature"
}
