{
  "geometry": {
    "coordinates": [
      [
        [
          0.7484278753260151,
          0.39023803810589014
        ],
        [
          0.7606074202030432,
          0.39023803810589014
        ],
        [
          0.7606074202030432,
          0.40241758298291824
        ],
        [
          0.7484278753260151,
          0.40241758298291824
        ],
        [
          0.7484278753260151,
          0.39023803810589014
        ]
      ]
    ],
    "type": "Polygon"
  },
  "id": "CHG_heavy_cloud_0085",
  "properties": {
    "feature_type": "reference_change",
    "stratum": "heavy_cloud",
    "tile_id": "AUD_heavy_cloud_025"
  },
  "type": "Feature"
}
