{
  "geometry": {
    "coordinates": [
      [
        [
          0.41961531221866605,
          0.2960407807910815
        ],
        [
          0.4528216075284872,
          0.2960407807910815
        ],
        [
          0.4528216075284872,
          0.32924707610090265
        ],
        [
          0.41961531221866605,
          0.32924707610090265
        ],
        [
          0.41961531221866605,
          0.2960407807910815
        ]
      ]
    ],
    "type": "Polygon"
  },
  "id": "CHG_clear_regular_0056",
  "properties": {
    "feature_type": "reference_change",
    "stratum": "clear_regular",
    "tile_id": "AUD_clear_regular_056"
  },
  "type": "Feature"
}
