{
  "geometry": {
    "coordinates": [
      [
        [
          0.1301191526139155,
          0.4752856235578656
        ],
        [
          0.14395563254645094,
          0.4752856235578656
        ],
        [
          0.14395563254645094,
          0.48912210349040103
        ],
        [
          0.1301191526139155,
          0.48912210349040103
        ],
        [
          0.1301191526139155,
          0.4752856235578656
        ]
      ]
    ],
    "type": "Polygon"
  },
  "id": "CHG_clear_regular_0027",
  "properties": {
    "feature_type": "reference_change",
    "stratum": "clear_regular",
    "tile_id": "AUD_clear_regular_027"
  },
  "type": "Feature"
}
