{
  "geometry": {
    "coordinates": [
      [
        [
          0.1300624076090753,
          0.8307490713708102
        ],
        [
          0.16564593598525973,
          0.8307490713708102
        ],
        [
          0.16564593598525973,
          0.8663325997469946
        ],
        [
          0.1300624076090753,
          0.8663325997469946
        ],
        [
          0.1300624076090753,
          0.8307490713708102
        ]
      ]
    ],
    "type": "Polygon"
  },
  "id": "CHG_heavy_cloud_0045",
  "properties": {
    "feature_type": "reference_change",
    "stratum": "heavy_cloud",
    "tile_id": "AUD_heavy_cloud_045"
  },
  "type": "Feature"
}
