{
  "geometry": {
    "coordinates": [
      [
        [
          0.6352215427486226,
          0.5281798687670379
        ],
        [
          0.6651938712741249,
          0.5281798687670379
        ],
        [
          0.6651938712741249,
          0.5581521972925402
        ],
        [
          0.6352215427486226,
          0.5581521972925402
        ],
        [
          0.6352215427486226,
          0.5281798687670379
        ]
      ]
    ],
    "type": "Polygon"
  },
  "id": "CHG_heavy_cloud_0153",
  "properties": {
    "feature_type": "reference_change",
    "stratum": "heavy_cloud",
    "tile_id": "AUD_heavy_cloud_033"
  },
  "type": "Feature"
}
