{
  "geometry": {
    "coordinates": [
      [
        [
          0.18489916990511118,
          0.7865003751777112
        ],
        [
          0.2024150089074392,
          0.7865003751777112
        ],
        [
          0.2024150089074392,
          0.8040162141800392
        ],
        [
          0.18489916990511118,
          0.8040162141800392
        ],
        [
          0.18489916990511118,
          0.7865003751777112
        ]
      ]
    ],
    "type": "Polygon"
  },
  "id": "CHG_heavy_cloud_0186",
  "properties": {
    "feature_type": "reference_change",
    "stratum": "heavy_cloud",
    "tile_id": "AUD_heavy_cloud_006"
  },
  "type": "Feature"
}
