{
  "geometry": {
    "coordinates": [
      [
        [
          0.14455586866941303,
          0.7726522590313106
        ],
        [
          0.16586898730765098,
          0.7726522590313106
        ],
        [
          0.16586898730765098,
          0.7939653776695486
        ],
        [
          0.14455586866941303,
          0.7939653776695486
        ],
        [
          0.14455586866941303,
          0.7726522590313106
        ]
      ]
    ],
    "type": "Polygon"
  },
  "id": "CHG_heavy_cloud_0175",
  "properties": {
    "feature_type": "reference_change",
    "stratum": "heavy_cloud",
    "tile_id": "AUD_heavy_cloud_055"
  },
  "type": "Feature"
}
