{
  "geometry": {
    "coordinates": [
      [
        [
          0.6813156252866611,
          0.6109415662474931
        ],
        [
          0.7151555352988653,
          0.6109415662474931
        ],
        [
          0.7151555352988653,
          0.6447814762596973
        ],
        [
          0.6813156252866611,
          0.6447814762596973
        ],
        [
          0.6813156252866611,
          0.6109415662474931
        ]
      ]
    ],
    "type": "Polygon"
  },
  "id": "CHG_heavy_cloud_0158",
  "properties": {
    "feature_type": "reference_change",
    "stratum": "heavy_cloud",
    "tile_id": "AUD_heavy_cloud_038"
  },
  "type": "Feature"
}
