{
  "geometry": {
    "coordinates": [
      [
        [
          0.43884645872749384,
          0.4183229902060702
        ],
        [
          0.46190713082370344,
          0.4183229902060702
        ],
        [
          0.46190713082370344,
          0.4413836623022798
        ],
        [
          0.43884645872749384,
          0.4413836623022798
        ],
        [
          0.43884645872749384,
          0.4183229902060702
        ]
      ]
    ],
    "type": "Polygon"
  },
  "id": "CHG_heavy_cloud_0173",
  "properties": {
    "feature_type": "reference_change",
    "stratum": "heavy_cloud",
    "tile_id": "AUD_heavy_cloud_053"
  },
  "type": "Feature"
}
