{
  "geometry": {
    "coordinates": [
      [
        [
          0.8221814540680498,
          0.31750100821722294
        ],
        [
          0.8448090990020427,
          0.31750100821722294
        ],
        [
          0.8448090990020427,
          0.34012865315121593
        ],
        [
          0.8221814540680498,
          0.34012865315121593
        ],
        [
          0.8221814540680498,
          0.31750100821722294
        ]
      ]
    ],
    "type": "Polygon"
  },
  "id": "CHG_clear_regular_0132",
  "properties": {
    "feature_type": "reference_change",
    "stratum": "clear_regular",
    "tile_id": "AUD_clear_regular_012"
  },
  "type": "Feature"
}
