{
  "geometry": {
    "coordinates": [
      [
        [
          0.5950973933842033,
          0.3209429566469043
        ],
        [
          0.6141256898052525,
          0.3209429566469043
        ],
        [
          0.6141256898052525,
          0.33997125306795345
        ],
        [
          0.5950973933842033,
          0.33997125306795345
        ],
        [
          0.5950973933842033,
          0.3209429566469043
        ]
      ]
    ],
    "type": "Polygon"
  },
  "id": "CHG_clear_regular_0089",
  "properties": {
    "feature_type": "reference_change",
    "stratum": "clear_regular",
    "tile_id": "AUD_clear_regular_029"
  },
  "type": "Feature"
}
