{
  "geometry": {
    "coordinates": [
      [
        [
          0.0754853803338483,
          0.06329568548128009
        ],
        [
          0.08787133120046929,
          0.06329568548128009
        ],
        [
          0.08787133120046929,
          0.07568163634790108
        ],
        [
          0.0754853803338483,
          0.07568163634790108
        ],
        [
          0.0754853803338483,
          0.06329568548128009
        ]
      ]
    ],
    "type": "Polygon"
  },
  "id": "CHG_texture_complex_0129",
  "properties": {
    "feature_type": "reference_change",
    "stratum": "texture_complex",
    "tile_id": "AUD_texture_complex_009"
  },
  "type": "Feature"
}
