{
  "geometry": {
    "coordinates": [
      [
        [
          0.6057091207243502,
          0.5490038282424211
        ],
        [
          0.6242842399869114,
          0.5490038282424211
        ],
        [
          0.6242842399869114,
          0.5675789475049823
        ],
        [
          0.6057091207243502,
          0.5675789475049823
        ],
        [
          0.6057091207243502,
          0.5490038282424211
        ]
      ]
    ],
    "type": "Polygon"
  },
  "id": "CHG_clear_regular_0112",
  "properties": {
    "feature_type": "reference_change",
    "stratum": "clear_regular",
    "tile_id": "AUD_clear_regular_052"
  },
  "type": "Feature"
}
