{
  "geometry": {
    "coordinates": [
      [
        [
          0.5642214949522167,
          0.29846324056386947
        ],
        [
          0.5786582808410748,
          0.29846324056386947
        ],
        [
          0.5786582808410748,
          0.31290002645272763
        ],
        [
          0.5642214949522167,
          0.31290002645272763
        ],
        [
          0.5642214949522167,
          0.29846324056386947
        ]
      ]
    ],
    "type": "Polygon"
  },
  "id": "CHG_clear_regular_0147",
  "properties": {
    "feature_type": "reference_change",
    "stratum": "clear_regular",
    "tile_id": "AUD_clear_regular_027"
  },
  "type": "Feature"
}
