{
  "geometry": {
    "coordinates": [
      [
        [
          0.1699210406700149,
          0.25919783018529413
        ],
        [
          0.19206899459986015,
          0.25919783018529413
        ],
        [
          0.19206899459986015,
          0.2813457841151394
        ],
        [
          0.1699210406700149,
          0.2813457841151394
        ],
        [
          0.1699210406700149,
          0.25919783018529413
        ]
      ]
    ],
    "type": "Polygon"
  },
  "id": "CHG_heavy_cloud_0002",
  "properties": {
    "feature_type": "reference_change",
    "stratum": "heavy_cloud",
    "tile_id": "AUD_heavy_cloud_002"
  },
  "type": "Feature"
}
