{
  "geometry": {
    "coordinates": [
      [
        [
          0.17570581834297627,
          0.3282190024480223
        ],
        [
          0.20471341229905374,
          0.3282190024480223
        ],
        [
          0.20471341229905374,
          0.3572265964040998
        ],
        [
          0.17570581834297627,
          0.3572265964040998
        ],
        [
          0.17570581834297627,
          0.3282190024480223
        ]
      ]
    ],
    "type": "Polygon"
  },
  "id": "CHG_heavy_cloud_0037",
  "properties": {
    "feature_type": "reference_change",
    "stratum": "heavy_cloud",
    "tile_id": "AUD_heavy_cloud_037"
  },
  "type": "Feature"
}
