{
  "geometry": {
    "coordinates": [
      [
        [
          0.17287410023156552,
          0.48477430242113767
        ],
        [
          0.1953863907482009,
          0.48477430242113767
        ],
        [
          0.1953863907482009,
          0.5072865929377731
        ],
        [
          0.17287410023156552,
          0.5072865929377731
        ],
        [
          0.17287410023156552,
          0.48477430242113767
        ]
      ]
    ],
    "type": "Polygon"
  },
  "id": "CHG_texture_complex_0166",
  "properties": {
    "feature_type": "reference_change",
    "stratum": "texture_complex",
    "tile_id": "AUD_texture_complex_046"
  },
  "type": "Feature"
}
