{
  "geometry": {
    "coordinates": [
      [
        [
          0.19679090064484628,
          0.5811030833935366
        ],
        [
          0.22666251731500964,
          0.5811030833935366
        ],
        [
          0.22666251731500964,
          0.6109747000636999
        ],
        [
          0.19679090064484628,
          0.6109747000636999
        ],
        [
          0.19679090064484628,
          0.5811030833935366
        ]
      ]
    ],
    "type": "Polygon"
  },
  "id": "CHG_heavy_cloud_0149",
  "properties": {
    "feature_type": "reference_change",
    "stratum": "heavy_cloud",
    "tile_id": "AUD_heavy_cloud_029"
  },
  "type": "Feature"
}
