{
  "geometry": {
    "coordinates": [
      [
        [
          0.22519344698637722,
          0.7999665795732289
        ],
        [
          0.24546422130241988,
          0.7999665795732289
        ],
        [
          0.24546422130241988,
          0.8202373538892715
        ],
        [
          0.22519344698637722,
          0.8202373538892715
        ],
        [
          0.22519344698637722,
          0.7999665795732289
        ]
      ]
    ],
    "type": "Polygon"
  },
  "id": "CHG_heavy_cloud_0017",
  "properties": {
    "feature_type": "reference_change",
    "stratum": "heavy_cloud",
    "tile_id": "AUD_heavy_cloud_017"
  },
  "type": "Feature"
}
