{
  "geometry": {
    "coordinates": [
      [
        [
          0.7869213623739779,
          0.4609047668240964
        ],
        [
          0.8035788466273808,
          0.4609047668240964
        ],
        [
          0.8035788466273808,
          0.4775622510774992
        ],
        [
          0.7869213623739779,
          0.4775622510774992
        ],
        [
          0.7869213623739779,
          0.4609047668240964
        ]
      ]
    ],
    "type": "Polygon"
  },
  "id": "CHG_heavy_cloud_0122",
  "properties": {
    "feature_type": "reference_change",
    "stratum": "heavy_cloud",
    "tile_id": "AUD_heavy_cloud_002"
  },
  "type": "Feature"
}
