{
  "geometry": {
    "coordinates": [
      [
        [
          0.8615711227897555,
          0.8270773403905332
        ],
        [
          0.8984241796045098,
          0.8270773403905332
        ],
        [
          0.8984241796045098,
          0.8639303972052875
        ],
        [
          0.8615711227897555,
          0.8639303972052875
        ],
        [
          0.8615711227897555,
          0.8270773403905332
        ]
      ]
    ],
    "type": "Polygon"
  },
  "id": "CHG_heavy_cloud_0131",
  "properties": {
    "feature_type": "reference_change",
    "stratum": "heavy_cloud",
    "tile_id": "AUD_heavy_cloud_011"
  },
  "type": "Feature"
}
