{
  "geometry": {
    "coordinates": [
      [
        [
          0.12419063195120543,
          0.5444717119634152
        ],
        [
          0.15824619759852065,
          0.5444717119634152
        ],
        [
          0.15824619759852065,
          0.5785272776107304
        ],
        [
          0.12419063195120543,
          0.5785272776107304
        ],
        [
          0.12419063195120543,
          0.5444717119634152
        ]
      ]
    ],
    "type": "Polygon"
  },
  "id": "CHG_heavy_cloud_0119",
  "properties": {
    "feature_type": "reference_change",
    "stratum": "heavy_cloud",
    "tile_id": "AUD_heavy_cloud_059"
  },
  "type": "Feature"
}
