{
  "geometry": {
    "coordinates": [
      [
        [
          0.19265070534776896,
          0.12510566479526458
        ],
        [
          0.20964792027301155,
          0.12510566479526458
        ],
        [
          0.20964792027301155,
          0.14210287972050717
        ],
        [
          0.19265070534776896,
          0.14210287972050717
        ],
        [
          0.19265070534776896,
          0.12510566479526458
        ]
      ]
    ],
    "type": "Polygon"
  },
  "id": "CHG_heavy_cloud_0067",
  "properties": {
    "feature_type": "reference_change",
    "stratum": "heavy_cloud",
    "tile_id": "AUD_heavy_cloud_007"
  },
  "type": "Feature"
}
