{
  "geometry": {
    "coordinates": [
      [
        [
          0.26618292688857764,
          0.7473240906000137
        ],
        [
          0.29378648472880015,
          0.7473240906000137
        ],
        [
          0.29378648472880015,
          0.7749276484402362
        ],
        [
          0.26618292688857764,
          0.7749276484402362
        ],
        [
          0.26618292688857764,
          0.7473240906000137
        ]
      ]
    ],
    "type": "Polygon"
  },
  "id": "CHG_clear_regular_0058",
  "properties": {
    "feature_type": "reference_change",
    "stratum": "clear_regular",
    "tile_id": "AUD_clear_regular_058"
  },
  "type": "Feature"
}
