{
  "geometry": {
    "coordinates": [
      [
        [
          0.4967823997791856,
          0.3881302759191021
        ],
        [
          0.5325227911309338,
          0.3881302759191021
        ],
        [
          0.5325227911309338,
          0.4238706672708504
        ],
        [
          0.4967823997791856,
          0.4238706672708504
        ],
        [
          0.4967823997791856,
          0.3881302759191021
        ]
      ]
    ],
    "type": "Polygon"
  },
  "id": "CHG_clear_regular_0031",
  "properties": {
    "feature_type": "reference_change",
    "stratum": "clear_regular",
    "tile_id": "AUD_clear_regular_031"
  },
  "type": "Feature"
}
