{
  "geometry": {
    "coordinates": [
      [
        [
          0.5642129905615002,
          0.813263464611955
        ],
        [
          0.5826334155320656,
          0.813263464611955
        ],
        [
          0.5826334155320656,
          0.8316838895825204
        ],
        [
          0.5642129905615002,
          0.8316838895825204
        ],
        [
          0.5642129905615002,
          0.813263464611955
        ]
      ]
    ],
    "type": "Polygon"
  },
  "id": "CHG_heavy_cloud_0022",
  "properties": {
    "feature_type": "reference_change",
    "stratum": "heavy_cloud",
    "tile_id": "AUD_heavy_cloud_022"
  },
  "type": "Feature"
}
