{
  "geometry": {
    "coordinates": [
      [
        [
          0.3328138960758224,
          0.8020307892141864
        ],
        [
          0.34908032951690254,
          0.8020307892141864
        ],
        [
          0.34908032951690254,
          0.8182972226552665
        ],
        [
          0.3328138960758224,
          0.8182972226552665
        ],
        [
          0.3328138960758224,
          0.8020307892141864
        ]
      ]
    ],
    "type": "Polygon"
  },
  "id": "CHG_heavy_cloud_0083",
  "properties": {
    "feature_type": "reference_change",
    "stratum": "heavy_cloud",
    "tile_id": "AUD_heavy_cloud_023"
  },
  "type": "Feature"
}
