{
  "geometry": {
    "coordinates": [
      [
        [
          0.06617095747496933,
          0.41096074065193533
        ],
        [
          0.10211052065761761,
          0.41096074065193533
        ],
        [
          0.10211052065761761,
          0.4469003038345836
        ],
        [
          0.06617095747496933,
          0.4469003038345836
        ],
        [
          0.06617095747496933,
          0.41096074065193533
        ]
      ]
    ],
    "type": "Polygon"
  },
  "id": "CHG_texture_complex_0109",
  "properties": {
    "feature_type": "reference_change",
    "stratum": "texture_complex",
    "tile_id": "AUD_texture_complex_049"
  },
  "type": "Feature"
}
