{
  "geometry": {
    "coordinates": [
      [
        [
          0.43650191310327496,
          0.1023345469404012
        ],
        [
          0.45063601011573334,
          0.1023345469404012
        ],
        [
          0.45063601011573334,
          0.11646864395285957
        ],
        [
          0.43650191310327496,
          0.11646864395285957
        ],
        [
          0.43650191310327496,
          0.1023345469404012
        ]
      ]
    ],
    "type": "Polygon"
  },
  "id": "CHG_clear_regular_0034",
  "properties": {
    "feature_type": "reference_change",
    "stratum": "clear_regular",
    "tile_id": "AUD_clear_regular_034"
  },
  "type": "Feature"
}
