{
  "geometry": {
    "coordinates": [
      [
        [
          0.6948979778867215,
          0.3952332377806306
        ],
        [
          0.7303471950015519,
          0.3952332377806306
        ],
        [
          0.7303471950015519,
          0.430682454895461
        ],
        [
          0.6948979778867215,
          0.430682454895461
        ],
        [
          0.6948979778867215,
          0.3952332377806306
        ]
      ]
    ],
    "type": "Polygon"
  },
  "id": "CHG_texture_complex_0162",
  "properties": {
    "feature_type": "reference_change",
    "stratum": "texture_complex",
    "tile_id": "AUD_texture_complex_042"
  },
  "type": "Feature"
}
