{
  "geometry": {
    "coordinates": [
      [
        [
          0.07087632723152637,
          0.4844177234219387
        ],
        [
          0.1013765475472901,
          0.4844177234219387
        ],
        [
          0.1013765475472901,
          0.5149179437377024
        ],
        [
          0.07087632723152637,
          0.5149179437377024
        ],
        [
          0.07087632723152637,
          0.4844177234219387
        ]
      ]
    ],
    "type": "Polygon"
  },
  "id": "CHG_heavy_cloud_0108",
  "properties": {
    "feature_type": "reference_change",
    "stratum": "heavy_cloud",
    "tile_id": "AUD_heavy_cloud_048"
  },
  "type": "Feature"
}
