{
  "geometry": {
    "coordinates": [
      [
        [
          0.09223764414899052,
          0.26934638764243574
        ],
        [
          0.12075455758185127,
          0.26934638764243574
        ],
        [
          0.12075455758185127,
          0.29786330107529646
        ],
        [
          0.09223764414899052,
          0.29786330107529646
        ],
        [
          0.09223764414899052,
          0.26934638764243574
        ]
      ]
    ],
    "type": "Polygon"
  },
  "id": "CHG_clear_regular_0037",
  "properties": {
    "feature_type": "reference_change",
    "stratum": "clear_regular",
    "tile_id": "AUD_clear_regular_037"
  },
  "type": "Feature"
}
