{
  "geometry": {
    "coordinates": [
      [
        [
          0.5211299379216507,
          0.18489547959063202
        ],
        [
          0.5392478038189001,
          0.18489547959063202
        ],
        [
          0.5392478038189001,
          0.20301334548788144
        ],
        [
          0.5211299379216507,
          0.20301334548788144
        ],
        [
          0.5211299379216507,
          0.18489547959063202
        ]
      ]
    ],
    "type": "Polygon"
  },
  "id": "CHG_clear_regular_0135",
  "properties": {
    "feature_type": "reference_change",
    "stratum": "clear_regular",
    "tile_id": "AUD_clear_regular_015"
  },
  "type": "Feature"
}
