{
  "geometry": {
    "coordinates": [
      [
        [
          0.2744552852399647,
          0.5988434075750411
        ],
        [
          0.30339758934499694,
          0.5988434075750411
        ],
        [
          0.30339758934499694,
          0.6277857116800734
        ],
        [
          0.2744552852399647,
          0.6277857116800734
        ],
        [
          0.2744552852399647,
          0.5988434075750411
        ]
      ]
    ],
    "type": "Polygon"
  },
  "id": "CHG_heavy_cloud_0071",
  "properties": {
    "feature_type": "reference_change",
    "stratum": "heavy_cloud",
    "tile_id": "AUD_heavy_cloud_011"
  },
  "type": "Feature"
}
