{
  "geometry": {
    "coordinates": [
      [
        [
          0.5695031274855137,
          0.3006649332726374
        ],
        [
          0.6033781693135388,
          0.3006649332726374
        ],
        [
          0.6033781693135388,
          0.3345399751006625
        ],
        [
          0.5695031274855137,
          0.3345399751006625
        ],
        [
          0.5695031274855137,
          0.3006649332726374
        ]
      ]
    ],
    "type": "Polygon"
  },
  "id": "CHG_clear_regular_0020",
  "properties": {
    "feature_type": "reference_change",
    "stratum": "clear_regular",
    "tile_id": "AUD_clear_regular_020"
  },
  "type": "Feature"
}
