{
  "geometry": {
    "coordinates": [
      [
        [
          0.5794670491293072,
          0.4255879270704463
        ],
        [
          0.6066600562066305,
          0.4255879270704463
        ],
        [
          0.6066600562066305,
          0.45278093414776954
        ],
        [
          0.5794670491293072,
          0.45278093414776954
        ],
        [
          0.5794670491293072,
          0.4255879270704463
        ]
      ]
    ],
    "type": "Polygon"
  },
  "id": "CHG_heavy_cloud_0102",
  "properties": {
    "feature_type": "reference_change",
    "stratum": "heavy_cloud",
    "tile_id": "AUD_heavy_cloud_042"
  },
  "type": "Feature"
}
