{
  "geometry": {
    "coordinates": [
      [
        [
          0.5795274092257023,
          0.06935249655041845
        ],
        [
          0.5944350913311356,
          0.06935249655041845
        ],
        [
          0.5944350913311356,
          0.08426017865585164
        ],
        [
          0.5795274092257023,
          0.08426017865585164
        ],
        [
          0.5795274092257023,
          0.06935249655041845
        ]
      ]
    ],
    "type": "Polygon"
  },
  "id": "CHG_heavy_cloud_0114",
  "properties": {
    "feature_type": "reference_change",
    "stratum": "heavy_cloud",
    "tile_id": "AUD_heavy_cloud_054"
  },
  "type": "Feature"
}
