{
  "geometry": {
    "coordinates": [
      [
        [
          0.6923447711253539,
          0.15602214637678116
        ],
        [
          0.723880612638779,
          0.15602214637678116
        ],
        [
          0.723880612638779,
          0.18755798789020628
        ],
        [
          0.6923447711253539,
          0.18755798789020628
        ],
        [
          0.6923447711253539,
          0.15602214637678116
        ]
      ]
    ],
    "type": "Polygon"
  },
  "id": "CHG_heavy_cloud_0116",
  "properties": {
    "feature_type": "reference_change",
    "stratum": "heavy_cloud",
    "tile_id": "AUD_heavy_cloud_056"
  },
  "type": "Feature"
}
