{
  "geometry": {
    "coordinates": [
      [
        [
          0.8137526927469299,
          0.1994938854128122
        ],
        [
          0.833568432271015,
          0.1994938854128122
        ],
        [
          0.833568432271015,
          0.2193096249368973
        ],
        [
          0.8137526927469299,
          0.2193096249368973
        ],
        [
          0.8137526927469299,
          0.1994938854128122
        ]
      ]
    ],
    "type": "Polygon"
  },
  "id": "CHG_clear_regular_0142",
  "properties": {
    "feature_type": "reference_change",
    "stratum": "clear_regular",
    "tile_id": "AUD_clear_regular_022"
  },
  "type": "Feature"
}
