{
  "geometry": {
    "coordinates": [
      [
        [
          0.5282901037624106,
          0.7303625909751281
        ],
        [
          0.547831326720072,
          0.7303625909751281
        ],
        [
          0.547831326720072,
          0.7499038139327895
        ],
        [
          0.5282901037624106,
          0.7499038139327895
        ],
        [
          0.5282901037624106,
          0.7303625909751281
        ]
      ]
    ],
    "type": "Polygon"
  },
  "id": "CHG_heavy_cloud_0097",
  "properties": {
    "feature_type": "reference_change",
    "stratum": "heavy_cloud",
    "tile_id": "AUD_heavy_cloud_037"
  },
  "type": "Feature"
}
