{
  "geometry": {
    "coordinates": [
      [
        [
          0.7412240147031843,
          0.7092026612907648
        ],
        [
          0.7653048764069099,
          0.7092026612907648
        ],
        [
          0.7653048764069099,
          0.7332835229944903
        ],
        [
          0.7412240147031843,
          0.7332835229944903
        ],
        [
          0.7412240147031843,
          0.7092026612907648
        ]
      ]
    ],
    "type": "Polygon"
  },
  "id": "CHG_heavy_cloud_0009",
  "properties": {
    "feature_type": "reference_change",
    "stratum": "heavy_cloud",
    "tile_id": "AUD_heavy_cloud_009"
  },
  "type": "Feature"
}
