{
  "geometry": {
    "coordinates": [
      [
        [
          0.5104061698541045,
          0.7658581645973027
        ],
        [
          0.5355557267616968,
          0.7658581645973027
        ],
        [
          0.5355557267616968,
          0.7910077215048951
        ],
        [
          0.5104061698541045,
          0.7910077215048951
        ],
        [
          0.5104061698541045,
          0.7658581645973027
        ]
      ]
    ],
    "type": "Polygon"
  },
  "id": "CHG_clear_regular_0120",
  "properties": {
    "feature_type": "reference_change",
    "stratum": "clear_regular",
    "tile_id": "AUD_clear_regular_000"
  },
  "type": "Feature"
}
