{
  "geometry": {
    "coordinates": [
      [
        [
          0.13314627888146788,
          0.24839427579659967
        ],
        [
          0.16732304097549058,
          0.24839427579659967
        ],
        [
          0.16732304097549058,
          0.2825710378906224
        ],
        [
          0.13314627888146788,
          0.2825710378906224
        ],
        [
          0.13314627888146788,
          0.24839427579659967
        ]
      ]
    ],
    "type": "Polygon"
  },
  "id": "CHG_heavy_cloud_0138",
  "properties": {
    "feature_type": "reference_change",
    "stratum": "heavy_cloud",
    "tile_id": "AUD_heavy_cloud_018"
  },
  "type": "Feature"
}
