{
  "geometry": {
    "coordinates": [
      [
        [
          0.4482620142260566,
          0.27676033100113273
        ],
        [
          0.48131579969590527,
          0.27676033100113273
        ],
        [
          0.48131579969590527,
          0.3098141164709814
        ],
        [
          0.4482620142260566,
          0.3098141164709814
        ],
        [
          0.4482620142260566,
          0.27676033100113273
        ]
      ]
    ],
    "type": "Polygon"
  },
  "id": "CHG_texture_complex_0169",
  "properties": {
    "feature_type": "reference_change",
    "stratum": "texture_complex",
    "tile_id": "AUD_texture_complex_049"
  },
  "type": "Feature"
}
