{
  "geometry": {
    "coordinates": [
      [
        [
          0.4724110889015719,
          0.49504796400200574
        ],
        [
          0.5005127178858966,
          0.49504796400200574
        ],
        [
          0.5005127178858966,
          0.5231495929863303
        ],
        [
          0.4724110889015719,
          0.5231495929863303
        ],
        [
          0.4724110889015719,
          0.49504796400200574
        ]
      ]
    ],
    "type": "Polygon"
  },
  "id": "CHG_heavy_cloud_0117",
  "properties": {
    "feature_type": "reference_change",
    "stratum": "heavy_cloud",
    "tile_id": "AUD_heavy_cloud_057"
  },
  "type": "Feature"
}
