{
  "geometry": {
    "coordinates": [
      [
        [
          0.19020322039723397,
          0.054987515863031154
        ],
        [
          0.2197814540709369,
          0.054987515863031154
        ],
        [
          0.2197814540709369,
          0.08456574953673408
        ],
        [
          0.19020322039723397,
          0.08456574953673408
        ],
        [
          0.19020322039723397,
          0.054987515863031154
        ]
      ]
    ],
    "type": "Polygon"
  },
  "id": "CHG_clear_regular_0075",
  "properties": {
    "feature_type": "reference_change",
    "stratum": "clear_regular",
    "tile_id": "AUD_clear_regular_015"
  },
  "type": "Feature"
}
