{
  "geometry": {
    "coordinates": [
      [
        [
          0.08177880663890391,
          0.05489053957629949
        ],
        [
          0.11789940826059318,
          0.05489053957629949
        ],
        [
          0.11789940826059318,
          0.09101114119798875
        ],
        [
          0.08177880663890391,
          0.09101114119798875
        ],
        [
          0.08177880663890391,
          0.05489053957629949
        ]
      ]
    ],
    "type": "Polygon"
  },
  "id": "CHG_clear_regular_0035",
  "properties": {
    "feature_type": "reference_change",
    "stratum": "clear_regular",
    "tile_id": "AUD_clear_regular_035"
  },
  "type": "Feature"
}
