{
  "geometry": {
    "coordinates": [
      [
        [
          0.16516296656336635,
          0.11376769028604031
        ],
        [
          0.1858338217663113,
          0.11376769028604031
        ],
        [
          0.1858338217663113,
          0.13443854548898526
        ],
        [
          0.16516296656336635,
          0.13443854548898526
        ],
        [
          0.16516296656336635,
          0.11376769028604031
        ]
      ]
    ],
    "type": "Polygon"
  },
  "id": "CHG_heavy_cloud_0008",
  "properties": {
    "feature_type": "reference_change",
    "stratum": "heavy_cloud",
    "tile_id": "AUD_heavy_cloud_008"
  },
  "type": "Feature"
}
