{
  "geometry": {
    "coordinates": [
      [
        [
          0.14009255406446755,
          0.8600352917611599
        ],
        [
          0.16101107288198546,
          0.8600352917611599
        ],
        [
          0.16101107288198546,
          0.8809538105786778
        ],
        [
          0.14009255406446755,
          0.8809538105786778
        ],
        [
          0.14009255406446755,
          0.8600352917611599
        ]
      ]
    ],
    "type": "Polygon"
  },
  "id": "CHG_heavy_cloud_0023",
  "properties": {
    "feature_type": "reference_change",
    "stratum": "heavy_cloud",
    "tile_id": "AUD_heavy_cloud_023"
  },
  "type": "Feature"
}
