{
  "geometry": {
    "coordinates": [
      [
        [
          0.39940432029776274,
          0.6960540213529021
        ],
        [
          0.43115603326284324,
          0.6960540213529021
        ],
        [
          0.43115603326284324,
          0.7278057343179826
        ],
        [
          0.39940432029776274,
          0.7278057343179826
        ],
        [
          0.39940432029776274,
          0.6960540213529021
        ]
      ]
    ],
    "type": "Polygon"
  },
  "id": "CHG_heavy_cloud_0179",
  "properties": {
    "feature_type": "reference_change",
    "stratum": "heavy_cloud",
    "tile_id": "AUD_heavy_cloud_059"
  },
  "type": "Feature"
}
