{
  "geometry": {
    "coordinates": [
      [
        [
          0.054931430490687494,
          0.223496089046821
        ],
        [
          0.08454349237889983,
          0.223496089046821
        ],
        [
          0.08454349237889983,
          0.25310815093503336
        ],
        [
          0.054931430490687494,
          0.25310815093503336
        ],
        [
          0.054931430490687494,
          0.223496089046821
        ]
      ]
    ],
    "type": "Polygon"
  },
  "id": "CHG_clear_regular_0053",
  "properties": {
    "feature_type": "reference_change",
    "stratum": "clear_regular",
    "tile_id": "AUD_clear_regular_053"
  },
  "type": "Feature"
}
