{
  "geometry": {
    "coordinates": [
      [
        [
          0.5605686909379438,
          0.43820868479087943
        ],
        [
          0.5948064385661855,
          0.43820868479087943
        ],
        [
          0.5948064385661855,
          0.4724464324191212
        ],
        [
          0.5605686909379438,
          0.4724464324191212
        ],
        [
          0.5605686909379438,
          0.43820868479087943
        ]
      ]
    ],
    "type": "Polygon"
  },
  "id": "CHG_clear_regular_0006",
  "properties": {
    "feature_type": "reference_change",
    "stratum": "clear_regular",
    "tile_id": "AUD_clear_regular_006"
  },
  "type": "Feature"
}
