{
  "geometry": {
    "coordinates": [
      [
        [
          0.62871900530532,
          0.6722751765372231
        ],
        [
          0.6625795466562268,
          0.6722751765372231
        ],
        [
          0.6625795466562268,
          0.7061357178881298
        ],
        [
          0.62871900530532,
          0.7061357178881298
        ],
        [
          0.62871900530532,
          0.6722751765372231
        ]
      ]
    ],
    "type": "Polygon"
  },
  "id": "CHG_heavy_cloud_0051",
  "properties": {
    "feature_type": "reference_change",
    "stratum": "heavy_cloud",
    "tile_id": "AUD_heavy_cloud_051"
  },
  "type": "Feature"
}
