{
  "geometry": {
    "coordinates": [
      [
        [
          0.7935627200966701,
          0.5504153810720891
        ],
        [
          0.808357935082633,
          0.5504153810720891
        ],
        [
          0.808357935082633,
          0.565210596058052
        ],
        [
          0.7935627200966701,
          0.565210596058052
        ],
        [
          0.7935627200966701,
          0.5504153810720891
        ]
      ]
    ],
    "type": "Polygon"
  },
  "id": "CHG_heavy_cloud_0115",
  "properties": {
    "feature_type": "reference_change",
    "stratum": "heavy_cloud",
    "tile_id": "AUD_heavy_cloud_055"
  },
  "type": "Feature"
}
