{
  "geometry": {
    "coordinates": [
      [
        [
          0.2173270157817751,
          0.46929305267520244
        ],
        [
          0.23072978954226708,
          0.46929305267520244
        ],
        [
          0.23072978954226708,
          0.4826958264356944
        ],
        [
          0.2173270157817751,
          0.4826958264356944
        ],
        [
          0.2173270157817751,
          0.46929305267520244
        ]
      ]
    ],
    "type": "Polygon"
  },
  "id": "CHG_clear_regular_0002",
  "properties": {
    "feature_type": "reference_change",
    "stratum": "clear_regular",
    "tile_id": "AUD_clear_regular_002"
  },
  "type": "Feature"
}
