{
  "geometry": {
    "coordinates": [
      [
        [
          0.08952089606784285,
          0.7847335996525362
        ],
        [
          0.11575221453025006,
          0.7847335996525362
        ],
        [
          0.11575221453025006,
          0.8109649181149434
        ],
        [
          0.08952089606784285,
          0.8109649181149434
        ],
        [
          0.08952089606784285,
          0.7847335996525362
        ]
      ]
    ],
    "type": "Polygon"
  },
  "id": "CHG_heavy_cloud_0012",
  "properties": {
    "feature_type": "reference_change",
    "stratum": "heavy_cloud",
    "tile_id": "AUD_heavy_cloud_012"
  },
  "type": "Feature"
}
