{
  "geometry": {
    "coordinates": [
      [
        [
          0.27070081496145576,
          0.21159987280610948
        ],
        [
          0.29120635747956114,
          0.21159987280610948
        ],
        [
          0.29120635747956114,
          0.23210541532421483
        ],
        [
          0.27070081496145576,
          0.23210541532421483
        ],
        [
          0.27070081496145576,
          0.21159987280610948
        ]
      ]
    ],
    "type": "Polygon"
  },
  "id": "CHG_clear_regular_0092",
  "properties": {
    "feature_type": "reference_change",
    "stratum": "clear_regular",
    "tile_id": "AUD_clear_regular_032"
  },
  "type": "Feature"
}
