{
  "geometry": {
    "coordinates": [
      [
        [
          0.5785381815675646,
          0.16414032236207277
        ],
        [
          0.5978383501577191,
          0.16414032236207277
        ],
        [
          0.5978383501577191,
          0.18344049095222725
        ],
        [
          0.5785381815675646,
          0.18344049095222725
        ],
        [
          0.5785381815675646,
          0.16414032236207277
        ]
      ]
    ],
    "type": "Polygon"
  },
  "id": "CHG_clear_regular_0018",
  "properties": {
    "feature_type": "reference_change",
    "stratum": "clear_regular",
    "tile_id": "AUD_clear_regular_018"
  },
  "type": "Feature"
}
