{
  "geometry": {
    "coordinates": [
      [
        [
          0.2485018714983016,
          0.24536840464454146
        ],
        [
          0.275445000462234,
          0.24536840464454146
        ],
        [
          0.275445000462234,
          0.2723115336084739
        ],
        [
          0.2485018714983016,
          0.2723115336084739
        ],
        [
          0.2485018714983016,
          0.24536840464454146
        ]
      ]
    ],
    "type": "Polygon"
  },
  "id": "CHG_heavy_cloud_0095",
  "properties": {
    "feature_type": "reference_change",
    "stratum": "heavy_cloud",
    "tile_id": "AUD_heavy_cloud_035"
  },
  "type": "Feature"
}
