{
  "geometry": {
    "coordinates": [
      [
        [
          0.5163154733506963,
          0.8240656955353916
        ],
        [
          0.5486007389465812,
          0.8240656955353916
        ],
        [
          0.5486007389465812,
          0.8563509611312765
        ],
        [
          0.5163154733506963,
          0.8563509611312765
        ],
        [
          0.5163154733506963,
          0.8240656955353916
        ]
      ]
    ],
    "type": "Polygon"
  },
  "id": "CHG_clear_regular_0130",
  "properties": {
    "feature_type": "reference_change",
    "stratum": "clear_regular",
    "tile_id": "AUD_clear_regular_010"
  },
  "type": "Feature"
}
