{
  "geometry": {
    "coordinates": [
      [
        [
          0.8072129296930507,
          0.49356038217898457
        ],
        [
          0.837267570335418,
          0.49356038217898457
        ],
        [
          0.837267570335418,
          0.5236150228213519
        ],
        [
          0.8072129296930507,
          0.5236150228213519
        ],
        [
          0.8072129296930507,
          0.49356038217898457
        ]
      ]
    ],
    "type": "Polygon"
  },
  "id": "CHG_clear_regular_0072",
  "properties": {
    "feature_type": "reference_change",
    "stratum": "clear_regular",
    "tile_id": "AUD_clear_regular_012"
  },
  "type": "Feature"
}
