{
  "geometry": {
    "coordinates": [
      [
        [
          0.0685546602588147,
          0.7137872866075486
        ],
        [
          0.1018597424151376,
          0.7137872866075486
        ],
        [
          0.1018597424151376,
          0.7470923687638715
        ],
        [
          0.0685546602588147,
          0.7470923687638715
        ],
        [
          0.0685546602588147,
          0.7137872866075486
        ]
      ]
    ],
    "type": "Polygon"
  },
  "id": "CHG_clear_regular_0151",
  "properties": {
    "feature_type": "reference_change",
    "stratum": "clear_regular",
    "tile_id": "AUD_clear_regular_031"
  },
  "type": "Feature"
}
