{
  "geometry": {
    "coordinates": [
      [
        [
          0.43135824571363623,
          0.18421991167124363
        ],
        [
          0.448116051353747,
          0.18421991167124363
        ],
        [
          0.448116051353747,
          0.2009777173113544
        ],
        [
          0.43135824571363623,
          0.2009777173113544
        ],
        [
          0.43135824571363623,
          0.18421991167124363
        ]
      ]
    ],
    "type": "Polygon"
  },
  "id": "CHG_heavy_cloud_0110",
  "properties": {
    "feature_type": "reference_change",
    "stratum": "heavy_cloud",
    "tile_id": "AUD_heavy_cloud_050"
  },
  "type": "Feature"
}
