{
  "geometry": {
    "coordinates": [
      [
        [
          0.44492795398924495,
          0.4180513789365068
        ],
        [
          0.47161574537446715,
          0.4180513789365068
        ],
        [
          0.47161574537446715,
          0.444739170321729
        ],
        [
          0.44492795398924495,
          0.444739170321729
        ],
        [
          0.44492795398924495,
          0.4180513789365068
        ]
      ]
    ],
    "type": "Polygon"
  },
  "id": "CHG_clear_regular_0150",
  "properties": {
    "feature_type": "reference_change",
    "stratum": "clear_regular",
    "tile_id": "AUD_clear_regular_030"
  },
  "type": "Feature"
}
