{
  "geometry": {
    "coordinates": [
      [
        [
          0.8023995155701413,
          0.70828288577497
        ],
        [
          0.8203296665747184,
          0.70828288577497
        ],
        [
          0.8203296665747184,
          0.7262130367795471
        ],
        [
          0.8023995155701413,
          0.7262130367795471
        ],
        [
          0.8023995155701413,
          0.70828288577497
        ]
      ]
    ],
    "type": "Polygon"
  },
  "id": "CHG_heavy_cloud_0172",
  "properties": {
    "feature_type": "reference_change",
    "stratum": "heavy_cloud",
    "tile_id": "AUD_heavy_cloud_052"
  },
  "type": "Feature"
}
