{
  "geometry": {
    "coordinates": [
      [
        [
          0.5699446278205141,
          0.6007441079709679
        ],
        [
          0.6015049716858193,
          0.6007441079709679
        ],
        [
          0.6015049716858193,
          0.632304451836273
        ],
        [
          0.5699446278205141,
          0.632304451836273
        ],
        [
          0.5699446278205141,
          0.6007441079709679
        ]
      ]
    ],
    "type": "Polygon"
  },
  "id": "CHG_heavy_cloud_0161",
  "properties": {
    "feature_type": "reference_change",
    "stratum": "heavy_cloud",
    "tile_id": "AUD_heavy_cloud_041"
  },
  "type": "Feature"
}
