{
  "geometry": {
    "coordinates": [
      [
        [
          0.6700202429899946,
          0.23780011606402696
        ],
        [
          0.6986063236724586,
          0.23780011606402696
        ],
        [
          0.6986063236724586,
          0.2663861967464909
        ],
        [
          0.6700202429899946,
          0.2663861967464909
        ],
        [
          0.6700202429899946,
          0.23780011606402696
        ]
      ]
    ],
    "type": "Polygon"
  },
  "id": "CHG_heavy_cloud_0075",
  "properties": {
    "feature_type": "reference_change",
    "stratum": "heavy_cloud",
    "tile_id": "AUD_heavy_cloud_015"
  },
  "type": "Feature"
}
