{
  "geometry": {
    "coordinates": [
      [
        [
          0.2578438528673723,
          0.6415608460642398
        ],
        [
          0.2929587969828863,
          0.6415608460642398
        ],
        [
          0.2929587969828863,
          0.6766757901797538
        ],
        [
          0.2578438528673723,
          0.6766757901797538
        ],
        [
          0.2578438528673723,
          0.6415608460642398
        ]
      ]
    ],
    "type": "Polygon"
  },
  "id": "CHG_clear_regular_0007",
  "properties": {
    "feature_type": "reference_change",
    "stratum": "clear_regular",
    "tile_id": "AUD_clear_regular_007"
  },
  "type": "Feature"
}
