{
  "geometry": {
    "coordinates": [
      [
        [
          0.501505137057975,
          0.7581280096480623
        ],
        [
          0.5178403625013307,
          0.7581280096480623
        ],
        [
          0.5178403625013307,
          0.774463235091418
        ],
        [
          0.501505137057975,
          0.774463235091418
        ],
        [
          0.501505137057975,
          0.7581280096480623
        ]
      ]
    ],
    "type": "Polygon"
  },
  "id": "CHG_clear_regular_0123",
  "properties": {
    "feature_type": "reference_change",
    "stratum": "clear_regular",
    "tile_id": "AUD_clear_regular_003"
  },
  "type": "Feature"
}
