{
  "geometry": {
    "coordinates": [
      [
        [
          0.35091682472731917,
          0.11878645421005786
        ],
        [
          0.3846958440663293,
          0.11878645421005786
        ],
        [
          0.3846958440663293,
          0.15256547354906796
        ],
        [
          0.35091682472731917,
          0.15256547354906796
        ],
        [
          0.35091682472731917,
          0.11878645421005786
        ]
      ]
    ],
    "type": "Polygon"
  },
  "id": "CHG_texture_complex_0059",
  "properties": {
    "feature_type": "reference_change",
    "stratum": "texture_complex",
    "tile_id": "AUD_texture_complex_059"
  },
  "type": "Feature"
}
