{
  "geometry": {
    "coordinates": [
      [
        [
          0.166417944021523,
          0.6877601584093646
        ],
        [
          0.20211441631359048,
          0.6877601584093646
        ],
        [
          0.20211441631359048,
          0.7234566307014321
        ],
        [
          0.166417944021523,
          0.7234566307014321
        ],
        [
          0.166417944021523,
          0.6877601584093646
        ]
      ]
    ],
    "type": "Polygon"
  },
  "id": "CHG_heavy_cloud_0111",
  "properties": {
    "feature_type": "reference_change",
    "stratum": "heavy_cloud",
    "tile_id": "AUD_heavy_cloud_051"
  },
  "type": "Feature"
}
