{
  "geometry": {
    "coordinates": [
      [
        [
          0.19454505723435433,
          0.8604666814859957
        ],
        [
          0.20765764170722106,
          0.8604666814859957
        ],
        [
          0.20765764170722106,
          0.8735792659588624
        ],
        [
          0.19454505723435433,
          0.8735792659588624
        ],
        [
          0.19454505723435433,
          0.8604666814859957
        ]
      ]
    ],
    "type": "Polygon"
  },
  "id": "CHG_clear_regular_0063",
  "properties": {
    "feature_type": "reference_change",
    "stratum": "clear_regular",
    "tile_id": "AUD_clear_regular_003"
  },
  "type": "Feature"
}
