{
  "geometry": {
    "coordinates": [
      [
        [
          0.3856388048408553,
          0.09443074139766394
        ],
        [
          0.4172851445879787,
          0.09443074139766394
        ],
        [
          0.4172851445879787,
          0.12607708114478736
        ],
        [
          0.3856388048408553,
          0.12607708114478736
        ],
        [
          0.3856388048408553,
          0.09443074139766394
        ]
      ]
    ],
    "type": "Polygon"
  },
  "id": "CHG_clear_regular_0069",
  "properties": {
    "feature_type": "reference_change",
    "stratum": "clear_regular",
    "tile_id": "AUD_clear_regular_009"
  },
  "type": "Feature"
}
