{
  "geometry": {
    "coordinates": [
      [
        [
          0.3894369454635307,
          0.5392299361247569
        ],
        [
          0.4114484236568678,
          0.5392299361247569
        ],
        [
          0.4114484236568678,
          0.5612414143180939
        ],
        [
          0.3894369454635307,
          0.5612414143180939
        ],
        [
          0.3894369454635307,
          0.5392299361247569
        ]
      ]
    ],
    "type": "Polygon"
  },
  "id": "CHG_heavy_cloud_0190",
  "properties": {
    "feature_type": "reference_change",
    "stratum": "heavy_cloud",
    "tile_id": "AUD_heavy_cloud_010"
  },
  "type": "Feature"
}
