{
  "geometry": {
    "coordinates": [
      [
        [
          0.8063999436190352,
          0.0710468152165413
        ],
        [
          0.8267403507877608,
          0.0710468152165413
        ],
        [
          0.8267403507877608,
          0.09138722238526681
        ],
        [
          0.8063999436190352,
          0.09138722238526681
        ],
        [
          0.8063999436190352,
          0.0710468152165413
        ]
      ]
    ],
    "type": "Polygon"
  },
  "id": "CHG_heavy_cloud_0144",
  "properties": {
    "feature_type": "reference_change",
    "stratum": "heavy_cloud",
    "tile_id": "AUD_heavy_cloud_024"
  },
  "type": "Feature"
}
