{
  "geometry": {
    "coordinates": [
      [
        [
          0.13781162049621343,
          0.20926718338392675
        ],
        [
          0.1590334555581212,
          0.20926718338392675
        ],
        [
          0.1590334555581212,
          0.23048901844583453
        ],
        [
          0.13781162049621343,
          0.23048901844583453
        ],
        [
          0.13781162049621343,
          0.20926718338392675
        ]
      ]
    ],
    "type": "Polygon"
  },
  "id": "CHG_heavy_cloud_0049",
  "properties": {
    "feature_type": "reference_change",
    "stratum": "heavy_cloud",
    "tile_id": "AUD_heavy_cloud_049"
  },
  "type": "Feature"
}
