{
  "geometry": {
    "coordinates": [
      [
        [
          0.2893087341962382,
          0.498619781374
        ],
        [
          0.3067671430581249,
          0.498619781374
        ],
        [
          0.3067671430581249,
          0.5160781902358866
        ],
        [
          0.2893087341962382,
          0.5160781902358866
        ],
        [
          0.2893087341962382,
          0.498619781374
        ]
      ]
    ],
    "type": "Polygon"
  },
  "id": "CHG_heavy_cloud_0107",
  "properties": {
    "feature_type": "reference_change",
    "stratum": "heavy_cloud",
    "tile_id": "AUD_heavy_cloud_047"
  },
  "type": "Feature"
}
