{
  "geometry": {
    "coordinates": [
      [
        [
          0.3950633933907374,
          0.62349825121928
        ],
        [
          0.41962800174066794,
          0.62349825121928
        ],
        [
          0.41962800174066794,
          0.6480628595692105
        ],
        [
          0.3950633933907374,
          0.6480628595692105
        ],
        [
          0.3950633933907374,
          0.62349825121928
        ]
      ]
    ],
    "type": "Polygon"
  },
  "id": "CHG_heavy_cloud_0163",
  "properties": {
    "feature_type": "reference_change",
    "stratum": "heavy_cloud",
    "tile_id": "AUD_heavy_cloud_043"
  },
  "type": "Feature"
}
