{
  "geometry": {
    "coordinates": [
      [
        [
          0.5153569969767704,
          0.4941232140362262
        ],
        [
          0.527941681859549,
          0.4941232140362262
        ],
        [
          0.527941681859549,
          0.5067078989190049
        ],
        [
          0.5153569969767704,
          0.5067078989190049
        ],
        [
          0.5153569969767704,
          0.4941232140362262
        ]
      ]
    ],
    "type": "Polygon"
  },
  "id": "CHG_heavy_cloud_0060",
  "properties": {
    "feature_type": "reference_change",
    "stratum": "heavy_cloud",
    "tile_id": "AUD_heavy_cloud_000"
  },
  "type": "Feature"
}
