{
  "geometry": {
    "coordinates": [
      [
        [
          0.2577056528907269,
          0.7255815356923268
        ],
        [
          0.2751212762231007,
          0.7255815356923268
        ],
        [
          0.2751212762231007,
          0.7429971590247005
        ],
        [
          0.2577056528907269,
          0.7429971590247005
        ],
        [
          0.2577056528907269,
          0.7255815356923268
        ]
      ]
    ],
    "type": "Polygon"
  },
  "id": "CHG_heavy_cloud_0140",
  "properties": {
    "feature_type": "reference_change",
    "stratum": "heavy_cloud",
    "tile_id": "AUD_heavy_cloud_020"
  },
  "type": "Feature"
}
