{
  "geometry": {
    "coordinates": [
      [
        [
          0.30355282973498104,
          0.8325330175785348
        ],
        [
          0.3390761296374257,
          0.8325330175785348
        ],
        [
          0.3390761296374257,
          0.8680563174809796
        ],
        [
          0.30355282973498104,
          0.8680563174809796
        ],
        [
          0.30355282973498104,
          0.8325330175785348
        ]
      ]
    ],
    "type": "Polygon"
  },
  "id": "CHG_clear_regular_0126",
  "properties": {
    "feature_type": "reference_change",
    "stratum": "clear_regular",
    "tile_id": "AUD_clear_regular_006"
  },
  "type": "Feature"
}
