{
  "geometry": {
    "coordinates": [
      [
        [
          0.2503519241465256,
          0.05176549501717091
        ],
        [
          0.26251412140019237,
          0.05176549501717091
        ],
        [
          0.26251412140019237,
          0.06392769227083774
        ],
        [
          0.2503519241465256,
          0.06392769227083774
        ],
        [
          0.2503519241465256,
          0.05176549501717091
        ]
      ]
    ],
    "type": "Polygon"
  },
  "id": "CHG_clear_regular_0061",
  "properties": {
    "feature_type": "reference_change",
    "stratum": "clear_regular",
    "tile_id": "AUD_clear_regular_001"
  },
  "type": "Feature"
}
