{
  "geometry": {
    "coordinates": [
      [
        [
          0.1404999175108969,
          0.068737354404293
        ],
        [
          0.16291333052841944,
          0.068737354404293
        ],
        [
          0.16291333052841944,
          0.09115076742181555
        ],
        [
          0.1404999175108969,
          0.09115076742181555
        ],
        [
          0.1404999175108969,
          0.068737354404293
        ]
      ]
    ],
    "type": "Polygon"
  },
  "id": "CHG_clear_regular_0107",
  "properties": {
    "feature_type": "reference_change",
    "stratum": "clear_regular",
    "tile_id": "AUD_clear_regular_047"
  },
  "type": "Feature"
}
