{
  "geometry": {
    "coordinates": [
      [
        [
          0.8259189298842102,
          0.5782996901497245
        ],
        [
          0.8417667155042291,
          0.5782996901497245
        ],
        [
          0.8417667155042291,
          0.5941474757697434
        ],
        [
          0.8259189298842102,
          0.5941474757697434
        ],
        [
          0.8259189298842102,
          0.5782996901497245
        ]
      ]
    ],
    "type": "Polygon"
  },
  "id": "CHG_texture_complex_0027",
  "properties": {
    "feature_type": "reference_change",
    "stratum": "texture_complex",
    "tile_id": "AUD_texture_complex_027"
  },
  "type": "Feature"
}
