{
  "geometry": {
    "coordinates": [
      [
        [
          0.6697146546328441,
          0.6269242458976805
        ],
        [
          0.702474864060525,
          0.6269242458976805
        ],
        [
          0.702474864060525,
          0.6596844553253614
        ],
        [
          0.6697146546328441,
          0.6596844553253614
        ],
        [
          0.6697146546328441,
          0.6269242458976805
        ]
      ]
    ],
    "type": "Polygon"
  },
  "id": "CHG_clear_regular_0101",
  "properties": {
    "feature_type": "reference_change",
    "stratum": "clear_regular",
    "tile_id": "AUD_clear_regular_041"
  },
  "type": "Feature"
}
