{
  "geometry": {
    "coordinates": [
      [
        [
          0.2956549710035324,
          0.6633006921829656
        ],
        [
          0.31108334626466966,
          0.6633006921829656
        ],
        [
          0.31108334626466966,
          0.6787290674441029
        ],
        [
          0.2956549710035324,
          0.6787290674441029
        ],
        [
          0.2956549710035324,
          0.6633006921829656
        ]
      ]
    ],
    "type": "Polygon"
  },
  "id": "CHG_clear_regular_0117",
  "properties": {
    "feature_type": "reference_change",
    "stratum": "clear_regular",
    "tile_id": "AUD_clear_regular_057"
  },
  "type": "Feature"
}
