{
  "geometry": {
    "coordinates": [
      [
        [
          0.7845503728371114,
          0.2767853588517755
        ],
        [
          0.8147623723901343,
          0.2767853588517755
        ],
        [
          0.8147623723901343,
          0.3069973584047984
        ],
        [
          0.7845503728371114,
          0.3069973584047984
        ],
        [
          0.7845503728371114,
          0.2767853588517755
        ]
      ]
    ],
    "type": "Polygon"
  },
  "id": "CHG_heavy_cloud_0055",
  "properties": {
    "feature_type": "reference_change",
    "stratum": "heavy_cloud",
    "tile_id": "AUD_heavy_cloud_055"
  },
  "type": "Feature"
}
