{
  "geometry": {
    "coordinates": [
      [
        [
          0.4691887373803183,
          0.6914231093088165
        ],
        [
          0.48819674899615345,
          0.6914231093088165
        ],
        [
          0.48819674899615345,
          0.7104311209246515
        ],
        [
          0.4691887373803183,
          0.7104311209246515
        ],
        [
          0.4691887373803183,
          0.6914231093088165
        ]
      ]
    ],
    "type": "Polygon"
  },
  "id": "CHG_heavy_cloud_0013",
  "properties": {
    "feature_type": "reference_change",
    "stratum": "heavy_cloud",
    "tile_id": "AUD_heavy_cloud_013"
  },
  "type": "Feature"
}
