{
  "geometry": {
    "coordinates": [
      [
        [
          0.1920638046367094,
          0.598079186193645
        ],
        [
          0.2048275827690959,
          0.598079186193645
        ],
        [
          0.2048275827690959,
          0.6108429643260315
        ],
        [
          0.1920638046367094,
          0.6108429643260315
        ],
        [
          0.1920638046367094,
          0.598079186193645
        ]
      ]
    ],
    "type": "Polygon"
  },
  "id": "CHG_heavy_cloud_0196",
  "properties": {
    "feature_type": "reference_change",
    "stratum": "heavy_cloud",
    "tile_id": "AUD_heavy_cloud_016"
  },
  "type": "Feature"
}
