{
  "geometry": {
    "coordinates": [
      [
        [
          0.8480492162005976,
          0.42611242712009695
        ],
        [
          0.8651495626969263,
          0.42611242712009695
        ],
        [
          0.8651495626969263,
          0.44321277361642564
        ],
        [
          0.8480492162005976,
          0.44321277361642564
        ],
        [
          0.8480492162005976,
          0.42611242712009695
        ]
      ]
    ],
    "type": "Polygon"
  },
  "id": "CHG_heavy_cloud_0169",
  "properties": {
    "feature_type": "reference_change",
    "stratum": "heavy_cloud",
    "tile_id": "AUD_heavy_cloud_049"
  },
  "type": "Feature"
}
