{
  "geometry": {
    "coordinates": [
      [
        [
          0.13596837304066867,
          0.07842424433678388
        ],
        [
          0.15635296870651655,
          0.07842424433678388
        ],
        [
          0.15635296870651655,
          0.09880884000263176
        ],
        [
          0.13596837304066867,
          0.09880884000263176
        ],
        [
          0.13596837304066867,
          0.07842424433678388
        ]
      ]
    ],
    "type": "Polygon"
  },
  "id": "CHG_texture_complex_0075",
  "properties": {
    "feature_type": "reference_change",
    "stratum": "texture_complex",
    "tile_id": "AUD_texture_complex_015"
  },
  "type": "Feature"
}
