{
  "geometry": {
    "coordinates": [
      [
        [
          0.31537207707762716,
          0.5557614519679919
        ],
        [
          0.34129356700507923,
          0.5557614519679919
        ],
        [
          0.34129356700507923,
          0.5816829418954439
        ],
        [
          0.31537207707762716,
          0.5816829418954439
        ],
        [
          0.31537207707762716,
          0.5557614519679919
        ]
      ]
    ],
    "type": "Polygon"
  },
  "id": "CHG_heavy_cloud_0104",
  "properties": {
    "feature_type": "reference_change",
    "stratum": "heavy_cloud",
    "tile_id": "AUD_heavy_cloud_044"
  },
  "type": "Feature"
}
