{
  "geometry": {
    "coordinates": [
      [
        [
          0.06928859372157603,
          0.0839577747695148
        ],
        [
          0.0889477773446124,
          0.0839577747695148
        ],
        [
          0.0889477773446124,
          0.10361695839255117
        ],
        [
          0.06928859372157603,
          0.10361695839255117
        ],
        [
          0.06928859372157603,
          0.0839577747695148
        ]
      ]
    ],
    "type": "Polygon"
  },
  "id": "CHG_heavy_cloud_0112",
  "properties": {
    "feature_type": "reference_change",
    "stratum": "heavy_cloud",
    "tile_id": "AUD_heavy_cloud_052"
  },
  "type": "Feature"
}
