{
  "geometry": {
    "coordinates": [
      [
        [
          0.7641975484741852,
          0.3087853674730286
        ],
        [
          0.785143723497633,
          0.3087853674730286
        ],
        [
          0.785143723497633,
          0.3297315424964763
        ],
        [
          0.7641975484741852,
          0.3297315424964763
        ],
        [
          0.7641975484741852,
          0.3087853674730286
        ]
      ]
    ],
    "type": "Polygon"
  },
  "id": "CHG_heavy_cloud_0025",
  "properties": {
    "feature_type": "reference_change",
    "stratum": "heavy_cloud",
    "tile_id": "AUD_heavy_cloud_025"
  },
  "type": "Feature"
}
