{
  "geometry": {
    "coordinates": [
      [
        [
          0.10532998354639858,
          0.6520500285783782
        ],
        [
          0.13166549430391752,
          0.6520500285783782
        ],
        [
          0.13166549430391752,
          0.6783855393358972
        ],
        [
          0.10532998354639858,
          0.6783855393358972
        ],
        [
          0.10532998354639858,
          0.6520500285783782
        ]
      ]
    ],
    "type": "Polygon"
  },
  "id": "CHG_clear_regular_0026",
  "properties": {
    "feature_type": "reference_change",
    "stratum": "clear_regular",
    "tile_id": "AUD_clear_regular_026"
  },
  "type": "Feature"
}
