{
  "geometry": {
    "coordinates": [
      [
        [
          0.5445272835670039,
          0.8637546134600416
        ],
        [
          0.5805159324784763,
          0.8637546134600416
        ],
        [
          0.5805159324784763,
          0.899743262371514
        ],
        [
          0.5445272835670039,
          0.899743262371514
        ],
        [
          0.5445272835670039,
          0.8637546134600416
        ]
      ]
    ],
    "type": "Polygon"
  },
  "id": "CHG_clear_regular_0066",
  "properties": {
    "feature_type": "reference_change",
    "stratum": "clear_regular",
    "tile_id": "AUD_clear_regular_006"
  },
  "type": "Feature"
}
