{
  "geometry": {
    "coordinates": [
      [
        [
          0.3168887417251244,
          0.07686808135360479
        ],
        [
          0.34884509432758204,
          0.07686808135360479
        ],
        [
          0.34884509432758204,
          0.10882443395606242
        ],
        [
          0.3168887417251244,
          0.10882443395606242
        ],
        [
          0.3168887417251244,
          0.07686808135360479
        ]
      ]
    ],
    "type": "Polygon"
  },
  "id": "CHG_texture_complex_0143",
  "properties": {
    "feature_type": "reference_change",
    "stratum": "texture_complex",
    "tile_id": "AUD_texture_complex_023"
  },
  "type": "Feature"
}
