{
  "geometry": {
    "coordinates": [
      [
        [
          0.052697416744194925,
          0.3328508148761466
        ],
        [
          0.07902688975492492,
          0.3328508148761466
        ],
        [
          0.07902688975492492,
          0.3591802878868766
        ],
        [
          0.052697416744194925,
          0.3591802878868766
        ],
        [
          0.052697416744194925,
          0.3328508148761466
        ]
      ]
    ],
    "type": "Polygon"
  },
  "id": "CHG_heavy_cloud_0189",
  "properties": {
    "feature_type": "reference_change",
    "stratum": "heavy_cloud",
    "tile_id": "AUD_heavy_cloud_009"
  },
  "type": "Feature"
}
