{
  "geometry": {
    "coordinates": [
      [
        [
          0.8075196446757764,
          0.38099423830863083
        ],
        [
          0.8331763347056695,
          0.38099423830863083
        ],
        [
          0.8331763347056695,
          0.4066509283385239
        ],
        [
          0.8075196446757764,
          0.4066509283385239
        ],
        [
          0.8075196446757764,
          0.38099423830863083
        ]
      ]
    ],
    "type": "Polygon"
  },
  "id": "CHG_clear_regular_0106",
  "properties": {
    "feature_type": "reference_change",
    "stratum": "clear_regular",
    "tile_id": "AUD_clear_regular_046"
  },
  "type": "Feature"
}
