{
  "geometry": {
    "coordinates": [
      [
        [
          0.725490294676274,
          0.46194513117894526
        ],
        [
          0.7404611039038281,
          0.46194513117894526
        ],
        [
          0.7404611039038281,
          0.4769159404064994
        ],
        [
          0.725490294676274,
          0.4769159404064994
        ],
        [
          0.725490294676274,
          0.46194513117894526
        ]
      ]
    ],
    "type": "Polygon"
  },
  "id": "CHG_clear_regular_0124",
  "properties": {
    "feature_type": "reference_change",
    "stratum": "clear_regular",
    "tile_id": "AUD_clear_regular_004"
  },
  "type": "Feature"
}
