{
  "geometry": {
    "coordinates": [
      [
        [
          0.7522636190103367,
          0.5364264161093161
        ],
        [
          0.7765431843400001,
          0.5364264161093161
        ],
        [
          0.7765431843400001,
          0.5607059814389795
        ],
        [
          0.7522636190103367,
          0.5607059814389795
        ],
        [
          0.7522636190103367,
          0.5364264161093161
        ]
      ]
    ],
    "type": "Polygon"
  },
  "id": "CHG_clear_regular_0149",
  "properties": {
    "feature_type": "reference_change",
    "stratum": "clear_regular",
    "tile_id": "AUD_clear_regular_029"
  },
  "type": "Feature"
}
