{
  "geometry": {
    "coordinates": [
      [
        [
          0.17901628531049935,
          0.6187219185614958
        ],
        [
          0.19224557541590181,
          0.6187219185614958
        ],
        [
          0.19224557541590181,
          0.6319512086668984
        ],
        [
          0.17901628531049935,
          0.6319512086668984
        ],
        [
          0.17901628531049935,
          0.6187219185614958
        ]
      ]
    ],
    "type": "Polygon"
  },
  "id": "CHG_clear_regular_0154",
  "properties": {
    "feature_type": "reference_change",
    "stratum": "clear_regular",
    "tile_id": "AUD_clear_regular_034"
  },
  "type": "Feature"
}
