{
  "geometry": {
    "coordinates": [
      [
        [
          0.37269119568634773,
          0.511730754673481
        ],
        [
          0.4017968095098622,
          0.511730754673481
        ],
        [
          0.4017968095098622,
          0.5408363684969953
        ],
        [
          0.37269119568634773,
          0.5408363684969953
        ],
        [
          0.37269119568634773,
          0.511730754673481
        ]
      ]
    ],
    "type": "Polygon"
  },
  "id": "CHG_heavy_cloud_0087",
  "properties": {
    "feature_type": "reference_change",
    "stratum": "heavy_cloud",
    "tile_id": "AUD_heavy_cloud_027"
  },
  "type": "Feature"
}
