{
  "geometry": {
    "coordinates": [
      [
        [
          0.2739638353558257,
          0.7939534420939163
        ],
        [
          0.2922158847136888,
          0.7939534420939163
        ],
        [
          0.2922158847136888,
          0.8122054914517794
        ],
        [
          0.2739638353558257,
          0.8122054914517794
        ],
        [
          0.2739638353558257,
          0.7939534420939163
        ]
      ]
    ],
    "type": "Polygon"
  },
  "id": "CHG_heavy_cloud_0035",
  "properties": {
    "feature_type": "reference_change",
    "stratum": "heavy_cloud",
    "tile_id": "AUD_heavy_cloud_035"
  },
  "type": "Feature"
}
