{
  "geometry": {
    "coordinates": [
      [
        [
          0.18238672709558157,
          0.6057693555764854
        ],
        [
          0.2062872690153308,
          0.6057693555764854
        ],
        [
          0.2062872690153308,
          0.6296698974962346
        ],
        [
          0.18238672709558157,
          0.6296698974962346
        ],
        [
          0.18238672709558157,
          0.6057693555764854
        ]
      ]
    ],
    "type": "Polygon"
  },
  "id": "CHG_clear_regular_0134",
  "properties": {
    "feature_type": "reference_change",
    "stratum": "clear_regular",
    "tile_id": "AUD_clear_regular_014"
  },
  "type": "Feature"
}
