{
  "geometry": {
    "coordinates": [
      [
        [
          0.4441833390621468,
          0.3945680909091606
        ],
        [
          0.48022057276149277,
          0.3945680909091606
        ],
        [
          0.48022057276149277,
          0.4306053246085066
        ],
        [
          0.4441833390621468,
          0.4306053246085066
        ],
        [
          0.4441833390621468,
          0.3945680909091606
        ]
      ]
    ],
    "type": "Polygon"
  },
  "id": "CHG_heavy_cloud_0145",
  "properties": {
    "feature_type": "reference_change",
    "stratum": "heavy_cloud",
    "tile_id": "AUD_heavy_cloud_025"
  },
  "type": "Feature"
}
