{
  "geometry": {
    "coordinates": [
      [
        [
          0.23400217590853573,
          0.6129693813575432
        ],
        [
          0.2526875229428988,
          0.6129693813575432
        ],
        [
          0.2526875229428988,
          0.6316547283919063
        ],
        [
          0.23400217590853573,
          0.6316547283919063
        ],
        [
          0.23400217590853573,
          0.6129693813575432
        ]
      ]
    ],
    "type": "Polygon"
  },
  "id": "CHG_clear_regular_0062",
  "properties": {
    "feature_type": "reference_change",
    "stratum": "clear_regular",
    "tile_id": "AUD_clear_regular_002"
  },
  "type": "Feature"
}
