{
  "geometry": {
    "coordinates": [
      [
        [
          0.5758969275187701,
          0.45729148997459557
        ],
        [
          0.5951815191393253,
          0.45729148997459557
        ],
        [
          0.5951815191393253,
          0.4765760815951507
        ],
        [
          0.5758969275187701,
          0.4765760815951507
        ],
        [
          0.5758969275187701,
          0.45729148997459557
        ]
      ]
    ],
    "type": "Polygon"
  },
  "id": "CHG_clear_regular_0023",
  "properties": {
    "feature_type": "reference_change",
    "stratum": "clear_regular",
    "tile_id": "AUD_clear_regular_023"
  },
  "type": "Feature"
}
