{
  "geometry": {
    "coordinates": [
      [
        [
          0.4535601828200742,
          0.24652167135383934
        ],
        [
          0.4759865882066078,
          0.24652167135383934
        ],
        [
          0.4759865882066078,
          0.2689480767403729
        ],
        [
          0.4535601828200742,
          0.2689480767403729
        ],
        [
          0.4535601828200742,
          0.24652167135383934
        ]
      ]
    ],
    "type": "Polygon"
  },
  "id": "CHG_clear_regular_0052",
  "properties": {
    "feature_type": "reference_change",
    "stratum": "clear_regular",
    "tile_id": "AUD_clear_regular_052"
  },
  "type": "Feature"
}
