{
  "geometry": {
    "coordinates": [
      [
        [
          0.11331370332743973,
          0.26544204275123773
        ],
        [
          0.1472509735629428,
          0.26544204275123773
        ],
        [
          0.1472509735629428,
          0.2993793129867408
        ],
        [
          0.11331370332743973,
          0.2993793129867408
        ],
        [
          0.11331370332743973,
          0.26544204275123773
        ]
      ]
    ],
    "type": "Polygon"
  },
  "id": "CHG_heavy_cloud_0050",
  "properties": {
    "feature_type": "reference_change",
    "stratum": "heavy_cloud",
    "tile_id": "AUD_heavy_cloud_050"
  },
  "type": "Feature"
}
