{
  "geometry": {
    "coordinates": [
      [
        [
          0.11546715446747839,
          0.2492911148117855
        ],
        [
          0.13965059178927913,
          0.2492911148117855
        ],
        [
          0.13965059178927913,
          0.27347455213358624
        ],
        [
          0.11546715446747839,
          0.27347455213358624
        ],
        [
          0.11546715446747839,
          0.2492911148117855
        ]
      ]
    ],
    "type": "Polygon"
  },
  "id": "CHG_texture_complex_0112",
  "properties": {
    "feature_type": "reference_change",
    "stratum": "texture_complex",
    "tile_id": "AUD_texture_complex_052"
  },
  "type": "Feature"
}
