{
  "geometry": {
    "coordinates": [
      [
        [
          0.5787695187889039,
          0.2676931777317077
        ],
        [
          0.6111586073813959,
          0.2676931777317077
        ],
        [
          0.6111586073813959,
          0.30008226632419976
        ],
        [
          0.5787695187889039,
          0.30008226632419976
        ],
        [
          0.5787695187889039,
          0.2676931777317077
        ]
      ]
    ],
    "type": "Polygon"
  },
  "id": "CHG_heavy_cloud_0090",
  "properties": {
    "feature_type": "reference_change",
    "stratum": "heavy_cloud",
    "tile_id": "AUD_heavy_cloud_030"
  },
  "type": "Feature"
}
