{
  "geometry": {
    "coordinates": [
      [
        [
          0.5770545915234834,
          0.1761641905689612
        ],
        [
          0.5992707244649064,
          0.1761641905689612
        ],
        [
          0.5992707244649064,
          0.1983803235103842
        ],
        [
          0.5770545915234834,
          0.1983803235103842
        ],
        [
          0.5770545915234834,
          0.1761641905689612
        ]
      ]
    ],
    "type": "Polygon"
  },
  "id": "CHG_heavy_cloud_0066",
  "properties": {
    "feature_type": "reference_change",
    "stratum": "heavy_cloud",
    "tile_id": "AUD_heavy_cloud_006"
  },
  "type": "Feature"
}
