{
  "geometry": {
    "coordinates": [
      [
        [
          0.47444948199670756,
          0.2552601122809574
        ],
        [
          0.5062374502553139,
          0.2552601122809574
        ],
        [
          0.5062374502553139,
          0.28704808053956365
        ],
        [
          0.47444948199670756,
          0.28704808053956365
        ],
        [
          0.47444948199670756,
          0.2552601122809574
        ]
      ]
    ],
    "type": "Polygon"
  },
  "id": "CHG_heavy_cloud_0059",
  "properties": {
    "feature_type": "reference_change",
    "stratum": "heavy_cloud",
    "tile_id": "AUD_heavy_cloud_059"
  },
  "type": "Feature"
}
