{
  "geometry": {
    "coordinates": [
      [
        [
          0.742942194500938,
          0.16996807351708412
        ],
        [
          0.7592729041939601,
          0.16996807351708412
        ],
        [
          0.7592729041939601,
          0.1862987832101062
        ],
        [
          0.742942194500938,
          0.1862987832101062
        ],
        [
          0.742942194500938,
          0.16996807351708412
        ]
      ]
    ],
    "type": "Polygon"
  },
  "id": "CHG_heavy_cloud_0026",
  "properties": {
    "feature_type": "reference_change",
    "stratum": "heavy_cloud",
    "tile_id": "AUD_heavy_cloud_026"
  },
  "type": "Feature"
}
