{
  "geometry": {
    "coordinates": [
      [
        [
          0.7593786186398939,
          0.5219588554091752
        ],
        [
          0.792335995098576,
          0.5219588554091752
        ],
        [
          0.792335995098576,
          0.5549162318678573
        ],
        [
          0.7593786186398939,
          0.5549162318678573
        ],
        [
          0.7593786186398939,
          0.5219588554091752
        ]
      ]
    ],
    "type": "Polygon"
  },
  "id": "CHG_clear_regular_0098",
  "properties": {
    "feature_type": "reference_change",
    "stratum": "clear_regular",
    "tile_id": "AUD_clear_regular_038"
  },
  "type": "Feature"
}
