{
  "geometry": {
    "coordinates": [
      [
        [
          0.3072267085779458,
          0.3283318169787526
        ],
        [
          0.34410756202461196,
          0.3283318169787526
        ],
        [
          0.34410756202461196,
          0.3652126704254187
        ],
        [
          0.3072267085779458,
          0.3652126704254187
        ],
        [
          0.3072267085779458,
          0.3283318169787526
        ]
      ]
    ],
    "type": "Polygon"
  },
  "id": "CHG_heavy_cloud_0007",
  "properties": {
    "feature_type": "reference_change",
    "stratum": "heavy_cloud",
    "tile_id": "AUD_heavy_cloud_007"
  },
  "type": "Feature"
}
