{
  "geometry": {
    "coordinates": [
      [
        [
          0.5586412909859791,
          0.44442484875209626
        ],
        [
          0.5844295824486763,
          0.44442484875209626
        ],
        [
          0.5844295824486763,
          0.4702131402147933
        ],
        [
          0.5586412909859791,
          0.4702131402147933
        ],
        [
          0.5586412909859791,
          0.44442484875209626
        ]
      ]
    ],
    "type": "Polygon"
  },
  "id": "CHG_heavy_cloud_0183",
  "properties": {
    "feature_type": "reference_change",
    "stratum": "heavy_cloud",
    "tile_id": "AUD_heavy_cloud_003"
  },
  "type": "Feature"
}
