{
  "geometry": {
    "coordinates": [
      [
        [
          0.5249932733364403,
          0.12082936946302653
        ],
        [
          0.5407515808886383,
          0.12082936946302653
        ],
        [
          0.5407515808886383,
          0.13658767701522448
        ],
        [
          0.5249932733364403,
          0.13658767701522448
        ],
        [
          0.5249932733364403,
          0.12082936946302653
        ]
      ]
    ],
    "type": "Polygon"
  },
  "id": "CHG_clear_regular_0158",
  "properties": {
    "feature_type": "reference_change",
    "stratum": "clear_regular",
    "tile_id": "AUD_clear_regular_038"
  },
  "type": "Feature"
}
