{
  "geometry": {
    "coordinates": [
      [
        [
          0.4452824989147484,
          0.3272994686383754
        ],
        [
          0.47275493232230653,
          0.3272994686383754
        ],
        [
          0.47275493232230653,
          0.3547719020459335
        ],
        [
          0.4452824989147484,
          0.3547719020459335
        ],
        [
          0.4452824989147484,
          0.3272994686383754
        ]
      ]
    ],
    "type": "Polygon"
  },
  "id": "CHG_heavy_cloud_0154",
  "properties": {
    "feature_type": "reference_change",
    "stratum": "heavy_cloud",
    "tile_id": "AUD_heavy_cloud_034"
  },
  "type": "Feature"
}
