{
  "geometry": {
    "coordinates": [
      [
        [
          0.5642489245906472,
          0.12210782964713872
        ],
        [
          0.5977240801025182,
          0.12210782964713872
        ],
        [
          0.5977240801025182,
          0.1555829851590097
        ],
        [
          0.5642489245906472,
          0.1555829851590097
        ],
        [
          0.5642489245906472,
          0.12210782964713872
        ]
      ]
    ],
    "type": "Polygon"
  },
  "id": "CHG_heavy_cloud_0073",
  "properties": {
    "feature_type": "reference_change",
    "stratum": "heavy_cloud",
    "tile_id": "AUD_heavy_cloud_013"
  },
  "type": "Feature"
}
