{
  "geometry": {
    "coordinates": [
      [
        [
          0.5722486506262794,
          0.10109724858775734
        ],
        [
          0.5882303361773956,
          0.10109724858775734
        ],
        [
          0.5882303361773956,
          0.11707893413887359
        ],
        [
          0.5722486506262794,
          0.11707893413887359
        ],
        [
          0.5722486506262794,
          0.10109724858775734
        ]
      ]
    ],
    "type": "Polygon"
  },
  "id": "CHG_texture_complex_0137",
  "properties": {
    "feature_type": "reference_change",
    "stratum": "texture_complex",
    "tile_id": "AUD_texture_complex_017"
  },
  "type": "Feature"
}
