{
  "geometry": {
    "coordinates": [
      [
        [
          0.14245938973035663,
          0.06153526877518743
        ],
        [
          0.17800565126864237,
          0.06153526877518743
        ],
        [
          0.17800565126864237,
          0.09708153031347319
        ],
        [
          0.14245938973035663,
          0.09708153031347319
        ],
        [
          0.14245938973035663,
          0.06153526877518743
        ]
      ]
    ],
    "type": "Polygon"
  },
  "id": "CHG_heavy_cloud_0046",
  "properties": {
    "feature_type": "reference_change",
    "stratum": "heavy_cloud",
    "tile_id": "AUD_heavy_cloud_046"
  },
  "type": "Feature"
}
