{
  "geometry": {
    "coordinates": [
      [
        [
          0.8176793782738969,
          0.37043191066477443
        ],
        [
          0.8351218560715207,
          0.37043191066477443
        ],
        [
          0.8351218560715207,
          0.38787438846239813
        ],
        [
          0.8176793782738969,
          0.38787438846239813
        ],
        [
          0.8176793782738969,
          0.37043191066477443
        ]
      ]
    ],
    "type": "Polygon"
  },
  "id": "CHG_heavy_cloud_0171",
  "properties": {
    "feature_type": "reference_change",
    "stratum": "heavy_cloud",
    "tile_id": "AUD_heavy_cloud_051"
  },
  "type": "Feature"
}
