{
  "geometry": {
    "coordinates": [
      [
        [
          0.07573328072670847,
          0.26227779826615005
        ],
        [
          0.10258085760101676,
          0.26227779826615005
        ],
        [
          0.10258085760101676,
          0.28912537514045833
        ],
        [
          0.07573328072670847,
          0.28912537514045833
        ],
        [
          0.07573328072670847,
          0.26227779826615005
        ]
      ]
    ],
    "type": "Polygon"
  },
  "id": "CHG_texture_complex_0045",
  "properties": {
    "feature_type": "reference_change",
    "stratum": "texture_complex",
    "tile_id": "AUD_texture_complex_045"
  },
  "type": "Feature"
}
