{
  "geometry": {
    "coordinates": [
      [
        [
          0.3194701120257377,
          0.8132558355946093
        ],
        [
          0.34478074648696927,
          0.8132558355946093
        ],
        [
          0.34478074648696927,
          0.8385664700558408
        ],
        [
          0.3194701120257377,
          0.8385664700558408
        ],
        [
          0.3194701120257377,
          0.8132558355946093
        ]
      ]
    ],
    "type": "Polygon"
  },
  "id": "CHG_clear_regular_0049",
  "properties": {
    "feature_type": "reference_change",
    "stratum": "clear_regular",
    "tile_id": "AUD_clear_regular_049"
  },
  "type": "Feature"
}
