{
  "geometry": {
    "coordinates": [
      [
        [
          0.23726904259994624,
          0.7058844988653437
        ],
        [
          0.26685663548344746,
          0.7058844988653437
        ],
        [
          0.26685663548344746,
          0.7354720917488449
        ],
        [
          0.23726904259994624,
          0.7354720917488449
        ],
        [
          0.23726904259994624,
          0.7058844988653437
        ]
      ]
    ],
    "type": "Polygon"
  },
  "id": "CHG_clear_regular_0065",
  "properties": {
    "feature_type": "reference_change",
    "stratum": "clear_regular",
    "tile_id": "AUD_clear_regular_005"
  },
  "type": "Feature"
}
