{
  "geometry": {
    "coordinates": [
      [
        [
          0.23355077058542517,
          0.17019315749872477
        ],
        [
          0.25742482467251826,
          0.17019315749872477
        ],
        [
          0.25742482467251826,
          0.19406721158581786
        ],
        [
          0.23355077058542517,
          0.19406721158581786
        ],
        [
          0.23355077058542517,
          0.17019315749872477
        ]
      ]
    ],
    "type": "Polygon"
  },
  "id": "CHG_texture_complex_0088",
  "properties": {
    "feature_type": "reference_change",
    "stratum": "texture_complex",
    "tile_id": "AUD_texture_complex_028"
  },
  "type": "Feature"
}
