{
  "geometry": {
    "coordinates": [
      [
        [
          0.1468834160128608,
          0.08342308945953847
        ],
        [
          0.17055317804380318,
          0.08342308945953847
        ],
        [
          0.17055317804380318,
          0.10709285149048084
        ],
        [
          0.1468834160128608,
          0.10709285149048084
        ],
        [
          0.1468834160128608,
          0.08342308945953847
        ]
      ]
    ],
    "type": "Polygon"
  },
  "id": "CHG_clear_regular_0086",
  "properties": {
    "feature_type": "reference_change",
    "stratum": "clear_regular",
    "tile_id": "AUD_clear_regular_026"
  },
  "type": "Feature"
}
