{
  "geometry": {
    "coordinates": [
      [
        [
          0.5932681095181033,
          0.40347009644843634
        ],
        [
          0.609989297102904,
          0.40347009644843634
        ],
        [
          0.609989297102904,
          0.42019128403323697
        ],
        [
          0.5932681095181033,
          0.42019128403323697
        ],
        [
          0.5932681095181033,
          0.40347009644843634
        ]
      ]
    ],
    "type": "Polygon"
  },
  "id": "CHG_clear_regular_0082",
  "properties": {
    "feature_type": "reference_change",
    "stratum": "clear_regular",
    "tile_id": "AUD_clear_regular_022"
  },
  "type": "Feature"
}
