{
  "geometry": {
    "coordinates": [
      [
        [
          0.5468316395301371,
          0.5912663459777833
        ],
        [
          0.5800686598934699,
          0.5912663459777833
        ],
        [
          0.5800686598934699,
          0.6245033663411159
        ],
        [
          0.5468316395301371,
          0.6245033663411159
        ],
        [
          0.5468316395301371,
          0.5912663459777833
        ]
      ]
    ],
    "type": "Polygon"
  },
  "id": "CHG_clear_regular_0099",
  "properties": {
    "feature_type": "reference_change",
    "stratum": "clear_regular",
    "tile_id": "AUD_clear_regular_039"
  },
  "type": "Feature"
}
