{
  "geometry": {
    "coordinates": [
      [
        [
          0.42564353704918173,
          0.3245696789259091
        ],
        [
          0.4401117463845294,
          0.3245696789259091
        ],
        [
          0.4401117463845294,
          0.33903788826125675
        ],
        [
          0.42564353704918173,
          0.33903788826125675
        ],
        [
          0.42564353704918173,
          0.3245696789259091
        ]
      ]
    ],
    "type": "Polygon"
  },
  "id": "CHG_clear_regular_0131",
  "properties": {
    "feature_type": "reference_change",
    "stratum": "clear_regular",
    "tile_id": "AUD_clear_regular_011"
  },
  "type": "Feature"
}
