{
  "geometry": {
    "coordinates": [
      [
        [
          0.2289140654215589,
          0.3455901674553752
        ],
        [
          0.2523215622541029,
          0.3455901674553752
        ],
        [
          0.2523215622541029,
          0.3689976642879192
        ],
        [
          0.2289140654215589,
          0.3689976642879192
        ],
        [
          0.2289140654215589,
          0.3455901674553752
        ]
      ]
    ],
    "type": "Polygon"
  },
  "id": "CHG_heavy_cloud_0069",
  "properties": {
    "feature_type": "reference_change",
    "stratum": "heavy_cloud",
    "tile_id": "AUD_heavy_cloud_009"
  },
  "type": "Feature"
}
