{
  "geometry": {
    "coordinates": [
      [
        [
          0.31606590373907234,
          0.1435870279511437
        ],
        [
          0.3281660018702969,
          0.1435870279511437
        ],
        [
          0.3281660018702969,
          0.1556871260823682
        ],
        [
          0.31606590373907234,
          0.1556871260823682
        ],
        [
          0.31606590373907234,
          0.1435870279511437
        ]
      ]
    ],
    "type": "Polygon"
  },
  "id": "CHG_heavy_cloud_0162",
  "properties": {
    "feature_type": "reference_change",
    "stratum": "heavy_cloud",
    "tile_id": "AUD_heavy_cloud_042"
  },
  "type": "Feature"
}
