{
  "geometry": {
    "coordinates": [
      [
        [
          0.48098050964530553,
          0.8497210229746998
        ],
        [
          0.503961186574772,
          0.8497210229746998
        ],
        [
          0.503961186574772,
          0.8727016999041661
        ],
        [
          0.48098050964530553,
          0.8727016999041661
        ],
        [
          0.48098050964530553,
          0.8497210229746998
        ]
      ]
    ],
    "type": "Polygon"
  },
  "id": "CHG_heavy_cloud_0156",
  "properties": {
    "feature_type": "reference_change",
    "stratum": "heavy_cloud",
    "tile_id": "AUD_heavy_cloud_036"
  },
  "type": "Feature"
}
