{
  "geometry": {
    "coordinates": [
      [
        [
          0.6072055168030783,
          0.156272926623933
        ],
        [
          0.6295569895294029,
          0.156272926623933
        ],
        [
          0.6295569895294029,
          0.17862439935025756
        ],
        [
          0.6072055168030783,
          0.17862439935025756
        ],
        [
          0.6072055168030783,
          0.156272926623933
        ]
      ]
    ],
    "type": "Polygon"
  },
  "id": "CHG_heavy_cloud_0043",
  "properties": {
    "feature_type": "reference_change",
    "stratum": "heavy_cloud",
    "tile_id": "AUD_heavy_cloud_043"
  },
  "type": "Feature"
}
