{
  "geometry": {
    "coordinates": [
      [
        [
          0.8674030251428485,
          0.07716875463724136
        ],
        [
          0.8960667374292388,
          0.07716875463724136
        ],
        [
          0.8960667374292388,
          0.10583246692363173
        ],
        [
          0.8674030251428485,
          0.10583246692363173
        ],
        [
          0.8674030251428485,
          0.07716875463724136
        ]
      ]
    ],
    "type": "Polygon"
  },
  "id": "CHG_heavy_cloud_0029",
  "properties": {
    "feature_type": "reference_change",
    "stratum": "heavy_cloud",
    "tile_id": "AUD_heavy_cloud_029"
  },
  "type": "Feature"
}
