{
  "geometry": {
    "coordinates": [
      [
        [
          0.06562142995651811,
          0.39389128467533735
        ],
        [
          0.09763974832184613,
          0.39389128467533735
        ],
        [
          0.09763974832184613,
          0.4259096030406654
        ],
        [
          0.06562142995651811,
          0.4259096030406654
        ],
        [
          0.06562142995651811,
          0.39389128467533735
        ]
      ]
    ],
    "type": "Polygon"
  },
  "id": "CHG_texture_complex_0082",
  "properties": {
    "feature_type": "reference_change",
    "stratum": "texture_complex",
    "tile_id": "AUD_texture_complex_022"
  },
  "type": "Feature"
}
