{
  "geometry": {
    "coordinates": [
      [
        [
          0.759252205369994,
          0.5969095777813346
        ],
        [
          0.7756112472403329,
          0.5969095777813346
        ],
        [
          0.7756112472403329,
          0.6132686196516735
        ],
        [
          0.759252205369994,
          0.6132686196516735
        ],
        [
          0.759252205369994,
          0.5969095777813346
        ]
      ]
    ],
    "type": "Polygon"
  },
  "id": "CHG_heavy_cloud_0057",
  "properties": {
    "feature_type": "reference_change",
    "stratum": "heavy_cloud",
    "tile_id": "AUD_heavy_cloud_057"
  },
  "type": "Feature"
}
