{
  "geometry": {
    "coordinates": [
      [
        [
          0.7619454859988763,
          0.3868613190250471
        ],
        [
          0.7786305259102955,
          0.3868613190250471
        ],
        [
          0.7786305259102955,
          0.4035463589364663
        ],
        [
          0.7619454859988763,
          0.4035463589364663
        ],
        [
          0.7619454859988763,
          0.3868613190250471
        ]
      ]
    ],
    "type": "Polygon"
  },
  "id": "CHG_clear_regular_0048",
  "properties": {
    "feature_type": "reference_change",
    "stratum": "clear_regular",
    "tile_id": "AUD_clear_regular_048"
  },
  "type": "Feature"
}
