{
  "geometry": {
    "coordinates": [
      [
        [
          0.6568326005386189,
          0.3204705139156431
        ],
        [
          0.690120251595974,
          0.3204705139156431
        ],
        [
          0.690120251595974,
          0.35375816497299817
        ],
        [
          0.6568326005386189,
          0.35375816497299817
        ],
        [
          0.6568326005386189,
          0.3204705139156431
        ]
      ]
    ],
    "type": "Polygon"
  },
  "id": "CHG_clear_regular_0004",
  "properties": {
    "feature_type": "reference_change",
    "stratum": "clear_regular",
    "tile_id": "AUD_clear_regular_004"
  },
  "type": "Feature"
}
