{
  "geometry": {
    "coordinates": [
      [
        [
          0.21121343278791754,
          0.274652736634016
        ],
        [
          0.22370604482176712,
          0.274652736634016
        ],
        [
          0.22370604482176712,
          0.2871453486678656
        ],
        [
          0.21121343278791754,
          0.2871453486678656
        ],
        [
          0.21121343278791754,
          0.274652736634016
        ]
      ]
    ],
    "type": "Polygon"
  },
  "id": "CHG_heavy_cloud_0015",
  "properties": {
    "feature_type": "reference_change",
    "stratum": "heavy_cloud",
    "tile_id": "AUD_heavy_cloud_015"
  },
  "type": "Feature"
}
