{
  "geometry": {
    "coordinates": [
      [
        [
          0.7859672966599465,
          0.11183631860185414
        ],
        [
          0.810977093306603,
          0.11183631860185414
        ],
        [
          0.810977093306603,
          0.13684611524851062
        ],
        [
          0.7859672966599465,
          0.13684611524851062
        ],
        [
          0.7859672966599465,
          0.11183631860185414
        ]
      ]
    ],
    "type": "Polygon"
  },
  "id": "CHG_clear_regular_0071",
  "properties": {
    "feature_type": "reference_change",
    "stratum": "clear_regular",
    "tile_id": "AUD_clear_regular_011"
  },
  "type": "Feature"
}
