{
  "geometry": {
    "coordinates": [
      [
        [
          0.41905508509837086,
          0.05063547219149769
        ],
        [
          0.4481997994058765,
          0.05063547219149769
        ],
        [
          0.4481997994058765,
          0.07978018649900333
        ],
        [
          0.41905508509837086,
          0.07978018649900333
        ],
        [
          0.41905508509837086,
          0.05063547219149769
        ]
      ]
    ],
    "type": "Polygon"
  },
  "id": "CHG_heavy_cloud_0053",
  "properties": {
    "feature_type": "reference_change",
    "stratum": "heavy_cloud",
    "tile_id": "AUD_heavy_cloud_053"
  },
  "type": "Feature"
}
