{
  "geometry": {
    "coordinates": [
      [
        [
          0.7991099223913625,
          0.2891785739082843
        ],
        [
          0.8293833253106568,
          0.2891785739082843
        ],
        [
          0.8293833253106568,
          0.3194519768275786
        ],
        [
          0.7991099223913625,
          0.3194519768275786
        ],
        [
          0.7991099223913625,
          0.2891785739082843
        ]
      ]
    ],
    "type": "Polygon"
  },
  "id": "CHG_clear_regular_0087",
  "properties": {
    "feature_type": "reference_change",
    "stratum": "clear_regular",
    "tile_id": "AUD_clear_regular_027"
  },
  "type": "Feature"
}
