{
  "geometry": {
    "coordinates": [
      [
        [
          0.7854083334375173,
          0.7782515623653308
        ],
        [
          0.8067416837722994,
          0.7782515623653308
        ],
        [
          0.8067416837722994,
          0.7995849127001129
        ],
        [
          0.7854083334375173,
          0.7995849127001129
        ],
        [
          0.7854083334375173,
          0.7782515623653308
        ]
      ]
    ],
    "type": "Polygon"
  },
  "id": "CHG_heavy_cloud_0070",
  "properties": {
    "feature_type": "reference_change",
    "stratum": "heavy_cloud",
    "tile_id": "AUD_heavy_cloud_010"
  },
  "type": "Feature"
}
