{
  "geometry": {
    "coordinates": [
      [
        [
          0.7681126082409173,
          0.3627298686606809
        ],
        [
          0.7825678841774352,
          0.3627298686606809
        ],
        [
          0.7825678841774352,
          0.37718514459719876
        ],
        [
          0.7681126082409173,
          0.37718514459719876
        ],
        [
          0.7681126082409173,
          0.3627298686606809
        ]
      ]
    ],
    "type": "Polygon"
  },
  "id": "CHG_heavy_cloud_0086",
  "properties": {
    "feature_type": "reference_change",
    "stratum": "heavy_cloud",
    "tile_id": "AUD_heavy_cloud_026"
  },
  "type": "Feature"
}
