{
  "geometry": {
    "coordinates": [
      [
        [
          0.755794945829548,
          0.415053614238277
        ],
        [
          0.772116237255279,
          0.415053614238277
        ],
        [
          0.772116237255279,
          0.43137490566400805
        ],
        [
          0.755794945829548,
          0.43137490566400805
        ],
        [
          0.755794945829548,
          0.415053614238277
        ]
      ]
    ],
    "type": "Polygon"
  },
  "id": "CHG_clear_regular_0085",
  "properties": {
    "feature_type": "reference_change",
    "stratum": "clear_regular",
    "tile_id": "AUD_clear_regular_025"
  },
  "type": "Feature"
}
