{
  "geometry": {
    "coordinates": [
      [
        [
          0.7315091126319021,
          0.7828854063851759
        ],
        [
          0.7606001770314761,
          0.7828854063851759
        ],
        [
          0.7606001770314761,
          0.8119764707847499
        ],
        [
          0.7315091126319021,
          0.8119764707847499
        ],
        [
          0.7315091126319021,
          0.7828854063851759
        ]
      ]
    ],
    "type": "Polygon"
  },
  "id": "CHG_heavy_cloud_0181",
  "properties": {
    "feature_type": "reference_change",
    "stratum": "heavy_cloud",
    "tile_id": "AUD_heavy_cloud_001"
  },
  "type": "Feature"
}
