{
  "geometry": {
    "coordinates": [
      [
        [
          0.14142075588461012,
          0.6950913349771872
        ],
        [
          0.16346040625986644,
          0.6950913349771872
        ],
        [
          0.16346040625986644,
          0.7171309853524436
        ],
        [
          0.14142075588461012,
          0.7171309853524436
        ],
        [
          0.14142075588461012,
          0.6950913349771872
        ]
      ]
    ],
    "type": "Polygon"
  },
  "id": "CHG_clear_regular_0038",
  "properties": {
    "feature_type": "reference_change",
    "stratum": "clear_regular",
    "tile_id": "AUD_clear_regular_038"
  },
  "type": "Feature"
}
