{
  "geometry": {
    "coordinates": [
      [
        [
          0.49596692390274255,
          0.40581949891522523
        ],
        [
          0.5080831575002521,
          0.40581949891522523
        ],
        [
          0.5080831575002521,
          0.4179357325127348
        ],
        [
          0.49596692390274255,
          0.4179357325127348
        ],
        [
          0.49596692390274255,
          0.40581949891522523
        ]
      ]
    ],
    "type": "Polygon"
  },
  "id": "CHG_heavy_cloud_0058",
  "properties": {
    "feature_type": "reference_change",
    "stratum": "heavy_cloud",
    "tile_id": "AUD_heavy_cloud_058"
  },
  "type": "Feature"
}
