{
  "geometry": {
    "coordinates": [
      [
        [
          0.7881250152690336,
          0.07022632193285971
        ],
        [
          0.8069442390911281,
          0.07022632193285971
        ],
        [
          0.8069442390911281,
          0.08904554575495421
        ],
        [
          0.7881250152690336,
          0.08904554575495421
        ],
        [
          0.7881250152690336,
          0.07022632193285971
        ]
      ]
    ],
    "type": "Polygon"
  },
  "id": "CHG_clear_regular_0021",
  "properties": {
    "feature_type": "reference_change",
    "stratum": "clear_regular",
    "tile_id": "AUD_clear_regular_021"
  },
  "type": "Feature"
}
