{
  "geometry": {
    "coordinates": [
      [
        [
          0.21917296878062187,
          0.10413502806331962
        ],
        [
          0.2486657797025982,
          0.10413502806331962
        ],
        [
          0.2486657797025982,
          0.13362783898529595
        ],
        [
          0.21917296878062187,
          0.13362783898529595
        ],
        [
          0.21917296878062187,
          0.10413502806331962
        ]
      ]
    ],
    "type": "Polygon"
  },
  "id": "CHG_texture_complex_0101",
  "properties": {
    "feature_type": "reference_change",
    "stratum": "texture_complex",
    "tile_id": "AUD_texture_complex_041"
  },
  "type": "Feature"
}
