{
  "geometry": {
    "coordinates": [
      [
        [
          0.21172421038150785,
          0.11969372553750872
        ],
        [
          0.23498238615272565,
          0.11969372553750872
        ],
        [
          0.23498238615272565,
          0.1429519013087265
        ],
        [
          0.21172421038150785,
          0.1429519013087265
        ],
        [
          0.21172421038150785,
          0.11969372553750872
        ]
      ]
    ],
    "type": "Polygon"
  },
  "id": "CHG_heavy_cloud_0150",
  "properties": {
    "feature_type": "reference_change",
    "stratum": "heavy_cloud",
    "tile_id": "AUD_heavy_cloud_030"
  },
  "type": "Feature"
}
