{
  "geometry": {
    "coordinates": [
      [
        [
          0.3203453616797924,
          0.12627204893156885
        ],
        [
          0.34894303834694435,
          0.12627204893156885
        ],
        [
          0.34894303834694435,
          0.1548697255987208
        ],
        [
          0.3203453616797924,
          0.1548697255987208
        ],
        [
          0.3203453616797924,
          0.12627204893156885
        ]
      ]
    ],
    "type": "Polygon"
  },
  "id": "CHG_heavy_cloud_0105",
  "properties": {
    "feature_type": "reference_change",
    "stratum": "heavy_cloud",
    "tile_id": "AUD_heavy_cloud_045"
  },
  "type": "Feature"
}
