{
  "geometry": {
    "coordinates": [
      [
        [
          0.24928704609163105,
          0.14664764331188052
        ],
        [
          0.2753332529873587,
          0.14664764331188052
        ],
        [
          0.2753332529873587,
          0.1726938502076082
        ],
        [
          0.24928704609163105,
          0.1726938502076082
        ],
        [
          0.24928704609163105,
          0.14664764331188052
        ]
      ]
    ],
    "type": "Polygon"
  },
  "id": "CHG_heavy_cloud_0127",
  "properties": {
    "feature_type": "reference_change",
    "stratum": "heavy_cloud",
    "tile_id": "AUD_heavy_cloud_007"
  },
  "type": "Feature"
}
