{
  "geometry": {
    "coordinates": [
      [
        [
          0.5495636315178126,
          0.7818423401145265
        ],
        [
          0.5771873110013548,
          0.7818423401145265
        ],
        [
          0.5771873110013548,
          0.8094660195980687
        ],
        [
          0.5495636315178126,
          0.8094660195980687
        ],
        [
          0.5495636315178126,
          0.7818423401145265
        ]
      ]
    ],
    "type": "Polygon"
  },
  "id": "CHG_heavy_cloud_0126",
  "properties": {
    "feature_type": "reference_change",
    "stratum": "heavy_cloud",
    "tile_id": "AUD_heavy_cloud_006"
  },
  "type": "Feature"
}
