{
  "geometry": {
    "coordinates": [
      [
        [
          0.13324014048092067,
          0.13193342702463268
        ],
        [
          0.16925044466205874,
          0.13193342702463268
        ],
        [
          0.16925044466205874,
          0.16794373120577072
        ],
        [
          0.13324014048092067,
          0.16794373120577072
        ],
        [
          0.13324014048092067,
          0.13193342702463268
        ]
      ]
    ],
    "type": "Polygon"
  },
  "id": "CHG_heavy_cloud_0089",
  "properties": {
    "feature_type": "reference_change",
    "stratum": "heavy_cloud",
    "tile_id": "AUD_heavy_cloud_029"
  },
  "type": "Feature"
}
