{
  "geometry": {
    "coordinates": [
      [
        [
          0.7244562519108877,
          0.13688672924879938
        ],
        [
          0.7410221051929985,
          0.13688672924879938
        ],
        [
          0.7410221051929985,
          0.15345258253091015
        ],
        [
          0.7244562519108877,
          0.15345258253091015
        ],
        [
          0.7244562519108877,
          0.13688672924879938
        ]
      ]
    ],
    "type": "Polygon"
  },
  "id": "CHG_clear_regular_0091",
  "properties": {
    "feature_type": "reference_change",
    "stratum": "clear_regular",
    "tile_id": "AUD_clear_regular_031"
  },
  "type": "Feature"
}
