{
  "geometry": {
    "coordinates": [
      [
        [
          0.7519917595433071,
          0.7086505525186658
        ],
        [
          0.7811333153110462,
          0.7086505525186658
        ],
        [
          0.7811333153110462,
          0.737792108286405
        ],
        [
          0.7519917595433071,
          0.737792108286405
        ],
        [
          0.7519917595433071,
          0.7086505525186658
        ]
      ]
    ],
    "type": "Polygon"
  },
  "id": "CHG_clear_regular_0001",
  "properties": {
    "feature_type": "reference_change",
    "stratum": "clear_regular",
    "tile_id": "AUD_clear_regular_001"
  },
  "type": "Feature"
}
