{
  "geometry": {
    "coordinates": [
      [
        [
          0.2433696799958125,
          0.05634481196291745
        ],
        [
          0.2621522666879464,
          0.05634481196291745
        ],
        [
          0.2621522666879464,
          0.07512739865505137
        ],
        [
          0.2433696799958125,
          0.07512739865505137
        ],
        [
          0.2433696799958125,
          0.05634481196291745
        ]
      ]
    ],
    "type": "Polygon"
  },
  "id": "CHG_clear_regular_0080",
  "properties": {
    "feature_type": "reference_change",
    "stratum": "clear_regular",
    "tile_id": "AUD_clear_regular_020"
  },
  "type": "Feature"
}
