{
  "geometry": {
    "coordinates": [
      [
        [
          0.7736812649155036,
          0.09695435366593301
        ],
        [
          0.810535498532001,
          0.09695435366593301
        ],
        [
          0.810535498532001,
          0.1338085872824304
        ],
        [
          0.7736812649155036,
          0.1338085872824304
        ],
        [
          0.7736812649155036,
          0.09695435366593301
        ]
      ]
    ],
    "type": "Polygon"
  },
  "id": "CHG_clear_regular_0145",
  "properties": {
    "feature_type": "reference_change",
    "stratum": "clear_regular",
    "tile_id": "AUD_clear_regular_025"
  },
  "type": "Feature"
}
