{
  "geometry": {
    "coordinates": [
      [
        [
          0.8031110035814345,
          0.7434929788531736
        ],
        [
          0.8328591576293111,
          0.7434929788531736
        ],
        [
          0.8328591576293111,
          0.7732411329010501
        ],
        [
          0.8031110035814345,
          0.7732411329010501
        ],
        [
          0.8031110035814345,
          0.7434929788531736
        ]
      ]
    ],
    "type": "Polygon"
  },
  "id": "CHG_heavy_cloud_0147",
  "properties": {
    "feature_type": "reference_change",
    "stratum": "heavy_cloud",
    "tile_id": "AUD_heavy_cloud_027"
  },
  "type": "Feature"
}
