{
  "geometry": {
    "coordinates": [
      [
        [
          0.15737090963870287,
          0.7183273641066625
        ],
        [
          0.18661593718384392,
          0.7183273641066625
        ],
        [
          0.18661593718384392,
          0.7475723916518036
        ],
        [
          0.15737090963870287,
          0.7475723916518036
        ],
        [
          0.15737090963870287,
          0.7183273641066625
        ]
      ]
    ],
    "type": "Polygon"
  },
  "id": "CHG_clear_regular_0090",
  "properties": {
    "feature_type": "reference_change",
    "stratum": "clear_regular",
    "tile_id": "AUD_clear_regular_030"
  },
  "type": "Feature"
}
