{
  "geometry": {
    "coordinates": [
      [
        [
          0.7015371067961678,
          0.86244546843227
        ],
        [
          0.7238724286137148,
          0.86244546843227
        ],
        [
          0.7238724286137148,
          0.884780790249817
        ],
        [
          0.7015371067961678,
          0.884780790249817
        ],
        [
          0.7015371067961678,
          0.86244546843227
        ]
      ]
    ],
    "type": "Polygon"
  },
  "id": "CHG_clear_regular_0155",
  "properties": {
    "feature_type": "reference_change",
    "stratum": "clear_regular",
    "tile_id": "AUD_clear_regular_035"
  },
  "type": "Feature"
}
