{
  "geometry": {
    "coordinates": [
      [
        [
          0.690585184735246,
          0.6297466161288321
        ],
        [
          0.7268141110234428,
          0.6297466161288321
        ],
        [
          0.7268141110234428,
          0.6659755424170289
        ],
        [
          0.690585184735246,
          0.6659755424170289
        ],
        [
          0.690585184735246,
          0.6297466161288321
        ]
      ]
    ],
    "type": "Polygon"
  },
  "id": "CHG_clear_regular_0010",
  "properties": {
    "feature_type": "reference_change",
    "stratum": "clear_regular",
    "tile_id": "AUD_clear_regular_010"
  },
  "type": "Feature"
}
