{
  "geometry": {
    "coordinates": [
      [
        [
          0.7207254033489153,
          0.5265387202985584
        ],
        [
          0.7499565399151762,
          0.5265387202985584
        ],
        [
          0.7499565399151762,
          0.5557698568648193
        ],
        [
          0.7207254033489153,
          0.5557698568648193
        ],
        [
          0.7207254033489153,
          0.5265387202985584
        ]
      ]
    ],
    "type": "Polygon"
  },
  "id": "CHG_heavy_cloud_0157",
  "properties": {
    "feature_type": "reference_change",
    "stratum": "heavy_cloud",
    "tile_id": "AUD_heavy_cloud_037"
  },
  "type": "Feature"
}
