{
  "geometry": {
    "coordinates": [
      [
        [
          0.43843128068838266,
          0.5713554421672598
        ],
        [
          0.4634879276975989,
          0.5713554421672598
        ],
        [
          0.4634879276975989,
          0.596412089176476
        ],
        [
          0.43843128068838266,
          0.596412089176476
        ],
        [
          0.43843128068838266,
          0.5713554421672598
        ]
      ]
    ],
    "type": "Polygon"
  },
  "id": "CHG_clear_regular_0003",
  "properties": {
    "feature_type": "reference_change",
    "stratum": "clear_regular",
    "tile_id": "AUD_clear_regular_003"
  },
  "type": "Feature"
}
