{
  "geometry": {
    "coordinates": [
      [
        [
          0.35158501029945904,
          0.7299386590113863
        ],
        [
          0.3773952801891136,
          0.7299386590113863
        ],
        [
          0.3773952801891136,
          0.755748928901041
        ],
        [
          0.35158501029945904,
          0.755748928901041
        ],
        [
          0.35158501029945904,
          0.7299386590113863
        ]
      ]
    ],
    "type": "Polygon"
  },
  "id": "CHG_heavy_cloud_0004",
  "properties": {
    "feature_type": "reference_change",
    "stratum": "heavy_cloud",
    "tile_id": "AUD_heavy_cloud_004"
  },
  "type": "Feature"
}
