{
  "geometry": {
    "coordinates": [
      [
        [
          0.5274581643752754,
          0.09227693285327404
        ],
        [
          0.5502999887631741,
          0.09227693285327404
        ],
        [
          0.5502999887631741,
          0.11511875724117271
        ],
        [
          0.5274581643752754,
          0.11511875724117271
        ],
        [
          0.5274581643752754,
          0.09227693285327404
        ]
      ]
    ],
    "type": "Polygon"
  },
  "id": "CHG_clear_regular_0073",
  "properties": {
    "feature_type": "reference_change",
    "stratum": "clear_regular",
    "tile_id": "AUD_clear_regular_013"
  },
  "type": "Feature"
}
