{
  "geometry": {
    "coordinates": [
      [
        [
          0.4052666612062603,
          0.19604186799377205
        ],
        [
          0.43440813151351176,
          0.19604186799377205
        ],
        [
          0.43440813151351176,
          0.2251833383010235
        ],
        [
          0.4052666612062603,
          0.2251833383010235
        ],
        [
          0.4052666612062603,
          0.19604186799377205
        ]
      ]
    ],
    "type": "Polygon"
  },
  "id": "CHG_clear_regular_0012",
  "properties": {
    "feature_type": "reference_change",
    "stratum": "clear_regular",
    "tile_id": "AUD_clear_regular_012"
  },
  "type": "Feature"
}
