{
  "geometry": {
    "coordinates": [
      [
        [
          0.11477176626212895,
          0.8455409656371922
        ],
        [
          0.14714419114799238,
          0.8455409656371922
        ],
        [
          0.14714419114799238,
          0.8779133905230556
        ],
        [
          0.11477176626212895,
          0.8779133905230556
        ],
        [
          0.11477176626212895,
          0.8455409656371922
        ]
      ]
    ],
    "type": "Polygon"
  },
  "id": "CHG_clear_regular_0136",
  "properties": {
    "feature_type": "reference_change",
    "stratum": "clear_regular",
    "tile_id": "AUD_clear_regular_016"
  },
  "type": "Feature"
}
