{
  "geometry": {
    "coordinates": [
      [
        [
          0.4707362073427066,
          0.15327176925726235
        ],
        [
          0.49170584631664677,
          0.15327176925726235
        ],
        [
          0.49170584631664677,
          0.17424140823120252
        ],
        [
          0.4707362073427066,
          0.17424140823120252
        ],
        [
          0.4707362073427066,
          0.15327176925726235
        ]
      ]
    ],
    "type": "Polygon"
  },
  "id": "CHG_informal_small_roofs_0026",
  "properties": {
    "feature_type": "reference_change",
    "stratum": "informal_small_roofs",
    "tile_id": "AUD_informal_small_roofs_026"
  },
  "type": "Feature"
}
