{
  "geometry": {
    "coordinates": [
      [
        [
          0.23255715708713975,
          0.6595103860087693
        ],
        [
          0.24567512637982142,
          0.6595103860087693
        ],
        [
          0.24567512637982142,
          0.6726283553014509
        ],
        [
          0.23255715708713975,
          0.6726283553014509
        ],
        [
          0.23255715708713975,
          0.6595103860087693
        ]
      ]
    ],
    "type": "Polygon"
  },
  "id": "CHG_heavy_cloud_0155",
  "properties": {
    "feature_type": "reference_change",
    "stratum": "heavy_cloud",
    "tile_id": "AUD_heavy_cloud_035"
  },
  "type": "Feature"
}
