{
  "geometry": {
    "coordinates": [
      [
        [
          0.7054551749071106,
          0.5384684094041586
        ],
        [
          0.7247744561631698,
          0.5384684094041586
        ],
        [
          0.7247744561631698,
          0.5577876906602178
        ],
        [
          0.7054551749071106,
          0.5577876906602178
        ],
        [
          0.7054551749071106,
          0.5384684094041586
        ]
      ]
    ],
    "type": "Polygon"
  },
  "id": "CHG_heavy_cloud_0019",
  "properties": {
    "feature_type": "reference_change",
    "stratum": "heavy_cloud",
    "tile_id": "AUD_heavy_cloud_019"
  },
  "type": "Feature"
}
