{
  "geometry": {
    "coordinates": [
      [
        [
          0.8277739963121712,
          0.1707432745816186
        ],
        [
          0.8503565198548604,
          0.1707432745816186
        ],
        [
          0.8503565198548604,
          0.19332579812430775
        ],
        [
          0.8277739963121712,
          0.19332579812430775
        ],
        [
          0.8277739963121712,
          0.1707432745816186
        ]
      ]
    ],
    "type": "Polygon"
  },
  "id": "CHG_clear_regular_0127",
  "properties": {
    "feature_type": "reference_change",
    "stratum": "clear_regular",
    "tile_id": "AUD_clear_regular_007"
  },
  "type": "Feature"
}
