{
  "geometry": {
    "coordinates": [
      [
        [
          0.6630476829316467,
          0.21082629648037254
        ],
        [
          0.6937020219936967,
          0.21082629648037254
        ],
        [
          0.6937020219936967,
          0.24148063554242252
        ],
        [
          0.6630476829316467,
          0.24148063554242252
        ],
        [
          0.6630476829316467,
          0.21082629648037254
        ]
      ]
    ],
    "type": "Polygon"
  },
  "id": "CHG_clear_regular_0078",
  "properties": {
    "feature_type": "reference_change",
    "stratum": "clear_regular",
    "tile_id": "AUD_clear_regular_018"
  },
  "type": "Feature"
}
