{
  "geometry": {
    "coordinates": [
      [
        [
          0.46196375820785757,
          0.466525486735627
        ],
        [
          0.49087297752662556,
          0.466525486735627
        ],
        [
          0.49087297752662556,
          0.495434706054395
        ],
        [
          0.46196375820785757,
          0.495434706054395
        ],
        [
          0.46196375820785757,
          0.466525486735627
        ]
      ]
    ],
    "type": "Polygon"
  },
  "id": "CHG_heavy_cloud_0191",
  "properties": {
    "feature_type": "reference_change",
    "stratum": "heavy_cloud",
    "tile_id": "AUD_heavy_cloud_011"
  },
  "type": "Feature"
}
