{
  "geometry": {
    "coordinates": [
      [
        [
          0.45612327299546446,
          0.6020312130637467
        ],
        [
          0.4854410473518073,
          0.6020312130637467
        ],
        [
          0.4854410473518073,
          0.6313489874200896
        ],
        [
          0.45612327299546446,
          0.6313489874200896
        ],
        [
          0.45612327299546446,
          0.6020312130637467
        ]
      ]
    ],
    "type": "Polygon"
  },
  "id": "CHG_clear_regular_0008",
  "properties": {
    "feature_type": "reference_change",
    "stratum": "clear_regular",
    "tile_id": "AUD_clear_regular_008"
  },
  "type": "Feature"
}
