{
  "geometry": {
    "coordinates": [
      [
        [
          0.0678658189298585,
          0.46226798205170777
        ],
        [
          0.09631255755014717,
          0.46226798205170777
        ],
        [
          0.09631255755014717,
          0.49071472067199645
        ],
        [
          0.0678658189298585,
          0.49071472067199645
        ],
        [
          0.0678658189298585,
          0.46226798205170777
        ]
      ]
    ],
    "type": "Polygon"
  },
  "id": "CHG_texture_complex_0163",
  "properties": {
    "feature_type": "reference_change",
    "stratum": "texture_complex",
    "tile_id": "AUD_texture_complex_043"
  },
  "type": "Feature"
}
