{
  "geometry": {
    "coordinates": [
      [
        [
          0.7334846199350432,
          0.48244683411903677
        ],
        [
          0.7500227309279144,
          0.48244683411903677
        ],
        [
          0.7500227309279144,
          0.498984945111908
        ],
        [
          0.7334846199350432,
          0.498984945111908
        ],
        [
          0.7334846199350432,
          0.48244683411903677
        ]
      ]
    ],
    "type": "Polygon"
  },
  "id": "CHG_heavy_cloud_0176",
  "properties": {
    "feature_type": "reference_change",
    "stratum": "heavy_cloud",
    "tile_id": "AUD_heavy_cloud_056"
  },
  "type": "Feature"
}
