{
  "geometry": {
    "coordinates": [
      [
        [
          0.10240651866886766,
          0.2628627174068242
        ],
        [
          0.12522936624754222,
          0.2628627174068242
        ],
        [
          0.12522936624754222,
          0.28568556498549874
        ],
        [
          0.10240651866886766,
          0.28568556498549874
        ],
        [
          0.10240651866886766,
          0.2628627174068242
        ]
      ]
    ],
    "type": "Polygon"
  },
  "id": "CHG_heavy_cloud_0193",
  "properties": {
    "feature_type": "reference_change",
    "stratum": "heavy_cloud",
    "tile_id": "AUD_heavy_cloud_013"
  },
  "type": "Feature"
}
