{
  "geometry": {
    "coordinates": [
      [
        [
          0.12074373885523527,
          0.39479478263761847
        ],
        [
          0.1418131326632574,
          0.39479478263761847
        ],
        [
          0.1418131326632574,
          0.4158641764456406
        ],
        [
          0.12074373885523527,
          0.4158641764456406
        ],
        [
          0.12074373885523527,
          0.39479478263761847
        ]
      ]
    ],
    "type": "Polygon"
  },
  "id": "CHG_heavy_cloud_0106",
  "properties": {
    "feature_type": "reference_change",
    "stratum": "heavy_cloud",
    "tile_id": "AUD_heavy_cloud_046"
  },
  "type": "Feature"
}
