{
  "geometry": {
    "coordinates": [
      [
        [
          0.3980477613443508,
          0.7056117067486047
        ],
        [
          0.42873771503730673,
          0.7056117067486047
        ],
        [
          0.42873771503730673,
          0.7363016604415606
        ],
        [
          0.3980477613443508,
          0.7363016604415606
        ],
        [
          0.3980477613443508,
          0.7056117067486047
        ]
      ]
    ],
    "type": "Polygon"
  },
  "id": "CHG_clear_regular_0114",
  "properties": {
    "feature_type": "reference_change",
    "stratum": "clear_regular",
    "tile_id": "AUD_clear_regular_054"
  },
  "type": "Feature"
}
