{
  "geometry": {
    "coordinates": [
      [
        [
          0.5092593969451263,
          0.7190560216549784
        ],
        [
          0.526813878488494,
          0.7190560216549784
        ],
        [
          0.526813878488494,
          0.7366105031983461
        ],
        [
          0.5092593969451263,
          0.7366105031983461
        ],
        [
          0.5092593969451263,
          0.7190560216549784
        ]
      ]
    ],
    "type": "Polygon"
  },
  "id": "CHG_clear_regular_0118",
  "properties": {
    "feature_type": "reference_change",
    "stratum": "clear_regular",
    "tile_id": "AUD_clear_regular_058"
  },
  "type": "Feature"
}
