{
  "geometry": {
    "coordinates": [
      [
        [
          0.05733782291412354,
          0.5106016980996355
        ],
        [
          0.08851935869129375,
          0.5106016980996355
        ],
        [
          0.08851935869129375,
          0.5417832338768057
        ],
        [
          0.05733782291412354,
          0.5417832338768057
        ],
        [
          0.05733782291412354,
          0.5106016980996355
        ]
      ]
    ],
    "type": "Polygon"
  },
  "id": "CHG_heavy_cloud_0166",
  "properties": {
    "feature_type": "reference_change",
    "stratum": "heavy_cloud",
    "tile_id": "AUD_heavy_cloud_046"
  },
  "type": "Feature"
}
