{
  "geometry": {
    "coordinates": [
      [
        [
          0.4087215548520907,
          0.31318511183373626
        ],
        [
          0.43937054898985656,
          0.31318511183373626
        ],
        [
          0.43937054898985656,
          0.3438341059715021
        ],
        [
          0.4087215548520907,
          0.3438341059715021
        ],
        [
          0.4087215548520907,
          0.31318511183373626
        ]
      ]
    ],
    "type": "Polygon"
  },
  "id": "CHG_heavy_cloud_0082",
  "properties": {
    "feature_type": "reference_change",
    "stratum": "heavy_cloud",
    "tile_id": "AUD_heavy_cloud_022"
  },
  "type": "Feature"
}
