{
  "geometry": {
    "coordinates": [
      [
        [
          0.7487837355071679,
          0.64818189073354
        ],
        [
          0.7647005273511168,
          0.64818189073354
        ],
        [
          0.7647005273511168,
          0.6640986825774889
        ],
        [
          0.7487837355071679,
          0.6640986825774889
        ],
        [
          0.7487837355071679,
          0.64818189073354
        ]
      ]
    ],
    "type": "Polygon"
  },
  "id": "CHG_heavy_cloud_0000",
  "properties": {
    "feature_type": "reference_change",
    "stratum": "heavy_cloud",
    "tile_id": "AUD_heavy_cloud_000"
  },
  "type": "Feature"
}
