{
  "geometry": {
    "coordinates": [
      [
        [
          0.36277899400331076,
          0.8113131434330717
        ],
        [
          0.3774455396160483,
          0.8113131434330717
        ],
        [
          0.3774455396160483,
          0.8259796890458092
        ],
        [
          0.36277899400331076,
          0.8259796890458092
        ],
        [
          0.36277899400331076,
          0.8113131434330717
        ]
      ]
    ],
    "type": "Polygon"
  },
  "id": "CHG_heavy_cloud_0096",
  "properties": {
    "feature_type": "reference_change",
    "stratum": "heavy_cloud",
    "tile_id": "AUD_heavy_cloud_036"
  },
  "type": "Feature"
}
