{
  "geometry": {
    "coordinates": [
      [
        [
          0.5861838329164312,
          0.4064869977440685
        ],
        [
          0.6086529368062038,
          0.4064869977440685
        ],
        [
          0.6086529368062038,
          0.4289561016338412
        ],
        [
          0.5861838329164312,
          0.4289561016338412
        ],
        [
          0.5861838329164312,
          0.4064869977440685
        ]
      ]
    ],
    "type": "Polygon"
  },
  "id": "CHG_heavy_cloud_0091",
  "properties": {
    "feature_type": "reference_change",
    "stratum": "heavy_cloud",
    "tile_id": "AUD_heavy_cloud_031"
  },
  "type": "Feature"
}
