{
  "geometry": {
    "coordinates": [
      [
        [
          0.8113637480325997,
          0.45547023892402644
        ],
        [
          0.8299646057914942,
          0.45547023892402644
        ],
        [
          0.8299646057914942,
          0.474071096682921
        ],
        [
          0.8113637480325997,
          0.474071096682921
        ],
        [
          0.8113637480325997,
          0.45547023892402644
        ]
      ]
    ],
    "type": "Polygon"
  },
  "id": "CHG_heavy_cloud_0042",
  "properties": {
    "feature_type": "reference_change",
    "stratum": "heavy_cloud",
    "tile_id": "AUD_heavy_cloud_042"
  },
  "type": "Feature"
}
