{
  "geometry": {
    "coordinates": [
      [
        [
          0.12041916587390006,
          0.7091688329307363
        ],
        [
          0.13977919462881983,
          0.7091688329307363
        ],
        [
          0.13977919462881983,
          0.728528861685656
        ],
        [
          0.12041916587390006,
          0.728528861685656
        ],
        [
          0.12041916587390006,
          0.7091688329307363
        ]
      ]
    ],
    "type": "Polygon"
  },
  "id": "CHG_clear_regular_0140",
  "properties": {
    "feature_type": "reference_change",
    "stratum": "clear_regular",
    "tile_id": "AUD_clear_regular_020"
  },
  "type": "Feature"
}
