{
  "geometry": {
    "coordinates": [
      [
        [
          0.552458955575712,
          0.7150706343725324
        ],
        [
          0.5767775963426102,
          0.7150706343725324
        ],
        [
          0.5767775963426102,
          0.7393892751394305
        ],
        [
          0.552458955575712,
          0.7393892751394305
        ],
        [
          0.552458955575712,
          0.7150706343725324
        ]
      ]
    ],
    "type": "Polygon"
  },
  "id": "CHG_clear_regular_0019",
  "properties": {
    "feature_type": "reference_change",
    "stratum": "clear_regular",
    "tile_id": "AUD_clear_regular_019"
  },
  "type": "Feature"
}
