{
  "geometry": {
    "coordinates": [
      [
        [
          0.28762341956142334,
          0.23367106846068053
        ],
        [
          0.3096425382378511,
          0.23367106846068053
        ],
        [
          0.3096425382378511,
          0.2556901871371083
        ],
        [
          0.28762341956142334,
          0.2556901871371083
        ],
        [
          0.28762341956142334,
          0.23367106846068053
        ]
      ]
    ],
    "type": "Polygon"
  },
  "id": "CHG_heavy_cloud_0165",
  "properties": {
    "feature_type": "reference_change",
    "stratum": "heavy_cloud",
    "tile_id": "AUD_heavy_cloud_045"
  },
  "type": "Feature"
}
