{
  "geometry": {
    "coordinates": [
      [
        [
          0.8493691780557856,
          0.4358962396904826
        ],
        [
          0.8615673368580173,
          0.4358962396904826
        ],
        [
          0.8615673368580173,
          0.4480943984927144
        ],
        [
          0.8493691780557856,
          0.4480943984927144
        ],
        [
          0.8493691780557856,
          0.4358962396904826
        ]
      ]
    ],
    "type": "Polygon"
  },
  "id": "CHG_heavy_cloud_0032",
  "properties": {
    "feature_type": "reference_change",
    "stratum": "heavy_cloud",
    "tile_id": "AUD_heavy_cloud_032"
  },
  "type": "Feature"
}
