{
  "geometry": {
    "coordinates": [
      [
        [
          0.651155716786161,
          0.3783329480420798
        ],
        [
          0.6778891169703565,
          0.3783329480420798
        ],
        [
          0.6778891169703565,
          0.4050663482262753
        ],
        [
          0.651155716786161,
          0.4050663482262753
        ],
        [
          0.651155716786161,
          0.3783329480420798
        ]
      ]
    ],
    "type": "Polygon"
  },
  "id": "CHG_heavy_cloud_0187",
  "properties": {
    "feature_type": "reference_change",
    "stratum": "heavy_cloud",
    "tile_id": "AUD_heavy_cloud_007"
  },
  "type": "Feature"
}
