{
  "geometry": {
    "coordinates": [
      [
        [
          0.6479588599177077,
          0.49622039766516535
        ],
        [
          0.6832311316630804,
          0.49622039766516535
        ],
        [
          0.6832311316630804,
          0.531492669410538
        ],
        [
          0.6479588599177077,
          0.531492669410538
        ],
        [
          0.6479588599177077,
          0.49622039766516535
        ]
      ]
    ],
    "type": "Polygon"
  },
  "id": "CHG_heavy_cloud_0143",
  "properties": {
    "feature_type": "reference_change",
    "stratum": "heavy_cloud",
    "tile_id": "AUD_heavy_cloud_023"
  },
  "type": "Feature"
}
