{
  "geometry": {
    "coordinates": [
      [
        [
          0.7640063829673455,
          0.8149931907467544
        ],
        [
          0.7989585742487106,
          0.8149931907467544
        ],
        [
          0.7989585742487106,
          0.8499453820281195
        ],
        [
          0.7640063829673455,
          0.8499453820281195
        ],
        [
          0.7640063829673455,
          0.8149931907467544
        ]
      ]
    ],
    "type": "Polygon"
  },
  "id": "CHG_clear_regular_0015",
  "properties": {
    "feature_type": "reference_change",
    "stratum": "clear_regular",
    "tile_id": "AUD_clear_regular_015"
  },
  "type": "Feature"
}
