{
  "geometry": {
    "coordinates": [
      [
        [
          0.44641641576774416,
          0.7566845815815032
        ],
        [
          0.46974586857762185,
          0.7566845815815032
        ],
        [
          0.46974586857762185,
          0.7800140343913808
        ],
        [
          0.44641641576774416,
          0.7800140343913808
        ],
        [
          0.44641641576774416,
          0.7566845815815032
        ]
      ]
    ],
    "type": "Polygon"
  },
  "id": "CHG_heavy_cloud_0077",
  "properties": {
    "feature_type": "reference_change",
    "stratum": "heavy_cloud",
    "tile_id": "AUD_heavy_cloud_017"
  },
  "type": "Feature"
}
