{
  "geometry": {
    "coordinates": [
      [
        [
          0.7856578306946903,
          0.2774196952534839
        ],
        [
          0.8098475019580218,
          0.2774196952534839
        ],
        [
          0.8098475019580218,
          0.30160936651681547
        ],
        [
          0.7856578306946903,
          0.30160936651681547
        ],
        [
          0.7856578306946903,
          0.2774196952534839
        ]
      ]
    ],
    "type": "Polygon"
  },
  "id": "CHG_heavy_cloud_0001",
  "properties": {
    "feature_type": "reference_change",
    "stratum": "heavy_cloud",
    "tile_id": "AUD_heavy_cloud_001"
  },
  "type": "Feature"
}
