{
  "geometry": {
    "coordinates": [
      [
        [
          0.7453182745678351,
          0.8043922790884972
        ],
        [
          0.7674962103441358,
          0.8043922790884972
        ],
        [
          0.7674962103441358,
          0.826570214864798
        ],
        [
          0.7453182745678351,
          0.826570214864798
        ],
        [
          0.7453182745678351,
          0.8043922790884972
        ]
      ]
    ],
    "type": "Polygon"
  },
  "id": "CHG_heavy_cloud_0048",
  "properties": {
    "feature_type": "reference_change",
    "stratum": "heavy_cloud",
    "tile_id": "AUD_heavy_cloud_048"
  },
  "type": "Feature"
}
