{
  "geometry": {
    "coordinates": [
      [
        [
          0.27764719152357425,
          0.4319433328649029
        ],
        [
          0.2990612681249622,
          0.4319433328649029
        ],
        [
          0.2990612681249622,
          0.45335740946629083
        ],
        [
          0.27764719152357425,
          0.45335740946629083
        ],
        [
          0.27764719152357425,
          0.4319433328649029
        ]
      ]
    ],
    "type": "Polygon"
  },
  "id": "CHG_clear_regular_0128",
  "properties": {
    "feature_type": "reference_change",
    "stratum": "clear_regular",
    "tile_id": "AUD_clear_regular_008"
  },
  "type": "Feature"
}
