{
  "geometry": {
    "coordinates": [
      [
        [
          0.5908442716766149,
          0.8140615632291883
        ],
        [
          0.6120897357077338,
          0.8140615632291883
        ],
        [
          0.6120897357077338,
          0.8353070272603073
        ],
        [
          0.5908442716766149,
          0.8353070272603073
        ],
        [
          0.5908442716766149,
          0.8140615632291883
        ]
      ]
    ],
    "type": "Polygon"
  },
  "id": "CHG_heavy_cloud_0034",
  "properties": {
    "feature_type": "reference_change",
    "stratum": "heavy_cloud",
    "tile_id": "AUD_heavy_cloud_034"
  },
  "type": "Feature"
}
