{
  "geometry": {
    "coordinates": [
      [
        [
          0.47056708463467656,
          0.5279647678602487
        ],
        [
          0.5000668087524828,
          0.5279647678602487
        ],
        [
          0.5000668087524828,
          0.5574644919780549
        ],
        [
          0.47056708463467656,
          0.5574644919780549
        ],
        [
          0.47056708463467656,
          0.5279647678602487
        ]
      ]
    ],
    "type": "Polygon"
  },
  "id": "CHG_heavy_cloud_0040",
  "properties": {
    "feature_type": "reference_change",
    "stratum": "heavy_cloud",
    "tile_id": "AUD_heavy_cloud_040"
  },
  "type": "Feature"
}
