{
  "geometry": {
    "coordinates": [
      [
        [
          0.7437133531924337,
          0.7177936461940407
        ],
        [
          0.7607848928163293,
          0.7177936461940407
        ],
        [
          0.7607848928163293,
          0.7348651858179364
        ],
        [
          0.7437133531924337,
          0.7348651858179364
        ],
        [
          0.7437133531924337,
          0.7177936461940407
        ]
      ]
    ],
    "type": "Polygon"
  },
  "id": "CHG_heavy_cloud_0100",
  "properties": {
    "feature_type": "reference_change",
    "stratum": "heavy_cloud",
    "tile_id": "AUD_heavy_cloud_040"
  },
  "type": "Feature"
}
