{
  "geometry": {
    "coordinates": [
      [
        [
          0.6771899705426767,
          0.6781290531484411
        ],
        [
          0.7019035940261091,
          0.6781290531484411
        ],
        [
          0.7019035940261091,
          0.7028426766318735
        ],
        [
          0.6771899705426767,
          0.7028426766318735
        ],
        [
          0.6771899705426767,
          0.6781290531484411
        ]
      ]
    ],
    "type": "Polygon"
  },
  "id": "CHG_clear_regular_0108",
  "properties": {
    "feature_type": "reference_change",
    "stratum": "clear_regular",
    "tile_id": "AUD_clear_regular_048"
  },
  "type": "Feature"
}
