{
  "geometry": {
    "coordinates": [
      [
        [
          0.1452175424946472,
          0.17095234944485127
        ],
        [
          0.16454455815767868,
          0.17095234944485127
        ],
        [
          0.16454455815767868,
          0.19027936510788276
        ],
        [
          0.1452175424946472,
          0.19027936510788276
        ],
        [
          0.1452175424946472,
          0.17095234944485127
        ]
      ]
    ],
    "type": "Polygon"
  },
  "id": "CHG_clear_regular_0110",
  "properties": {
    "feature_type": "reference_change",
    "stratum": "clear_regular",
    "tile_id": "AUD_clear_regular_050"
  },
  "type": "Feature"
}
