{
  "geometry": {
    "coordinates": [
      [
        [
          0.570514784748666,
          0.20704675520304588
        ],
        [
          0.6048255047718994,
          0.20704675520304588
        ],
        [
          0.6048255047718994,
          0.24135747522627932
        ],
        [
          0.570514784748666,
          0.24135747522627932
        ],
        [
          0.570514784748666,
          0.20704675520304588
        ]
      ]
    ],
    "type": "Polygon"
  },
  "id": "CHG_heavy_cloud_0062",
  "properties": {
    "feature_type": "reference_change",
    "stratum": "heavy_cloud",
    "tile_id": "AUD_heavy_cloud_002"
  },
  "type": "Feature"
}
