{
  "geometry": {
    "coordinates": [
      [
        [
          0.25055954037234185,
          0.5929717233683914
        ],
        [
          0.2798703443962149,
          0.5929717233683914
        ],
        [
          0.2798703443962149,
          0.6222825273922645
        ],
        [
          0.25055954037234185,
          0.6222825273922645
        ],
        [
          0.25055954037234185,
          0.5929717233683914
        ]
      ]
    ],
    "type": "Polygon"
  },
  "id": "CHG_clear_regular_0028",
  "properties": {
    "feature_type": "reference_change",
    "stratum": "clear_regular",
    "tile_id": "AUD_clear_regular_028"
  },
  "type": "Feature"
}
