{
  "geometry": {
    "coordinates": [
      [
        [
          0.8537271162262187,
          0.6864657988864928
        ],
        [
          0.8864606204214506,
          0.6864657988864928
        ],
        [
          0.8864606204214506,
          0.7191993030817248
        ],
        [
          0.8537271162262187,
          0.7191993030817248
        ],
        [
          0.8537271162262187,
          0.6864657988864928
        ]
      ]
    ],
    "type": "Polygon"
  },
  "id": "CHG_heavy_cloud_0024",
  "properties": {
    "feature_type": "reference_change",
    "stratum": "heavy_cloud",
    "tile_id": "AUD_heavy_cloud_024"
  },
  "type": "Feature"
}
