{
  "geometry": {
    "coordinates": [
      [
        [
          0.34405846223235126,
          0.7605137921357528
        ],
        [
          0.37430560611002145,
          0.7605137921357528
        ],
        [
          0.37430560611002145,
          0.7907609360134229
        ],
        [
          0.34405846223235126,
          0.7907609360134229
        ],
        [
          0.34405846223235126,
          0.7605137921357528
        ]
      ]
    ],
    "type": "Polygon"
  },
  "id": "CHG_clear_regular_0074",
  "properties": {
    "feature_type": "reference_change",
    "stratum": "clear_regular",
    "tile_id": "AUD_clear_regular_014"
  },
  "type": "Feature"
}
