{
  "geometry": {
    "coordinates": [
      [
        [
          0.421721211397089,
          0.4854622223647311
        ],
        [
          0.45651730878325175,
          0.4854622223647311
        ],
        [
          0.45651730878325175,
          0.5202583197508938
        ],
        [
          0.421721211397089,
          0.5202583197508938
        ],
        [
          0.421721211397089,
          0.4854622223647311
        ]
      ]
    ],
    "type": "Polygon"
  },
  "id": "CHG_clear_regular_0103",
  "properties": {
    "feature_type": "reference_change",
    "stratum": "clear_regular",
    "tile_id": "AUD_clear_regular_043"
  },
  "type": "Feature"
}
