{
  "geometry": {
    "coordinates": [
      [
        [
          0.06617177824489773,
          0.7846691693086177
        ],
        [
          0.08682973433332518,
          0.7846691693086177
        ],
        [
          0.08682973433332518,
          0.8053271253970452
        ],
        [
          0.06617177824489773,
          0.8053271253970452
        ],
        [
          0.06617177824489773,
          0.7846691693086177
        ]
      ]
    ],
    "type": "Polygon"
  },
  "id": "CHG_heavy_cloud_0160",
  "properties": {
    "feature_type": "reference_change",
    "stratum": "heavy_cloud",
    "tile_id": "AUD_heavy_cloud_040"
  },
  "type": "Feature"
}
