{
  "geometry": {
    "coordinates": [
      [
        [
          0.262630775347352,
          0.2937871059868485
        ],
        [
          0.29600413775001655,
          0.2937871059868485
        ],
        [
          0.29600413775001655,
          0.32716046838951296
        ],
        [
          0.262630775347352,
          0.32716046838951296
        ],
        [
          0.262630775347352,
          0.2937871059868485
        ]
      ]
    ],
    "type": "Polygon"
  },
  "id": "CHG_heavy_cloud_0137",
  "properties": {
    "feature_type": "reference_change",
    "stratum": "heavy_cloud",
    "tile_id": "AUD_heavy_cloud_017"
  },
  "type": "Feature"
}
