{
  "geometry": {
    "coordinates": [
      [
        [
          0.3245589661505073,
          0.6171848182892427
        ],
        [
          0.3538880808842368,
          0.6171848182892427
        ],
        [
          0.3538880808842368,
          0.6465139330229721
        ],
        [
          0.3245589661505073,
          0.6465139330229721
        ],
        [
          0.3245589661505073,
          0.6171848182892427
        ]
      ]
    ],
    "type": "Polygon"
  },
  "id": "CHG_heavy_cloud_0094",
  "properties": {
    "feature_type": "reference_change",
    "stratum": "heavy_cloud",
    "tile_id": "AUD_heavy_cloud_034"
  },
  "type": "Feature"
}
