{
  "geometry": {
    "coordinates": [
      [
        [
          0.7337152215372771,
          0.4972236263332888
        ],
        [
          0.7623583299822639,
          0.4972236263332888
        ],
        [
          0.7623583299822639,
          0.5258667347782757
        ],
        [
          0.7337152215372771,
          0.5258667347782757
        ],
        [
          0.7337152215372771,
          0.4972236263332888
        ]
      ]
    ],
    "type": "Polygon"
  },
  "id": "CHG_clear_regular_0076",
  "properties": {
    "feature_type": "reference_change",
    "stratum": "clear_regular",
    "tile_id": "AUD_clear_regular_016"
  },
  "type": "Feature"
}
