{
  "geometry": {
    "coordinates": [
      [
        [
          0.09731114993337542,
          0.6453355381358415
        ],
        [
          0.12304966635466554,
          0.6453355381358415
        ],
        [
          0.12304966635466554,
          0.6710740545571316
        ],
        [
          0.09731114993337542,
          0.6710740545571316
        ],
        [
          0.09731114993337542,
          0.6453355381358415
        ]
      ]
    ],
    "type": "Polygon"
  },
  "id": "CHG_heavy_cloud_0132",
  "properties": {
    "feature_type": "reference_change",
    "stratum": "heavy_cloud",
    "tile_id": "AUD_heavy_cloud_012"
  },
  "type": "Feature"
}
