{
  "geometry": {
    "coordinates": [
      [
        [
          0.552658834150061,
          0.1548997350037098
        ],
        [
          0.5769012671771925,
          0.1548997350037098
        ],
        [
          0.5769012671771925,
          0.17914216803084126
        ],
        [
          0.552658834150061,
          0.17914216803084126
        ],
        [
          0.552658834150061,
          0.1548997350037098
        ]
      ]
    ],
    "type": "Polygon"
  },
  "id": "CHG_heavy_cloud_0113",
  "properties": {
    "feature_type": "reference_change",
    "stratum": "heavy_cloud",
    "tile_id": "AUD_heavy_cloud_053"
  },
  "type": "Feature"
}
