{
  "geometry": {
    "coordinates": [
      [
        [
          0.7331388663547114,
          0.40447110756766047
        ],
        [
          0.747409270953387,
          0.40447110756766047
        ],
        [
          0.747409270953387,
          0.41874151216633615
        ],
        [
          0.7331388663547114,
          0.41874151216633615
        ],
        [
          0.7331388663547114,
          0.40447110756766047
        ]
      ]
    ],
    "type": "Polygon"
  },
  "id": "CHG_clear_regular_0030",
  "properties": {
    "feature_type": "reference_change",
    "stratum": "clear_regular",
    "tile_id": "AUD_clear_regular_030"
  },
  "type": "Feature"
}
