{
  "geometry": {
    "coordinates": [
      [
        [
          0.1747976636234671,
          0.593991044969298
        ],
        [
          0.18681875470373782,
          0.593991044969298
        ],
        [
          0.18681875470373782,
          0.6060121360495687
        ],
        [
          0.1747976636234671,
          0.6060121360495687
        ],
        [
          0.1747976636234671,
          0.593991044969298
        ]
      ]
    ],
    "type": "Polygon"
  },
  "id": "CHG_clear_regular_0017",
  "properties": {
    "feature_type": "reference_change",
    "stratum": "clear_regular",
    "tile_id": "AUD_clear_regular_017"
  },
  "type": "Feature"
}
