{
  "geometry": {
    "coordinates": [
      [
        [
          0.45306418328545983,
          0.1671917351335287
        ],
        [
          0.4740544314326252,
          0.1671917351335287
        ],
        [
          0.4740544314326252,
          0.1881819832806941
        ],
        [
          0.45306418328545983,
          0.1881819832806941
        ],
        [
          0.45306418328545983,
          0.1671917351335287
        ]
      ]
    ],
    "type": "Polygon"
  },
  "id": "CHG_heavy_cloud_0146",
  "properties": {
    "feature_type": "reference_change",
    "stratum": "heavy_cloud",
    "tile_id": "AUD_heavy_cloud_026"
  },
  "type": "Feature"
}
