{
  "geometry": {
    "coordinates": [
      [
        [
          0.40088268120307474,
          0.6081034748069942
        ],
        [
          0.43162011256255206,
          0.6081034748069942
        ],
        [
          0.43162011256255206,
          0.6388409061664716
        ],
        [
          0.40088268120307474,
          0.6388409061664716
        ],
        [
          0.40088268120307474,
          0.6081034748069942
        ]
      ]
    ],
    "type": "Polygon"
  },
  "id": "CHG_heavy_cloud_0192",
  "properties": {
    "feature_type": "reference_change",
    "stratum": "heavy_cloud",
    "tile_id": "AUD_heavy_cloud_012"
  },
  "type": "Feature"
}
