{
  "geometry": {
    "coordinates": [
      [
        [
          0.2756746394885704,
          0.11872041134629399
        ],
        [
          0.30411403452558444,
          0.11872041134629399
        ],
        [
          0.30411403452558444,
          0.14715980638330803
        ],
        [
          0.2756746394885704,
          0.14715980638330803
        ],
        [
          0.2756746394885704,
          0.11872041134629399
        ]
      ]
    ],
    "type": "Polygon"
  },
  "id": "CHG_heavy_cloud_0047",
  "properties": {
    "feature_type": "reference_change",
    "stratum": "heavy_cloud",
    "tile_id": "AUD_heavy_cloud_047"
  },
  "type": "Feature"
}
