{
  "geometry": {
    "coordinates": [
      [
        [
          0.23096013259142634,
          0.2045139655470848
        ],
        [
          0.25296449707518326,
          0.2045139655470848
        ],
        [
          0.25296449707518326,
          0.22651833003084174
        ],
        [
          0.23096013259142634,
          0.22651833003084174
        ],
        [
          0.23096013259142634,
          0.2045139655470848
        ]
      ]
    ],
    "type": "Polygon"
  },
  "id": "CHG_clear_regular_0104",
  "properties": {
    "feature_type": "reference_change",
    "stratum": "clear_regular",
    "tile_id": "AUD_clear_regular_044"
  },
  "type": "Feature"
}
