{
  "geometry": {
    "coordinates": [
      [
        [
          0.5445280548883602,
          0.38174702389631415
        ],
        [
          0.5582123379169498,
          0.38174702389631415
        ],
        [
          0.5582123379169498,
          0.3954313069249037
        ],
        [
          0.5445280548883602,
          0.3954313069249037
        ],
        [
          0.5445280548883602,
          0.38174702389631415
        ]
      ]
    ],
    "type": "Polygon"
  },
  "id": "CHG_clear_regular_0033",
  "properties": {
    "feature_type": "reference_change",
    "stratum": "clear_regular",
    "tile_id": "AUD_clear_regular_033"
  },
  "type": "Feature"
}
