{
  "geometry": {
    "coordinates": [
      [
        [
          0.3187557176221162,
          0.4265659984434023
        ],
        [
          0.3320497484009247,
          0.4265659984434023
        ],
        [
          0.3320497484009247,
          0.43986002922221085
        ],
        [
          0.3187557176221162,
          0.43986002922221085
        ],
        [
          0.3187557176221162,
          0.4265659984434023
        ]
      ]
    ],
    "type": "Polygon"
  },
  "id": "CHG_clear_regular_0111",
  "properties": {
    "feature_type": "reference_change",
    "stratum": "clear_regular",
    "tile_id": "AUD_clear_regular_051"
  },
  "type": "Feature"
}
