{
  "geometry": {
    "coordinates": [
      [
        [
          0.14019263816531746,
          0.24643147066701204
        ],
        [
          0.15752473624586127,
          0.24643147066701204
        ],
        [
          0.15752473624586127,
          0.26376356874755585
        ],
        [
          0.14019263816531746,
          0.26376356874755585
        ],
        [
          0.14019263816531746,
          0.24643147066701204
        ]
      ]
    ],
    "type": "Polygon"
  },
  "id": "CHG_texture_complex_0091",
  "properties": {
    "feature_type": "reference_change",
    "stratum": "texture_complex",
    "tile_id": "AUD_texture_complex_031"
  },
  "type": "Feature"
}
