{
  "geometry": {
    "coordinates": [
      [
        [
          0.6760102793946863,
          0.4045384322758764
        ],
        [
          0.6939002661004198,
          0.4045384322758764
        ],
        [
          0.6939002661004198,
          0.4224284189816098
        ],
        [
          0.6760102793946863,
          0.4224284189816098
        ],
        [
          0.6760102793946863,
          0.4045384322758764
        ]
      ]
    ],
    "type": "Polygon"
  },
  "id": "CHG_heavy_cloud_0177",
  "properties": {
    "feature_type": "reference_change",
    "stratum": "heavy_cloud",
    "tile_id": "AUD_heavy_cloud_057"
  },
  "type": "Feature"
}
