{
  "geometry": {
    "coordinates": [
      [
        [
          0.20238670744933185,
          0.5798485469631851
        ],
        [
          0.22386236313427796,
          0.5798485469631851
        ],
        [
          0.22386236313427796,
          0.6013242026481312
        ],
        [
          0.20238670744933185,
          0.6013242026481312
        ],
        [
          0.20238670744933185,
          0.5798485469631851
        ]
      ]
    ],
    "type": "Polygon"
  },
  "id": "CHG_clear_regular_0121",
  "properties": {
    "feature_type": "reference_change",
    "stratum": "clear_regular",
    "tile_id": "AUD_clear_regular_001"
  },
  "type": "Feature"
}
