{
  "geometry": {
    "coordinates": [
      [
        [
          0.4614437425136566,
          0.6150052898051217
        ],
        [
          0.49757291218079625,
          0.6150052898051217
        ],
        [
          0.49757291218079625,
          0.6511344594722613
        ],
        [
          0.4614437425136566,
          0.6511344594722613
        ],
        [
          0.4614437425136566,
          0.6150052898051217
        ]
      ]
    ],
    "type": "Polygon"
  },
  "id": "CHG_clear_regular_0064",
  "properties": {
    "feature_type": "reference_change",
    "stratum": "clear_regular",
    "tile_id": "AUD_clear_regular_004"
  },
  "type": "Feature"
}
