{
  "geometry": {
    "coordinates": [
      [
        [
          0.7062300743162632,
          0.13010819469578563
        ],
        [
          0.7291134465408977,
          0.13010819469578563
        ],
        [
          0.7291134465408977,
          0.15299156692042015
        ],
        [
          0.7062300743162632,
          0.15299156692042015
        ],
        [
          0.7062300743162632,
          0.13010819469578563
        ]
      ]
    ],
    "type": "Polygon"
  },
  "id": "CHG_heavy_cloud_0180",
  "properties": {
    "feature_type": "reference_change",
    "stratum": "heavy_cloud",
    "tile_id": "AUD_heavy_cloud_000"
  },
  "type": "Feature"
}
