{
  "geometry": {
    "coordinates": [
      [
        [
          0.4258437609998509,
          0.6757289487123489
        ],
        [
          0.451050213759765,
          0.6757289487123489
        ],
        [
          0.451050213759765,
          0.700935401472263
        ],
        [
          0.4258437609998509,
          0.700935401472263
        ],
        [
          0.4258437609998509,
          0.6757289487123489
        ]
      ]
    ],
    "type": "Polygon"
  },
  "id": "CHG_clear_regular_0088",
  "properties": {
    "feature_type": "reference_change",
    "stratum": "clear_regular",
    "tile_id": "AUD_clear_regular_028"
  },
  "type": "Feature"
}
