{
  "geometry": {
    "coordinates": [
      [
        [
          0.4579487193468958,
          0.18861546512227506
        ],
        [
          0.4736051159542985,
          0.18861546512227506
        ],
        [
          0.4736051159542985,
          0.20427186172967776
        ],
        [
          0.4579487193468958,
          0.20427186172967776
        ],
        [
          0.4579487193468958,
          0.18861546512227506
        ]
      ]
    ],
    "type": "Polygon"
  },
  "id": "CHG_heavy_cloud_0038",
  "properties": {
    "feature_type": "reference_change",
    "stratum": "heavy_cloud",
    "tile_id": "AUD_heavy_cloud_038"
  },
  "type": "Feature"
}
