{
  "geometry": {
    "coordinates": [
      [
        [
          0.8664404160901904,
          0.11527451867703348
        ],
        [
          0.8864459978456143,
          0.11527451867703348
        ],
        [
          0.8864459978456143,
          0.1352801004324574
        ],
        [
          0.8664404160901904,
          0.1352801004324574
        ],
        [
          0.8664404160901904,
          0.11527451867703348
        ]
      ]
    ],
    "type": "Polygon"
  },
  "id": "CHG_heavy_cloud_0036",
  "properties": {
    "feature_type": "reference_change",
    "stratum": "heavy_cloud",
    "tile_id": "AUD_heavy_cloud_036"
  },
  "type": "Feature"
}
