{
  "geometry": {
    "coordinates": [
      [
        [
          0.3040701837977394,
          0.1764717078022659
        ],
        [
          0.33431130879954435,
          0.1764717078022659
        ],
        [
          0.33431130879954435,
          0.2067128328040708
        ],
        [
          0.3040701837977394,
          0.2067128328040708
        ],
        [
          0.3040701837977394,
          0.1764717078022659
        ]
      ]
    ],
    "type": "Polygon"
  },
  "id": "CHG_heavy_cloud_0152",
  "properties": {
    "feature_type": "reference_change",
    "stratum": "heavy_cloud",
    "tile_id": "AUD_heavy_cloud_032"
  },
  "type": "Feature"
}
