{
  "geometry": {
    "coordinates": [
      [
        [
          0.541964767682366,
          0.14093970070127398
        ],
        [
          0.5552411822909489,
          0.14093970070127398
        ],
        [
          0.5552411822909489,
          0.15421611530985685
        ],
        [
          0.541964767682366,
          0.15421611530985685
        ],
        [
          0.541964767682366,
          0.14093970070127398
        ]
      ]
    ],
    "type": "Polygon"
  },
  "id": "CHG_heavy_cloud_0063",
  "properties": {
    "feature_type": "reference_change",
    "stratum": "heavy_cloud",
    "tile_id": "AUD_heavy_cloud_003"
  },
  "type": "Feature"
}
