{
  "geometry": {
    "coordinates": [
      [
        [
          0.11151657497044654,
          0.16594822210725396
        ],
        [
          0.12592588594695553,
          0.16594822210725396
        ],
        [
          0.12592588594695553,
          0.18035753308376296
        ],
        [
          0.11151657497044654,
          0.18035753308376296
        ],
        [
          0.11151657497044654,
          0.16594822210725396
        ]
      ]
    ],
    "type": "Polygon"
  },
  "id": "CHG_heavy_cloud_0064",
  "properties": {
    "feature_type": "reference_change",
    "stratum": "heavy_cloud",
    "tile_id": "AUD_heavy_cloud_004"
  },
  "type": "Feature"
}
