{
  "geometry": {
    "coordinates": [
      [
        [
          0.15204544046893714,
          0.05154828366823495
        ],
        [
          0.1855310652980115,
          0.05154828366823495
        ],
        [
          0.1855310652980115,
          0.08503390849730932
        ],
        [
          0.15204544046893714,
          0.08503390849730932
        ],
        [
          0.15204544046893714,
          0.05154828366823495
        ]
      ]
    ],
    "type": "Polygon"
  },
  "id": "CHG_heavy_cloud_0142",
  "properties": {
    "feature_type": "reference_change",
    "stratum": "heavy_cloud",
    "tile_id": "AUD_heavy_cloud_022"
  },
  "type": "Feature"
}
