{
  "geometry": {
    "coordinates": [
      [
        [
          0.6611056784680114,
          0.1768734881421551
        ],
        [
          0.6928175175788347,
          0.1768734881421551
        ],
        [
          0.6928175175788347,
          0.20858532725297843
        ],
        [
          0.6611056784680114,
          0.20858532725297843
        ],
        [
          0.6611056784680114,
          0.1768734881421551
        ]
      ]
    ],
    "type": "Polygon"
  },
  "id": "CHG_clear_regular_0081",
  "properties": {
    "feature_type": "reference_change",
    "stratum": "clear_regular",
    "tile_id": "AUD_clear_regular_021"
  },
  "type": "Feature"
}
