{
  "geometry": {
    "coordinates": [
      [
        [
          0.3560772429639473,
          0.3920371684618294
        ],
        [
          0.3693306160001084,
          0.3920371684618294
        ],
        [
          0.3693306160001084,
          0.4052905414979905
        ],
        [
          0.3560772429639473,
          0.4052905414979905
        ],
        [
          0.3560772429639473,
          0.3920371684618294
        ]
      ]
    ],
    "type": "Polygon"
  },
  "id": "CHG_heavy_cloud_0159",
  "properties": {
    "feature_type": "reference_change",
    "stratum": "heavy_cloud",
    "tile_id": "AUD_heavy_cloud_039"
  },
  "type": "Feature"
}
