{
  "geometry": {
    "coordinates": [
      [
        [
          0.26377715954091396,
          0.19756642169319094
        ],
        [
          0.27709291154448873,
          0.19756642169319094
        ],
        [
          0.27709291154448873,
          0.21088217369676568
        ],
        [
          0.26377715954091396,
          0.21088217369676568
        ],
        [
          0.26377715954091396,
          0.19756642169319094
        ]
      ]
    ],
    "type": "Polygon"
  },
  "id": "CHG_clear_regular_0040",
  "properties": {
    "feature_type": "reference_change",
    "stratum": "clear_regular",
    "tile_id": "AUD_clear_regular_040"
  },
  "type": "Feature"
}
