{
  "geometry": {
    "coordinates": [
      [
        [
          0.5448617917019873,
          0.1750906878430396
        ],
        [
          0.5578208773343358,
          0.1750906878430396
        ],
        [
          0.5578208773343358,
          0.18804977347538804
        ],
        [
          0.5448617917019873,
          0.18804977347538804
        ],
        [
          0.5448617917019873,
          0.1750906878430396
        ]
      ]
    ],
    "type": "Polygon"
  },
  "id": "CHG_clear_regular_0000",
  "properties": {
    "feature_type": "reference_change",
    "stratum": "clear_regular",
    "tile_id": "AUD_clear_regular_000"
  },
  "type": "Feature"
}
