{
  "geometry": {
    "coordinates": [
      [
        [
          0.540394836422056,
          0.07779391804244369
        ],
        [
          0.5536135857079644,
          0.07779391804244369
        ],
        [
          0.5536135857079644,
          0.09101266732835211
        ],
        [
          0.540394836422056,
          0.09101266732835211
        ],
        [
          0.540394836422056,
          0.07779391804244369
        ]
      ]
    ],
    "type": "Polygon"
  },
  "id": "CHG_clear_regular_0152",
  "properties": {
    "feature_type": "reference_change",
    "stratum": "clear_regular",
    "tile_id": "AUD_clear_regular_032"
  },
  "type": "Feature"
}
