{
  "geometry": {
    "coordinates": [
      [
        [
          0.12924854883458464,
          0.11826771367806942
        ],
        [
          0.1476676049355883,
          0.11826771367806942
        ],
        [
          0.1476676049355883,
          0.13668676977907307
        ],
        [
          0.12924854883458464,
          0.13668676977907307
        ],
        [
          0.12924854883458464,
          0.11826771367806942
        ]
      ]
    ],
    "type": "Polygon"
  },
  "id": "CHG_heavy_cloud_0182",
  "properties": {
    "feature_type": "reference_change",
    "stratum": "heavy_cloud",
    "tile_id": "AUD_heavy_cloud_002"
  },
  "type": "Feature"
}
