{
  "geometry": {
    "coordinates": [
      [
        [
          0.48659602237399663,
          0.6445948384283111
        ],
        [
          0.5174648366663605,
          0.6445948384283111
        ],
        [
          0.5174648366663605,
          0.675463652720675
        ],
        [
          0.48659602237399663,
          0.675463652720675
        ],
        [
          0.48659602237399663,
          0.6445948384283111
        ]
      ]
    ],
    "type": "Polygon"
  },
  "id": "CHG_heavy_cloud_0197",
  "properties": {
    "feature_type": "reference_change",
    "stratum": "heavy_cloud",
    "tile_id": "AUD_heavy_cloud_017"
  },
  "type": "Feature"
}
