{
  "geometry": {
    "coordinates": [
      [
        [
          0.30072348801884796,
          0.10382788312621415
        ],
        [
          0.3312500764690339,
          0.10382788312621415
        ],
        [
          0.3312500764690339,
          0.1343544715764001
        ],
        [
          0.30072348801884796,
          0.1343544715764001
        ],
        [
          0.30072348801884796,
          0.10382788312621415
        ]
      ]
    ],
    "type": "Polygon"
  },
  "id": "CHG_heavy_cloud_0130",
  "properties": {
    "feature_type": "reference_change",
    "stratum": "heavy_cloud",
    "tile_id": "AUD_heavy_cloud_010"
  },
  "type": "Feature"
}
