{
  "geometry": {
    "coordinates": [
      [
        [
          0.5108727341238409,
          0.36775562411639834
        ],
        [
          0.5423370278747752,
          0.36775562411639834
        ],
        [
          0.5423370278747752,
          0.39921991786733263
        ],
        [
          0.5108727341238409,
          0.39921991786733263
        ],
        [
          0.5108727341238409,
          0.36775562411639834
        ]
      ]
    ],
    "type": "Polygon"
  },
  "id": "CHG_clear_regular_0115",
  "properties": {
    "feature_type": "reference_change",
    "stratum": "clear_regular",
    "tile_id": "AUD_clear_regular_055"
  },
  "type": "Feature"
}
