{
  "geometry": {
    "coordinates": [
      [
        [
          0.3319228400615975,
          0.8102090026391671
        ],
        [
          0.36384924715082156,
          0.8102090026391671
        ],
        [
          0.36384924715082156,
          0.8421354097283912
        ],
        [
          0.3319228400615975,
          0.8421354097283912
        ],
        [
          0.3319228400615975,
          0.8102090026391671
        ]
      ]
    ],
    "type": "Polygon"
  },
  "id": "CHG_clear_regular_0109",
  "properties": {
    "feature_type": "reference_change",
    "stratum": "clear_regular",
    "tile_id": "AUD_clear_regular_049"
  },
  "type": "Feature"
}
