{
  "geometry": {
    "coordinates": [
      [
        [
          0.09416338003240526,
          0.3274761378858238
        ],
        [
          0.1267172171145212,
          0.3274761378858238
        ],
        [
          0.1267172171145212,
          0.36002997496793976
        ],
        [
          0.09416338003240526,
          0.36002997496793976
        ],
        [
          0.09416338003240526,
          0.3274761378858238
        ]
      ]
    ],
    "type": "Polygon"
  },
  "id": "CHG_clear_regular_0070",
  "properties": {
    "feature_type": "reference_change",
    "stratum": "clear_regular",
    "tile_id": "AUD_clear_regular_010"
  },
  "type": "Feature"
}
