{
  "geometry": {
    "coordinates": [
      [
        [
          0.07918835708405822,
          0.12909033879637719
        ],
        [
          0.1012815273022279,
          0.12909033879637719
        ],
        [
          0.1012815273022279,
          0.15118350901454689
        ],
        [
          0.07918835708405822,
          0.15118350901454689
        ],
        [
          0.07918835708405822,
          0.12909033879637719
        ]
      ]
    ],
    "type": "Polygon"
  },
  "id": "CHG_texture_complex_0157",
  "properties": {
    "feature_type": "reference_change",
    "stratum": "texture_complex",
    "tile_id": "AUD_texture_complex_037"
  },
  "type": "Feature"
}
