{
  "geometry": {
    "coordinates": [
      [
        [
          0.7162798509001732,
          0.6021522303298116
        ],
        [
          0.734914494026918,
          0.6021522303298116
        ],
        [
          0.734914494026918,
          0.6207868734565564
        ],
        [
          0.7162798509001732,
          0.6207868734565564
        ],
        [
          0.7162798509001732,
          0.6021522303298116
        ]
      ]
    ],
    "type": "Polygon"
  },
  "id": "CHG_heavy_cloud_0178",
  "properties": {
    "feature_type": "reference_change",
    "stratum": "heavy_cloud",
    "tile_id": "AUD_heavy_cloud_058"
  },
  "type": "Feature"
}
