{
  "geometry": {
    "coordinates": [
      [
        [
          0.21317295426502825,
          0.7686726946523413
        ],
        [
          0.2274249089327641,
          0.7686726946523413
        ],
        [
          0.2274249089327641,
          0.7829246493200772
        ],
        [
          0.21317295426502825,
          0.7829246493200772
        ],
        [
          0.21317295426502825,
          0.7686726946523413
        ]
      ]
    ],
    "type": "Polygon"
  },
  "id": "CHG_heavy_cloud_0041",
  "properties": {
    "feature_type": "reference_change",
    "stratum": "heavy_cloud",
    "tile_id": "AUD_heavy_cloud_041"
  },
  "type": "Feature"
}
