{
  "geometry": {
    "coordinates": [
      [
        [
          0.4168021936435252,
          0.6308364195097238
        ],
        [
          0.4358006928528193,
          0.6308364195097238
        ],
        [
          0.4358006928528193,
          0.6498349187190179
        ],
        [
          0.4168021936435252,
          0.6498349187190179
        ],
        [
          0.4168021936435252,
          0.6308364195097238
        ]
      ]
    ],
    "type": "Polygon"
  },
  "id": "CHG_clear_regular_0032",
  "properties": {
    "feature_type": "reference_change",
    "stratum": "clear_regular",
    "tile_id": "AUD_clear_regular_032"
  },
  "type": "Feature"
}
