{
  "geometry": {
    "coordinates": [
      [
        [
          0.839555190592073,
          0.5078838043007999
        ],
        [
          0.8728310978929512,
          0.5078838043007999
        ],
        [
          0.8728310978929512,
          0.5411597116016782
        ],
        [
          0.839555190592073,
          0.5411597116016782
        ],
        [
          0.839555190592073,
          0.5078838043007999
        ]
      ]
    ],
    "type": "Polygon"
  },
  "id": "CHG_heavy_cloud_0010",
  "properties": {
    "feature_type": "reference_change",
    "stratum": "heavy_cloud",
    "tile_id": "AUD_heavy_cloud_010"
  },
  "type": "Feature"
}
