{
  "geometry": {
    "coordinates": [
      [
        [
          0.35140091269277035,
          0.6889158257609234
        ],
        [
          0.38591542704426685,
          0.6889158257609234
        ],
        [
          0.38591542704426685,
          0.7234303401124198
        ],
        [
          0.35140091269277035,
          0.7234303401124198
        ],
        [
          0.35140091269277035,
          0.6889158257609234
        ]
      ]
    ],
    "type": "Polygon"
  },
  "id": "CHG_clear_regular_0093",
  "properties": {
    "feature_type": "reference_change",
    "stratum": "clear_regular",
    "tile_id": "AUD_clear_regular_033"
  },
  "type": "Feature"
}
