{
  "geometry": {
    "coordinates": [
      [
        [
          0.19526995573658495,
          0.19755725156050175
        ],
        [
          0.22771709068492055,
          0.19755725156050175
        ],
        [
          0.22771709068492055,
          0.23000438650883734
        ],
        [
          0.19526995573658495,
          0.23000438650883734
        ],
        [
          0.19526995573658495,
          0.19755725156050175
        ]
      ]
    ],
    "type": "Polygon"
  },
  "id": "CHG_texture_complex_0035",
  "properties": {
    "feature_type": "reference_change",
    "stratum": "texture_complex",
    "tile_id": "AUD_texture_complex_035"
  },
  "type": "Feature"
}
