{
  "geometry": {
    "coordinates": [
      [
        [
          0.8287835950637237,
          0.5854306612862274
        ],
        [
          0.8440873687940185,
          0.5854306612862274
        ],
        [
          0.8440873687940185,
          0.6007344350165222
        ],
        [
          0.8287835950637237,
          0.6007344350165222
        ],
        [
          0.8287835950637237,
          0.5854306612862274
        ]
      ]
    ],
    "type": "Polygon"
  },
  "id": "CHG_heavy_cloud_0078",
  "properties": {
    "feature_type": "reference_change",
    "stratum": "heavy_cloud",
    "tile_id": "AUD_heavy_cloud_018"
  },
  "type": "Feature"
}
