{
  "geometry": {
    "coordinates": [
      [
        [
          0.39707757940515875,
          0.49821177261415867
        ],
        [
          0.4290620572916232,
          0.49821177261415867
        ],
        [
          0.4290620572916232,
          0.5301962505006231
        ],
        [
          0.39707757940515875,
          0.5301962505006231
        ],
        [
          0.39707757940515875,
          0.49821177261415867
        ]
      ]
    ],
    "type": "Polygon"
  },
  "id": "CHG_texture_complex_0008",
  "properties": {
    "feature_type": "reference_change",
    "stratum": "texture_complex",
    "tile_id": "AUD_texture_complex_008"
  },
  "type": "Feature"
}
