{
  "geometry": {
    "coordinates": [
      [
        [
          0.2038559238053858,
          0.32490304611623283
        ],
        [
          0.21837582689872942,
          0.32490304611623283
        ],
        [
          0.21837582689872942,
          0.33942294920957644
        ],
        [
          0.2038559238053858,
          0.33942294920957644
        ],
        [
          0.2038559238053858,
          0.32490304611623283
        ]
      ]
    ],
    "type": "Polygon"
  },
  "id": "CHG_texture_complex_0037",
  "properties": {
    "feature_type": "reference_change",
    "stratum": "texture_complex",
    "tile_id": "AUD_texture_complex_037"
  },
  "type": "Feature"
}
