{
  "geometry": {
    "coordinates": [
      [
        [
          0.425406982335262,
          0.18968127219937742
        ],
        [
          0.4375571296601556,
          0.18968127219937742
        ],
        [
          0.4375571296601556,
          0.20183141952427103
        ],
        [
          0.425406982335262,
          0.20183141952427103
        ],
        [
          0.425406982335262,
          0.18968127219937742
        ]
      ]
    ],
    "type": "Polygon"
  },
  "id": "CHG_heavy_cloud_0076",
  "properties": {
    "feature_type": "reference_change",
    "stratum": "heavy_cloud",
    "tile_id": "AUD_heavy_cloud_016"
  },
  "type": "Feature"
}
