{
  "geometry": {
    "coordinates": [
      [
        [
          0.30210661555640395,
          0.7615551548171788
        ],
        [
          0.32418872407218435,
          0.7615551548171788
        ],
        [
          0.32418872407218435,
          0.7836372633329592
        ],
        [
          0.30210661555640395,
          0.7836372633329592
        ],
        [
          0.30210661555640395,
          0.7615551548171788
        ]
      ]
    ],
    "type": "Polygon"
  },
  "id": "CHG_heavy_cloud_0065",
  "properties": {
    "feature_type": "reference_change",
    "stratum": "heavy_cloud",
    "tile_id": "AUD_heavy_cloud_005"
  },
  "type": "Feature"
}
