{
  "geometry": {
    "coordinates": [
      [
        [
          0.7538864272134379,
          0.07781658133491874
        ],
        [
          0.7780866387491114,
          0.07781658133491874
        ],
        [
          0.7780866387491114,
          0.10201679287059233
        ],
        [
          0.7538864272134379,
          0.10201679287059233
        ],
        [
          0.7538864272134379,
          0.07781658133491874
        ]
      ]
    ],
    "type": "Polygon"
  },
  "id": "CHG_clear_regular_0060",
  "properties": {
    "feature_type": "reference_change",
    "stratum": "clear_regular",
    "tile_id": "AUD_clear_regular_000"
  },
  "type": "Feature"
}
