{
  "geometry": {
    "coordinates": [
      [
        [
          0.1613762056035921,
          0.7563363137608394
        ],
        [
          0.18756341824703848,
          0.7563363137608394
        ],
        [
          0.18756341824703848,
          0.7825235264042858
        ],
        [
          0.1613762056035921,
          0.7825235264042858
        ],
        [
          0.1613762056035921,
          0.7563363137608394
        ]
      ]
    ],
    "type": "Polygon"
  },
  "id": "CHG_heavy_cloud_0099",
  "properties": {
    "feature_type": "reference_change",
    "stratum": "heavy_cloud",
    "tile_id": "AUD_heavy_cloud_039"
  },
  "type": "Feature"
}
