{
  "geometry": {
    "coordinates": [
      [
        [
          0.6094955886201933,
          0.532196406358853
        ],
        [
          0.6459352543943095,
          0.532196406358853
        ],
        [
          0.6459352543943095,
          0.5686360721329693
        ],
        [
          0.6094955886201933,
          0.5686360721329693
        ],
        [
          0.6094955886201933,
          0.532196406358853
        ]
      ]
    ],
    "type": "Polygon"
  },
  "id": "CHG_clear_regular_0014",
  "properties": {
    "feature_type": "reference_change",
    "stratum": "clear_regular",
    "tile_id": "AUD_clear_regular_014"
  },
  "type": "Feature"
}
