{
  "geometry": {
    "coordinates": [
      [
        [
          0.783117422903888,
          0.18546231659129264
        ],
        [
          0.8120543656176888,
          0.18546231659129264
        ],
        [
          0.8120543656176888,
          0.21439925930509346
        ],
        [
          0.783117422903888,
          0.21439925930509346
        ],
        [
          0.783117422903888,
          0.18546231659129264
        ]
      ]
    ],
    "type": "Polygon"
  },
  "id": "CHG_heavy_cloud_0079",
  "properties": {
    "feature_type": "reference_change",
    "stratum": "heavy_cloud",
    "tile_id": "AUD_heavy_cloud_019"
  },
  "type": "Feature"
}
