{
  "geometry": {
    "coordinates": [
      [
        [
          0.4017798831593245,
          0.07933016184251755
        ],
        [
          0.4324428601276595,
          0.07933016184251755
        ],
        [
          0.4324428601276595,
          0.10999313881085254
        ],
        [
          0.4017798831593245,
          0.10999313881085254
        ],
        [
          0.4017798831593245,
          0.07933016184251755
        ]
      ]
    ],
    "type": "Polygon"
  },
  "id": "CHG_clear_regular_0013",
  "properties": {
    "feature_type": "reference_change",
    "stratum": "clear_regular",
    "tile_id": "AUD_clear_regular_013"
  },
  "type": "Feature"
}
