{
  "geometry": {
    "coordinates": [
      [
        [
          0.14781904466450213,
          0.21416342501062902
        ],
        [
          0.16580624103941954,
          0.21416342501062902
        ],
        [
          0.16580624103941954,
          0.23215062138554643
        ],
        [
          0.14781904466450213,
          0.23215062138554643
        ],
        [
          0.14781904466450213,
          0.21416342501062902
        ]
      ]
    ],
    "type": "Polygon"
  },
  "id": "CHG_heavy_cloud_0039",
  "properties": {
    "feature_type": "reference_change",
    "stratum": "heavy_cloud",
    "tile_id": "AUD_heavy_cloud_039"
  },
  "type": "Feature"
}
