{
  "geometry": {
    "coordinates": [
      [
        [
          0.7047912976611406,
          0.250743156094104
        ],
        [
          0.7387880036344286,
          0.250743156094104
        ],
        [
          0.7387880036344286,
          0.2847398620673921
        ],
        [
          0.7047912976611406,
          0.2847398620673921
        ],
        [
          0.7047912976611406,
          0.250743156094104
        ]
      ]
    ],
    "type": "Polygon"
  },
  "id": "CHG_clear_regular_0113",
  "properties": {
    "feature_type": "reference_change",
    "stratum": "clear_regular",
    "tile_id": "AUD_clear_regular_053"
  },
  "type": "Feature"
}
