{
  "geometry": {
    "coordinates": [
      [
        [
          0.7717525672726333,
          0.19862100680824368
        ],
        [
          0.8066208973159082,
          0.19862100680824368
        ],
        [
          0.8066208973159082,
          0.2334893368515186
        ],
        [
          0.7717525672726333,
          0.2334893368515186
        ],
        [
          0.7717525672726333,
          0.19862100680824368
        ]
      ]
    ],
    "type": "Polygon"
  },
  "id": "CHG_clear_regular_0095",
  "properties": {
    "feature_type": "reference_change",
    "stratum": "clear_regular",
    "tile_id": "AUD_clear_regular_035"
  },
  "type": "Feature"
}
