{
  "geometry": {
    "coordinates": [
      [
        [
          0.5922268707444891,
          0.24389589909929782
        ],
        [
          0.6237827875562943,
          0.24389589909929782
        ],
        [
          0.6237827875562943,
          0.275451815911103
        ],
        [
          0.5922268707444891,
          0.275451815911103
        ],
        [
          0.5922268707444891,
          0.24389589909929782
        ]
      ]
    ],
    "type": "Polygon"
  },
  "id": "CHG_clear_regular_0119",
  "properties": {
    "feature_type": "reference_change",
    "stratum": "clear_regular",
    "tile_id": "AUD_clear_regular_059"
  },
  "type": "Feature"
}
