{
  "geometry": {
    "coordinates": [
      [
        [
          0.4209481698414311,
          0.2674339784355834
        ],
        [
          0.4529459059778601,
          0.2674339784355834
        ],
        [
          0.4529459059778601,
          0.29943171457201245
        ],
        [
          0.4209481698414311,
          0.29943171457201245
        ],
        [
          0.4209481698414311,
          0.2674339784355834
        ]
      ]
    ],
    "type": "Polygon"
  },
  "id": "CHG_clear_regular_0079",
  "properties": {
    "feature_type": "reference_change",
    "stratum": "clear_regular",
    "tile_id": "AUD_clear_regular_019"
  },
  "type": "Feature"
}
