{
  "geometry": {
    "coordinates": [
      [
        [
          0.518940935167484,
          0.8667082244018093
        ],
        [
          0.5382954153236933,
          0.8667082244018093
        ],
        [
          0.5382954153236933,
          0.8860627045580186
        ],
        [
          0.518940935167484,
          0.8860627045580186
        ],
        [
          0.518940935167484,
          0.8667082244018093
        ]
      ]
    ],
    "type": "Polygon"
  },
  "id": "CHG_clear_regular_0055",
  "properties": {
    "feature_type": "reference_change",
    "stratum": "clear_regular",
    "tile_id": "AUD_clear_regular_055"
  },
  "type": "Feature"
}
