{
  "geometry": {
    "coordinates": [
      [
        [
          0.05294690560083837,
          0.08624867251142859
        ],
        [
          0.08177191195590422,
          0.08624867251142859
        ],
        [
          0.08177191195590422,
          0.11507367886649444
        ],
        [
          0.05294690560083837,
          0.11507367886649444
        ],
        [
          0.05294690560083837,
          0.08624867251142859
        ]
      ]
    ],
    "type": "Polygon"
  },
  "id": "CHG_clear_regular_0046",
  "properties": {
    "feature_type": "reference_change",
    "stratum": "clear_regular",
    "tile_id": "AUD_clear_regular_046"
  },
  "type": "Feature"
}
