{
  "geometry": {
    "coordinates": [
      [
        [
          0.18210252782329917,
          0.1989352452289313
        ],
        [
          0.20598101466242225,
          0.1989352452289313
        ],
        [
          0.20598101466242225,
          0.22281373206805438
        ],
        [
          0.18210252782329917,
          0.22281373206805438
        ],
        [
          0.18210252782329917,
          0.1989352452289313
        ]
      ]
    ],
    "type": "Polygon"
  },
  "id": "CHG_clear_regular_0011",
  "properties": {
    "feature_type": "reference_change",
    "stratum": "clear_regular",
    "tile_id": "AUD_clear_regular_011"
  },
  "type": "Feature"
}
