{
  "geometry": {
    "coordinates": [
      [
        [
          0.3026219063345343,
          0.5067530672391877
        ],
        [
          0.33792872383771466,
          0.5067530672391877
        ],
        [
          0.33792872383771466,
          0.542059884742368
        ],
        [
          0.3026219063345343,
          0.542059884742368
        ],
        [
          0.3026219063345343,
          0.5067530672391877
        ]
      ]
    ],
    "type": "Polygon"
  },
  "id": "CHG_clear_regular_0105",
  "properties": {
    "feature_type": "reference_change",
    "stratum": "clear_regular",
    "tile_id": "AUD_clear_regular_045"
  },
  "type": "Feature"
}
