{
  "geometry": {
    "coordinates": [
      [
        [
          0.44515949530526994,
          0.41632908459752793
        ],
        [
          0.4779266342211049,
          0.41632908459752793
        ],
        [
          0.4779266342211049,
          0.44909622351336287
        ],
        [
          0.44515949530526994,
          0.44909622351336287
        ],
        [
          0.44515949530526994,
          0.41632908459752793
        ]
      ]
    ],
    "type": "Polygon"
  },
  "id": "CHG_heavy_cloud_0118",
  "properties": {
    "feature_type": "reference_change",
    "stratum": "heavy_cloud",
    "tile_id": "AUD_heavy_cloud_058"
  },
  "type": "Feature"
}
