{
  "geometry": {
    "coordinates": [
      [
        [
          0.23394228070508688,
          0.8397047272743657
        ],
        [
          0.269995813783491,
          0.8397047272743657
        ],
        [
          0.269995813783491,
          0.8757582603527698
        ],
        [
          0.23394228070508688,
          0.8757582603527698
        ],
        [
          0.23394228070508688,
          0.8397047272743657
        ]
      ]
    ],
    "type": "Polygon"
  },
  "id": "CHG_heavy_cloud_0081",
  "properties": {
    "feature_type": "reference_change",
    "stratum": "heavy_cloud",
    "tile_id": "AUD_heavy_cloud_021"
  },
  "type": "Feature"
}
