{
  "geometry": {
    "coordinates": [
      [
        [
          0.8636208544997498,
          0.6353245506156237
        ],
        [
          0.90043666183413,
          0.6353245506156237
        ],
        [
          0.90043666183413,
          0.6721403579500038
        ],
        [
          0.8636208544997498,
          0.6721403579500038
        ],
        [
          0.8636208544997498,
          0.6353245506156237
        ]
      ]
    ],
    "type": "Polygon"
  },
  "id": "CHG_informal_small_roofs_0072",
  "properties": {
    "feature_type": "reference_change",
    "stratum": "informal_small_roofs",
    "tile_id": "AUD_informal_small_roofs_012"
  },
  "type": "Feature"
}
