{
  "geometry": {
    "coordinates": [
      [
        [
          0.18694969756528734,
          0.5159677439276129
        ],
        [
          0.20716475347685626,
          0.5159677439276129
        ],
        [
          0.20716475347685626,
          0.5361827998391818
        ],
        [
          0.18694969756528734,
          0.5361827998391818
        ],
        [
          0.18694969756528734,
          0.5159677439276129
        ]
      ]
    ],
    "type": "Polygon"
  },
  "id": "CHG_heavy_cloud_0016",
  "properties": {
    "feature_type": "reference_change",
    "stratum": "heavy_cloud",
    "tile_id": "AUD_heavy_cloud_016"
  },
  "type": "Feature"
}
