{
  "geometry": {
    "coordinates": [
      [
        [
          0.6049414568440988,
          0.4998820655746385
        ],
        [
          0.6241096267516258,
          0.4998820655746385
        ],
        [
          0.6241096267516258,
          0.5190502354821656
        ],
        [
          0.6049414568440988,
          0.5190502354821656
        ],
        [
          0.6049414568440988,
          0.4998820655746385
        ]
      ]
    ],
    "type": "Polygon"
  },
  "id": "CHG_heavy_cloud_0174",
  "properties": {
    "feature_type": "reference_change",
    "stratum": "heavy_cloud",
    "tile_id": "AUD_heavy_cloud_054"
  },
  "type": "Feature"
}
