{
  "geometry": {
    "coordinates": [
      [
        [
          0.5450419731345028,
          0.6912447952758521
        ],
        [
          0.5790726297504734,
          0.6912447952758521
        ],
        [
          0.5790726297504734,
          0.7252754518918227
        ],
        [
          0.5450419731345028,
          0.7252754518918227
        ],
        [
          0.5450419731345028,
          0.6912447952758521
        ]
      ]
    ],
    "type": "Polygon"
  },
  "id": "CHG_clear_regular_0057",
  "properties": {
    "feature_type": "reference_change",
    "stratum": "clear_regular",
    "tile_id": "AUD_clear_regular_057"
  },
  "type": "Feature"
}
