{
  "geometry": {
    "coordinates": [
      [
        [
          0.4044719915324822,
          0.6708325329655781
        ],
        [
          0.43429713319218716,
          0.6708325329655781
        ],
        [
          0.43429713319218716,
          0.7006576746252831
        ],
        [
          0.4044719915324822,
          0.7006576746252831
        ],
        [
          0.4044719915324822,
          0.6708325329655781
        ]
      ]
    ],
    "type": "Polygon"
  },
  "id": "CHG_clear_regular_0143",
  "properties": {
    "feature_type": "reference_change",
    "stratum": "clear_regular",
    "tile_id": "AUD_clear_regular_023"
  },
  "type": "Feature"
}
