{
  "geometry": {
    "coordinates": [
      [
        [
          0.3368898811610415,
          0.4698921755841001
        ],
        [
          0.36694990808423605,
          0.4698921755841001
        ],
        [
          0.36694990808423605,
          0.49995220250729466
        ],
        [
          0.3368898811610415,
          0.49995220250729466
        ],
        [
          0.3368898811610415,
          0.4698921755841001
        ]
      ]
    ],
    "type": "Polygon"
  },
  "id": "CHG_clear_regular_0157",
  "properties": {
    "feature_type": "reference_change",
    "stratum": "clear_regular",
    "tile_id": "AUD_clear_regular_037"
  },
  "type": "Feature"
}
