{
  "geometry": {
    "coordinates": [
      [
        [
          0.16879784079268573,
          0.07205366565845907
        ],
        [
          0.18724858318851328,
          0.07205366565845907
        ],
        [
          0.18724858318851328,
          0.09050440805428661
        ],
        [
          0.16879784079268573,
          0.09050440805428661
        ],
        [
          0.16879784079268573,
          0.07205366565845907
        ]
      ]
    ],
    "type": "Polygon"
  },
  "id": "CHG_clear_regular_0084",
  "properties": {
    "feature_type": "reference_change",
    "stratum": "clear_regular",
    "tile_id": "AUD_clear_regular_024"
  },
  "type": "Feature"
}
