{
  "geometry": {
    "coordinates": [
      [
        [
          0.7780331369489432,
          0.4532151997974142
        ],
        [
          0.797287028941093,
          0.4532151997974142
        ],
        [
          0.797287028941093,
          0.4724690917895641
        ],
        [
          0.7780331369489432,
          0.4724690917895641
        ],
        [
          0.7780331369489432,
          0.4532151997974142
        ]
      ]
    ],
    "type": "Polygon"
  },
  "id": "CHG_clear_regular_0054",
  "properties": {
    "feature_type": "reference_change",
    "stratum": "clear_regular",
    "tile_id": "AUD_clear_regular_054"
  },
  "type": "Feature"
}
