{
  "geometry": {
    "coordinates": [
      [
        [
          0.39806878901552406,
          0.5684553326712921
        ],
        [
          0.4230726607451215,
          0.5684553326712921
        ],
        [
          0.4230726607451215,
          0.5934592044008895
        ],
        [
          0.39806878901552406,
          0.5934592044008895
        ],
        [
          0.39806878901552406,
          0.5684553326712921
        ]
      ]
    ],
    "type": "Polygon"
  },
  "id": "CHG_clear_regular_0005",
  "properties": {
    "feature_type": "reference_change",
    "stratum": "clear_regular",
    "tile_id": "AUD_clear_regular_005"
  },
  "type": "Feature"
}
