{
  "geometry": {
    "coordinates": [
      [
        [
          0.5482852654578164,
          0.4063468696549534
        ],
        [
          0.574906609782949,
          0.4063468696549534
        ],
        [
          0.574906609782949,
          0.4329682139800861
        ],
        [
          0.5482852654578164,
          0.4329682139800861
        ],
        [
          0.5482852654578164,
          0.4063468696549534
        ]
      ]
    ],
    "type": "Polygon"
  },
  "id": "CHG_clear_regular_0044",
  "properties": {
    "feature_type": "reference_change",
    "stratum": "clear_regular",
    "tile_id": "AUD_clear_regular_044"
  },
  "type": "Feature"
}
