{
  "geometry": {
    "coordinates": [
      [
        [
          0.2825924405036494,
          0.2806334585696459
        ],
        [
          0.31401141595258375,
          0.2806334585696459
        ],
        [
          0.31401141595258375,
          0.31205243401858024
        ],
        [
          0.2825924405036494,
          0.31205243401858024
        ],
        [
          0.2825924405036494,
          0.2806334585696459
        ]
      ]
    ],
    "type": "Polygon"
  },
  "id": "CHG_clear_regular_0050",
  "properties": {
    "feature_type": "reference_change",
    "stratum": "clear_regular",
    "tile_id": "AUD_clear_regular_050"
  },
  "type": "Feature"
}
